# 2022 12 20 10 59 42.695 40.5292 -124.3201 15.885 1.415 0.170 0.170 0.679 73 
1584B.NP 3.385 0.57 P 
KCT.NC 3.798 0.63 P 
1586.NP 4.375 0.86 P 
KMPB.NC 5.228 1.01 P 
B046.PB 5.663 1.00 P 
RBOW.BK 6.115 0.46 P 
KCO.NC 6.838 0.94 P 
B047.PB 7.043 0.98 P 
KPR.NC 8.435 0.59 P 
KCR.NC 8.755 0.85 P 
KBU.NC 9.885 0.60 P 
B049.PB 10.023 0.85 P 
PRDS.BK 10.155 0.91 P 
89688.CE 10.215 0.88 P 
BRIC.BK 11.795 0.52 P 
HAYF.BK 18.386 0.37 P 
1584B.NP 6.235 0.88 S 
KCT.NC 7.088 0.62 S 
1023.NP 7.425 0.94 S 
1586.NP 8.055 0.78 S 
KMPB.NC 9.568 0.92 S 
89462.CE 9.595 0.89 S 
B046.PB 10.123 0.91 S 
PETL.BK 10.905 0.38 S 
RBOW.BK 11.035 0.42 S 
KCO.NC 12.358 0.89 S 
B047.PB 12.643 0.86 S 
KPR.NC 15.225 0.60 S 
KCR.NC 15.675 0.60 S 
B049.PB 17.893 0.88 S 
KBU.NC 18.025 0.61 S 
89688.CE 18.435 0.79 S 
B935.PB 19.983 0.47 S 
BRIC.BK 20.685 0.56 S 
KMR.NC 20.828 0.51 S 
# 2022 12 20 11 0 26.703 40.7260 -123.8186 27.054 1.384 0.252 0.252 0.620 74 
KNEE.BK 4.927 0.55 P 
KHMB.NC 5.930 0.67 P 
B935.PB 7.475 0.97 P 
KCR.NC 7.567 0.64 P 
KBU.NC 8.557 0.89 P 
KMR.NC 9.340 0.77 P 
KHBB.NC 9.810 0.90 P 
B049.PB 10.155 0.96 P 
HAYF.BK 10.278 0.62 P 
BRIC.BK 11.187 0.44 P 
DMOR.BK 7.827 0.91 S 
KNEE.BK 9.371 0.91 S 
KHMB.NC 10.520 0.51 S 
BJES.BK 11.687 0.70 S 
B935.PB 13.355 0.92 S 
KCR.NC 13.507 0.55 S 
KHBB.NC 16.870 0.93 S 
B049.PB 17.495 0.90 S 
HAYF.BK 17.678 0.57 S 
KMR.NC 19.470 0.38 S 
WEAV.BK 21.217 0.40 S 
# 2022 12 20 11 0 50.829 40.4890 -124.4101 16.216 1.804 0.152 0.152 0.592 75 
KCT.NC 3.584 0.94 P 
1584B.NP 4.371 1.01 P 
B046.PB 5.139 1.00 P 
PETL.BK 5.431 0.43 P 
1023.NP 5.541 1.02 P 
KMPB.NC 5.934 0.65 P 
KCO.NC 6.344 1.06 P 
1586.NP 6.651 1.02 P 
RBOW.BK 6.781 0.78 P 
1581.NP 8.001 1.02 P 
KPR.NC 8.251 0.63 P 
89781.CE 8.941 0.96 P 
KNEE.BK 9.335 0.63 P 
PRDS.BK 9.601 0.63 P 
BJES.BK 9.761 0.98 P 
KCR.NC 9.931 0.81 P 
89688.CE 9.961 0.79 P 
BRIC.BK 11.611 0.92 P 
KBU.NC 11.941 0.90 P 
B049.PB 12.149 0.85 P 
B935.PB 12.469 0.87 P 
KHMB.NC 13.424 0.86 P 
KMR.NC 13.744 0.92 P 
KHBB.NC 16.394 0.70 P 
KCT.NC 7.044 0.44 S 
1584B.NP 7.621 0.97 S 
1023.NP 9.071 0.92 S 
B046.PB 9.309 0.90 S 
PETL.BK 9.971 0.52 S 
KMPB.NC 10.704 0.56 S 
1586.NP 10.821 0.88 S 
KCO.NC 11.464 0.96 S 
1581.NP 12.571 0.47 S 
89781.CE 13.861 0.60 S 
KPR.NC 15.221 0.53 S 
BJES.BK 16.211 0.92 S 
KNEE.BK 17.195 0.95 S 
PRDS.BK 17.695 0.45 S 
89688.CE 17.861 0.84 S 
KCR.NC 17.931 0.92 S 
DMOR.BK 19.931 0.39 S 
KBU.NC 19.981 0.84 S 
BRIC.BK 21.031 0.39 S 
KMR.NC 22.084 0.57 S 
B935.PB 22.749 0.94 S 
1591.NP 22.981 0.94 S 
# 2022 12 20 11 1 6.223 40.3996 -124.1856 21.997 1.683 0.302 0.302 0.872 76 
RBOW.BK 3.457 0.63 P 
B046.PB 3.615 0.67 P 
KCO.NC 4.610 0.77 P 
KPR.NC 5.647 0.59 P 
1584B.NP 6.397 0.80 P 
1023.NP 6.537 0.82 P 
KBU.NC 6.847 0.83 P 
B049.PB 6.895 0.84 P 
1586.NP 7.857 0.60 P 
RBOW.BK 7.947 0.40 S 
B046.PB 8.205 0.82 S 
1584B.NP 9.137 0.58 S 
KCO.NC 9.990 0.85 S 
1023.NP 10.847 0.71 S 
KPR.NC 11.267 0.64 S 
1586.NP 12.507 0.65 S 
KBU.NC 14.487 0.46 S 
B049.PB 14.705 0.61 S 
B935.PB 16.475 0.72 S 
# 2022 12 20 11 1 42.703 40.4992 -124.4322 11.576 1.278 0.193 0.193 0.551 77 
1584B.NP 3.967 1.00 P 
B046.PB 5.705 0.97 P 
1023.NP 5.727 0.98 P 
1586.NP 5.817 0.96 P 
PETL.BK 6.167 0.55 P 
KMPB.NC 6.360 0.56 P 
RBOW.BK 7.027 0.68 P 
KPR.NC 9.087 0.58 P 
PRDS.BK 10.421 0.55 P 
KBU.NC 10.867 0.72 P 
B049.PB 11.085 0.85 P 
BRIC.BK 12.187 0.55 P 
KCT.NC 4.980 0.33 S 
1584B.NP 7.167 0.95 S 
B046.PB 10.015 0.94 S 
PETL.BK 10.677 0.37 S 
1586.NP 10.787 0.87 S 
KMPB.NC 11.100 0.90 S 
89462.CE 11.547 0.80 S 
KCO.NC 12.140 0.87 S 
KPR.NC 16.267 0.89 S 
PRDS.BK 18.237 0.37 S 
89688.CE 18.717 0.82 S 
BRIC.BK 21.787 0.61 S 
B049.PB 22.075 0.41 S 
# 2022 12 20 11 2 13.169 40.5254 -124.3272 16.309 2.328 0.133 0.133 0.575 78 
1584B.NP 3.541 0.87 P 
KCT.NC 4.034 0.47 P 
1023.NP 4.111 0.97 P 
1586.NP 4.931 0.95 P 
89462.CE 5.221 0.92 P 
KMPB.NC 5.414 0.58 P 
B046.PB 5.639 0.93 P 
1581.NP 6.101 0.93 P 
RBOW.BK 6.271 0.44 P 
89781.CE 6.841 0.93 P 
KCO.NC 7.044 0.95 P 
BJES.BK 7.681 0.76 P 
KNEE.BK 8.431 0.56 P 
1580.NP 8.491 0.97 P 
KPR.NC 8.541 0.57 P 
KCR.NC 8.821 0.58 P 
DMOR.BK 9.241 0.44 P 
KBU.NC 9.991 0.57 P 
B049.PB 10.109 0.86 P 
PRDS.BK 10.161 0.50 P 
89688.CE 10.421 0.82 P 
KHMB.NC 11.564 0.58 P 
B935.PB 11.629 0.86 P 
KMR.NC 11.724 0.59 P 
BRIC.BK 11.791 0.62 P 
KCSB.NC 12.234 0.83 P 
1591.NP 12.511 0.92 P 
HAYF.BK 15.292 0.53 P 
KHBB.NC 15.524 0.63 P 
B934.PB 17.829 0.42 P 
WEAV.BK 18.101 0.33 P 
LBK.NC 23.231 0.78 P 
1584B.NP 6.281 0.89 S 
KCT.NC 7.194 0.72 S 
1023.NP 8.031 0.77 S 
1586.NP 9.271 0.79 S 
KMPB.NC 9.534 0.51 S 
89462.CE 9.611 0.90 S 
B046.PB 9.889 0.90 S 
PETL.BK 10.801 0.54 S 
RBOW.BK 11.001 0.39 S 
1581.NP 11.211 0.90 S 
KCO.NC 12.034 0.87 S 
89781.CE 12.361 0.91 S 
1580.NP 15.001 0.91 S 
KNEE.BK 15.035 0.33 S 
KPR.NC 15.471 0.57 S 
KCR.NC 15.911 0.59 S 
PRDS.BK 17.551 0.42 S 
89688.CE 17.851 0.88 S 
KBU.NC 17.871 0.59 S 
DMOR.BK 17.881 0.34 S 
B049.PB 18.059 0.87 S 
KHMB.NC 20.544 0.57 S 
BRIC.BK 20.731 0.36 S 
KMR.NC 20.994 0.55 S 
B935.PB 21.169 0.87 S 
1591.NP 22.031 0.85 S 
KCSB.NC 22.784 0.84 S 
B934.PB 27.049 0.42 S 
HAYF.BK 28.114 0.50 S 
KHBB.NC 29.054 0.47 S 
# 2022 12 20 11 2 38.489 40.6692 -123.9144 22.025 1.989 0.188 0.188 0.487 79 
BJES.BK 5.041 0.94 P 
89781.CE 5.441 0.95 P 
1581.NP 6.071 0.92 P 
89462.CE 6.301 0.90 P 
KHMB.NC 6.454 0.79 P 
KCR.NC 6.671 0.88 P 
KMPB.NC 7.334 0.87 P 
B935.PB 7.649 0.85 P 
KCSB.NC 7.924 0.87 P 
1584B.NP 8.071 0.87 P 
RBOW.BK 8.221 0.78 P 
B049.PB 9.339 0.81 P 
KBU.NC 9.361 0.63 P 
KPR.NC 9.421 0.53 P 
KMR.NC 10.484 0.63 P 
KHBB.NC 10.654 0.54 P 
89688.CE 11.881 0.67 P 
KNEE.BK 7.861 0.37 S 
DMOR.BK 8.561 0.91 S 
BJES.BK 9.181 0.39 S 
89781.CE 10.081 0.88 S 
1580.NP 10.621 0.90 S 
1581.NP 11.441 0.82 S 
89462.CE 11.611 0.90 S 
KHMB.NC 11.804 0.55 S 
KCR.NC 11.961 0.89 S 
KMPB.NC 13.234 0.48 S 
B935.PB 13.689 0.89 S 
1584B.NP 14.231 0.84 S 
KCSB.NC 14.564 0.90 S 
B049.PB 16.679 0.83 S 
B046.PB 16.769 0.86 S 
KBU.NC 16.821 0.45 S 
KRP.NC 17.844 0.72 S 
PETL.BK 18.391 0.81 S 
KMR.NC 18.934 0.42 S 
KHBB.NC 19.224 0.88 S 
HAYF.BK 19.302 0.64 S 
89688.CE 19.391 0.57 S 
# 2022 12 20 11 3 9.561 40.5996 -124.0576 18.407 2.739 0.145 0.145 1.204 80 
89462.CE 4.559 0.84 P 
1586.NP 4.839 0.81 P 
1584B.NP 5.359 0.58 P 
89781.CE 5.399 0.76 P 
KNEE.BK 5.459 0.45 P 
DMOR.BK 6.019 0.53 P 
RBOW.BK 6.239 0.43 P 
KCR.NC 6.469 0.56 P 
1580.NP 6.669 0.89 P 
B046.PB 7.097 0.60 P 
PETL.BK 7.739 0.49 P 
KCO.NC 7.862 0.62 P 
KPR.NC 8.129 0.50 P 
KBU.NC 8.509 0.58 P 
B049.PB 8.527 0.83 P 
KHMB.NC 8.612 0.51 P 
B935.PB 8.687 0.89 P 
KCSB.NC 9.512 0.92 P 
KMR.NC 9.872 0.56 P 
KRP.NC 10.842 0.75 P 
HAYF.BK 12.140 0.34 P 
KHBB.NC 12.382 0.57 P 
KOM.NC 14.892 0.74 P 
LBK.NC 20.129 0.91 P 
GUMB.BK 22.543 0.52 P 
89462.CE 8.559 0.80 S 
1586.NP 9.229 0.90 S 
BJES.BK 9.439 0.91 S 
KMPB.NC 9.612 0.53 S 
1023.NP 9.939 0.86 S 
89781.CE 10.019 0.86 S 
KNEE.BK 10.049 0.39 S 
1584B.NP 11.409 0.82 S 
KCT.NC 11.832 0.46 S 
KCR.NC 11.839 0.89 S 
1580.NP 11.929 0.77 S 
DMOR.BK 12.249 0.41 S 
B046.PB 12.737 0.72 S 
KPR.NC 13.289 0.58 S 
PETL.BK 14.029 0.52 S 
KCO.NC 14.302 0.64 S 
KBU.NC 14.829 0.47 S 
B049.PB 14.937 0.75 S 
KHMB.NC 15.482 0.62 S 
B935.PB 15.887 0.89 S 
KMR.NC 16.992 0.48 S 
KCSB.NC 17.372 0.82 S 
KRP.NC 17.712 0.51 S 
KHBB.NC 21.822 0.52 S 
89688.CE 22.659 0.63 S 
HAYF.BK 22.800 0.38 S 
KFP.NC 31.129 0.45 S 
B934.PB 31.377 0.51 S 
79046.CE 32.279 0.70 S 
GUMB.BK 40.363 0.36 S 
# 2022 12 20 11 4 6.236 40.5224 -124.3276 16.295 1.968 0.131 0.131 0.435 81 
1584B.NP 3.384 0.90 P 
KCT.NC 3.837 0.50 P 
1023.NP 3.954 0.93 P 
1586.NP 4.874 0.93 P 
89462.CE 5.214 0.94 P 
KMPB.NC 5.367 0.42 P 
B046.PB 5.542 0.96 P 
PETL.BK 6.154 0.54 P 
1581.NP 6.254 0.94 P 
RBOW.BK 6.274 0.52 P 
KCO.NC 6.757 0.94 P 
89781.CE 6.854 0.95 P 
BJES.BK 7.684 0.89 P 
KNEE.BK 8.368 0.53 P 
1580.NP 8.514 0.99 P 
KPR.NC 8.524 0.60 P 
KCR.NC 8.874 0.55 P 
KBU.NC 9.994 0.57 P 
B049.PB 10.192 0.85 P 
PRDS.BK 10.294 0.64 P 
89688.CE 10.374 0.79 P 
KHMB.NC 11.617 0.57 P 
B935.PB 11.662 0.76 P 
KMR.NC 11.937 0.43 P 
BRIC.BK 11.954 0.42 P 
1591.NP 12.454 0.92 P 
KCSB.NC 12.737 0.78 P 
HAYF.BK 14.385 0.77 P 
KHBB.NC 15.547 0.33 P 
WEAV.BK 17.654 0.95 P 
TRIN.BK 22.237 0.91 P 
LBK.NC 23.334 0.95 P 
SCOT.BK 23.777 0.43 P 
1584B.NP 6.064 0.88 S 
KCT.NC 6.907 0.71 S 
1023.NP 7.734 0.89 S 
1586.NP 9.214 0.87 S 
KMPB.NC 9.427 0.57 S 
89462.CE 9.464 0.90 S 
B046.PB 9.892 0.90 S 
PETL.BK 10.854 0.37 S 
RBOW.BK 11.054 0.33 S 
1581.NP 11.254 0.89 S 
KCO.NC 11.897 0.91 S 
89781.CE 12.334 0.89 S 
BJES.BK 13.984 0.75 S 
1580.NP 14.894 0.90 S 
KPR.NC 15.254 0.58 S 
KNEE.BK 15.284 0.40 S 
KCR.NC 15.894 0.59 S 
PRDS.BK 17.654 0.35 S 
89688.CE 17.974 0.79 S 
KBU.NC 18.174 0.56 S 
B049.PB 18.182 0.86 S 
KHMB.NC 19.997 0.67 S 
BRIC.BK 20.524 0.47 S 
KMR.NC 20.747 0.84 S 
B935.PB 21.082 0.88 S 
1591.NP 22.454 0.82 S 
KRP.NC 23.497 0.80 S 
B934.PB 26.572 0.50 S 
HAYF.BK 28.297 0.33 S 
LBK.NC 40.674 0.67 S 
# 2022 12 20 11 4 24.737 40.5413 -124.2077 17.303 1.607 0.170 0.170 0.693 82 
1584B.NP 3.423 0.96 P 
RBOW.BK 4.793 0.63 P 
KCO.NC 5.996 0.84 P 
1581.NP 6.873 0.82 P 
KNEE.BK 7.017 1.02 P 
PETL.BK 7.523 0.39 P 
KCR.NC 7.553 0.65 P 
KPR.NC 7.793 0.50 P 
DMOR.BK 7.943 0.87 P 
KBU.NC 8.973 0.60 P 
B049.PB 9.221 0.96 P 
PRDS.BK 9.553 0.60 P 
KHMB.NC 10.336 0.82 P 
B935.PB 10.581 0.93 P 
KMR.NC 10.876 0.96 P 
BRIC.BK 11.223 0.94 P 
1584B.NP 6.703 0.67 S 
1023.NP 7.533 0.50 S 
89462.CE 7.913 0.86 S 
1586.NP 8.123 0.86 S 
KMPB.NC 8.336 0.46 S 
1581.NP 10.033 0.73 S 
B046.PB 10.441 0.91 S 
89781.CE 10.833 0.91 S 
PETL.BK 11.593 0.35 S 
KCO.NC 12.286 0.91 S 
KNEE.BK 12.553 0.34 S 
KCR.NC 13.423 0.55 S 
KPR.NC 14.013 0.88 S 
DMOR.BK 14.463 0.34 S 
KBU.NC 16.773 0.63 S 
B049.PB 16.911 0.99 S 
PRDS.BK 17.177 0.39 S 
B935.PB 17.721 0.96 S 
KMR.NC 19.666 0.68 S 
BRIC.BK 19.703 0.55 S 
KHBB.NC 26.276 0.48 S 
# 2022 12 20 11 5 2.028 40.5335 -124.3437 17.192 2.558 0.124 0.124 0.486 83 
1584B.NP 3.532 0.98 P 
1023.NP 3.642 0.91 P 
KCT.NC 4.195 0.36 P 
1586.NP 4.922 0.97 P 
89462.CE 5.402 0.95 P 
KMPB.NC 5.595 0.50 P 
1581.NP 5.952 0.94 P 
B046.PB 5.990 0.98 P 
PETL.BK 6.532 0.54 P 
RBOW.BK 6.552 0.48 P 
89781.CE 6.692 0.93 P 
KCO.NC 7.125 0.97 P 
BJES.BK 7.832 0.71 P 
1580.NP 8.312 0.97 P 
KNEE.BK 8.322 0.47 P 
KPR.NC 8.782 0.62 P 
KCR.NC 8.962 0.60 P 
DMOR.BK 9.252 0.40 P 
PRDS.BK 10.152 0.52 P 
KBU.NC 10.202 0.51 P 
B049.PB 10.350 0.86 P 
89688.CE 10.492 0.79 P 
KTD.NC 10.642 0.93 P 
KHMB.NC 11.515 0.46 P 
B935.PB 11.730 0.86 P 
KMR.NC 11.855 0.39 P 
BRIC.BK 12.172 0.39 P 
KRP.NC 12.515 0.89 P 
KCSB.NC 12.655 0.83 P 
1591.NP 12.662 0.93 P 
HAYF.BK 15.425 0.87 P 
KHBB.NC 15.625 0.58 P 
79046.CE 16.892 0.90 P 
KOM.NC 17.515 0.99 P 
KFP.NC 19.332 0.93 P 
KBN.NC 19.782 0.85 P 
PETY.BK 21.343 0.48 P 
TRIN.BK 22.023 0.60 P 
KRK.NC 22.722 0.78 P 
GNR.NC 23.122 0.87 P 
LBK.NC 23.312 0.95 P 
SCOT.BK 23.635 0.54 P 
GROB.NC 24.162 0.49 P 
GHO.NC 25.442 0.92 P 
GUMB.BK 25.812 0.44 P 
GCWB.NC 27.802 0.52 P 
1584B.NP 6.552 0.90 S 
KCT.NC 7.545 0.66 S 
1023.NP 7.922 0.66 S 
1586.NP 9.092 0.83 S 
KMPB.NC 9.825 0.58 S 
89462.CE 9.842 0.91 S 
B046.PB 10.460 0.91 S 
1581.NP 10.992 0.91 S 
PETL.BK 11.342 0.41 S 
RBOW.BK 11.362 0.40 S 
89781.CE 12.092 0.90 S 
KCO.NC 12.395 0.91 S 
1580.NP 14.712 0.90 S 
KNEE.BK 15.136 0.41 S 
KPR.NC 15.822 0.56 S 
KCR.NC 15.982 0.51 S 
PRDS.BK 17.892 0.35 S 
KBU.NC 18.082 0.60 S 
89688.CE 18.152 0.78 S 
B049.PB 18.350 0.88 S 
KHMB.NC 20.705 0.59 S 
BRIC.BK 20.982 0.50 S 
B935.PB 21.030 0.89 S 
KMR.NC 21.605 0.83 S 
KRP.NC 22.125 0.88 S 
1591.NP 22.402 0.85 S 
KCSB.NC 22.505 0.89 S 
B934.PB 26.700 0.74 S 
KHBB.NC 27.065 0.57 S 
79046.CE 27.312 0.50 S 
HAYF.BK 28.105 0.47 S 
KIP.NC 31.142 0.86 S 
KOM.NC 31.865 0.82 S 
KFP.NC 33.942 0.67 S 
TRIN.BK 39.105 0.40 S 
PETY.BK 39.625 0.50 S 
GNR.NC 40.422 0.42 S 
SCOT.BK 40.905 0.56 S 
LBK.NC 41.422 0.86 S 
GUMB.BK 45.476 0.57 S 
# 2022 12 20 11 5 31.810 40.5246 -124.3913 17.008 1.691 0.180 0.180 0.472 84 
KCT.NC 4.123 0.70 P 
1586.NP 5.430 1.00 P 
B046.PB 5.868 1.02 P 
KMPB.NC 5.993 0.61 P 
RBOW.BK 6.750 0.37 P 
KCO.NC 6.923 0.98 P 
KPR.NC 8.800 1.00 P 
1580.NP 8.870 0.83 P 
KCR.NC 9.660 0.64 P 
DMOR.BK 9.850 0.34 P 
PRDS.BK 10.190 0.81 P 
KBU.NC 10.540 0.61 P 
89688.CE 10.680 0.92 P 
B935.PB 11.808 0.93 P 
1584B.NP 6.690 0.95 S 
KCT.NC 7.353 0.67 S 
1023.NP 8.350 0.60 S 
1586.NP 9.960 0.90 S 
B046.PB 10.088 0.90 S 
KMPB.NC 10.373 0.60 S 
89462.CE 10.860 0.81 S 
1581.NP 11.600 0.35 S 
BJES.BK 15.110 0.68 S 
KPR.NC 15.520 0.86 S 
1580.NP 15.620 0.97 S 
KCR.NC 17.330 0.60 S 
89688.CE 18.640 0.73 S 
KBU.NC 18.800 0.76 S 
B049.PB 18.888 0.74 S 
BRIC.BK 21.230 0.51 S 
B935.PB 22.128 0.92 S 
1591.NP 22.960 0.86 S 
# 2022 12 20 11 6 9.074 40.5241 -124.3430 17.633 1.751 0.148 0.148 0.532 85 
1584B.NP 3.716 1.03 P 
KCT.NC 4.089 0.62 P 
1023.NP 4.196 1.10 P 
1586.NP 5.196 1.08 P 
89462.CE 5.496 1.07 P 
KMPB.NC 5.599 0.51 P 
B046.PB 5.724 1.05 P 
PETL.BK 6.256 0.99 P 
RBOW.BK 6.326 0.75 P 
KCO.NC 6.839 1.08 P 
KNEE.BK 8.576 0.77 P 
KPR.NC 8.636 0.68 P 
1580.NP 8.676 1.06 P 
KCR.NC 9.036 0.61 P 
DMOR.BK 9.456 0.58 P 
KBU.NC 10.186 0.98 P 
BRIC.BK 10.326 0.80 P 
89688.CE 10.616 0.96 P 
PRDS.BK 10.810 0.98 P 
KHMB.NC 11.699 0.61 P 
B935.PB 11.884 0.90 P 
1584B.NP 6.496 0.97 S 
KCT.NC 7.329 0.75 S 
1023.NP 8.046 0.93 S 
1586.NP 9.626 0.94 S 
KMPB.NC 9.739 0.64 S 
89462.CE 9.816 0.95 S 
B046.PB 9.944 0.94 S 
1581.NP 11.506 0.73 S 
KCO.NC 12.019 0.97 S 
89781.CE 12.666 0.77 S 
BJES.BK 14.136 0.52 S 
KNEE.BK 15.246 0.39 S 
1580.NP 15.266 0.98 S 
KPR.NC 15.736 0.62 S 
KCR.NC 16.096 0.69 S 
B049.PB 18.154 0.99 S 
DMOR.BK 18.176 0.46 S 
89688.CE 18.336 0.99 S 
KBU.NC 18.436 0.57 S 
KHMB.NC 19.179 0.77 S 
BRIC.BK 20.716 0.41 S 
KMR.NC 21.059 0.92 S 
B935.PB 21.324 0.96 S 
B934.PB 26.684 0.47 S 
HAYF.BK 28.639 0.35 S 
# 2022 12 20 11 6 38.238 40.5942 -124.0766 15.563 1.396 0.182 0.182 0.576 86 
KMPB.NC 3.915 0.56 P 
1586.NP 4.292 0.99 P 
89781.CE 5.002 1.01 P 
KNEE.BK 5.202 0.49 P 
KCT.NC 5.855 0.95 P 
1581.NP 5.992 0.87 P 
DMOR.BK 6.082 0.63 P 
RBOW.BK 6.412 0.42 P 
KCR.NC 6.512 0.55 P 
B046.PB 7.050 0.95 P 
KCO.NC 8.215 0.96 P 
B049.PB 8.280 0.84 P 
KPR.NC 8.372 0.77 P 
KBU.NC 8.452 0.97 P 
B935.PB 9.120 1.02 P 
PRDS.BK 9.336 0.64 P 
KMR.NC 10.475 0.93 P 
KHBB.NC 13.085 0.93 P 
89462.CE 7.612 0.98 S 
1586.NP 8.172 0.89 S 
1581.NP 9.102 0.60 S 
89781.CE 9.172 0.93 S 
KNEE.BK 9.386 0.90 S 
1584B.NP 9.642 0.89 S 
RBOW.BK 11.682 0.56 S 
KCR.NC 11.792 0.60 S 
DMOR.BK 11.972 0.44 S 
KCT.NC 12.085 0.56 S 
KPR.NC 14.932 0.59 S 
KBU.NC 15.812 0.48 S 
B049.PB 16.140 0.94 S 
B935.PB 16.580 0.91 S 
KMR.NC 18.855 0.59 S 
PRDS.BK 18.892 0.40 S 
BRIC.BK 20.052 0.40 S 
KHBB.NC 24.085 0.60 S 
# 2022 12 20 11 6 59.889 40.5042 -124.3612 17.326 1.232 0.234 0.234 0.438 87 
KCT.NC 3.884 0.57 P 
KMPB.NC 5.504 0.96 P 
RBOW.BK 6.251 0.38 P 
KPR.NC 8.341 0.96 P 
PRDS.BK 9.641 0.93 P 
KBU.NC 9.721 0.85 P 
BRIC.BK 10.601 0.89 P 
1591.NP 12.381 0.88 P 
KCT.NC 7.284 0.54 S 
B046.PB 9.699 0.83 S 
KMPB.NC 9.714 0.78 S 
1586.NP 9.781 0.60 S 
PETL.BK 10.521 0.47 S 
KCO.NC 11.124 0.84 S 
KPR.NC 14.911 0.89 S 
KCR.NC 16.361 0.81 S 
PRDS.BK 17.035 0.50 S 
89688.CE 17.421 0.86 S 
KBU.NC 17.981 0.84 S 
B049.PB 18.179 0.79 S 
BRIC.BK 20.641 0.45 S 
KMR.NC 21.284 0.73 S 
1591.NP 21.941 0.86 S 
# 2022 12 20 11 7 41.096 40.5365 -123.9325 19.293 1.740 0.176 0.176 0.409 88 
BJES.BK 3.934 0.94 P 
KCR.NC 4.864 0.61 P 
KMPB.NC 5.307 0.83 P 
KNEE.BK 5.364 0.55 P 
RBOW.BK 6.064 0.54 P 
1581.NP 6.834 0.60 P 
B935.PB 6.882 0.86 P 
KBU.NC 7.174 0.60 P 
B046.PB 7.582 0.84 P 
KPR.NC 7.584 0.60 P 
KHMB.NC 8.427 0.89 P 
KMR.NC 8.827 0.88 P 
BRIC.BK 10.064 0.57 P 
HAYF.BK 10.997 0.46 P 
KHBB.NC 11.237 0.50 P 
WEAV.BK 13.814 0.58 P 
TRIN.BK 18.885 0.86 P 
KCR.NC 8.874 0.63 S 
KMPB.NC 9.757 0.48 S 
KNEE.BK 9.828 0.41 S 
1581.NP 12.234 0.62 S 
B935.PB 12.532 0.92 S 
B049.PB 12.842 0.54 S 
KBU.NC 12.874 0.78 S 
1023.NP 13.524 0.60 S 
KPR.NC 13.584 0.78 S 
B046.PB 13.782 0.77 S 
KHMB.NC 15.197 0.51 S 
KCO.NC 15.337 0.84 S 
KMR.NC 15.357 0.54 S 
PETL.BK 15.404 0.37 S 
PRDS.BK 17.618 0.38 S 
BRIC.BK 17.704 0.52 S 
89688.CE 18.344 0.71 S 
HAYF.BK 19.637 0.47 S 
KHBB.NC 20.197 0.88 S 
WEAV.BK 24.844 0.50 S 
# 2022 12 20 11 8 6.035 40.5436 -124.2327 18.449 1.567 0.191 0.191 0.534 89 
1584B.NP 3.775 1.04 P 
89462.CE 4.295 1.07 P 
1023.NP 5.355 0.83 P 
B046.PB 6.003 1.02 P 
PETL.BK 6.695 1.01 P 
KCO.NC 7.038 0.98 P 
KNEE.BK 7.045 0.69 P 
KCR.NC 7.615 0.64 P 
KPR.NC 8.015 0.68 P 
DMOR.BK 8.045 0.40 P 
KBU.NC 9.115 0.59 P 
B049.PB 9.353 1.02 P 
PRDS.BK 9.455 0.54 P 
KMR.NC 10.968 0.98 P 
BRIC.BK 11.445 0.52 P 
1584B.NP 6.935 0.98 S 
1023.NP 7.685 0.95 S 
89462.CE 8.055 0.97 S 
1586.NP 8.215 0.88 S 
1581.NP 10.225 0.70 S 
B046.PB 10.553 0.91 S 
89781.CE 11.055 0.87 S 
PETL.BK 11.735 0.84 S 
KCO.NC 12.418 0.93 S 
KNEE.BK 12.889 0.56 S 
KCR.NC 13.765 0.56 S 
KPR.NC 14.115 0.64 S 
B049.PB 16.903 0.94 S 
KBU.NC 16.975 0.61 S 
PRDS.BK 17.295 0.45 S 
B935.PB 18.983 0.92 S 
KMR.NC 19.818 0.82 S 
BRIC.BK 20.535 0.63 S 
# 2022 12 20 11 9 1.498 40.5354 -124.3271 16.903 3.373 0.133 0.133 0.435 90 
1584B.NP 3.582 1.04 P 
KCT.NC 4.045 0.53 P 
1586.NP 4.732 1.05 P 
89462.CE 5.242 1.03 P 
KMPB.NC 5.445 0.65 P 
1581.NP 5.802 1.05 P 
B046.PB 5.890 1.06 P 
PETL.BK 6.392 0.52 P 
RBOW.BK 6.402 0.38 P 
89781.CE 6.512 1.06 P 
KCO.NC 7.015 1.00 P 
BJES.BK 7.662 0.93 P 
1580.NP 8.052 1.03 P 
KPR.NC 8.732 0.68 P 
KCR.NC 8.792 0.57 P 
PRDS.BK 10.046 0.54 P 
KBU.NC 10.052 0.64 P 
B049.PB 10.220 0.98 P 
KTD.NC 10.332 0.98 P 
89688.CE 10.372 0.95 P 
B935.PB 11.560 1.00 P 
KMR.NC 11.915 0.54 P 
BRIC.BK 11.952 0.40 P 
1591.NP 12.392 0.92 P 
KRP.NC 12.405 0.89 P 
99700.CE 13.692 0.93 P 
79046.CE 15.652 1.00 P 
B934.PB 15.840 0.95 P 
KOM.NC 17.355 0.76 P 
KIP.NC 17.712 0.80 P 
KFP.NC 19.452 0.82 P 
1584B.NP 6.422 0.96 S 
KCT.NC 7.305 0.73 S 
1023.NP 7.552 0.59 S 
1586.NP 8.882 0.95 S 
89462.CE 9.592 0.89 S 
KMPB.NC 9.625 0.56 S 
B046.PB 10.370 0.93 S 
1581.NP 10.772 0.94 S 
RBOW.BK 11.232 0.47 S 
PETL.BK 11.272 0.44 S 
89781.CE 12.002 0.94 S 
KCO.NC 12.315 0.90 S 
BJES.BK 13.442 0.38 S 
1580.NP 14.552 0.96 S 
KPR.NC 15.492 0.54 S 
KCR.NC 15.832 0.65 S 
PRDS.BK 17.822 0.42 S 
KBU.NC 17.892 0.65 S 
89688.CE 18.062 0.85 S 
B049.PB 18.280 0.93 S 
KTD.NC 18.442 0.89 S 
KHMB.NC 20.595 0.72 S 
B935.PB 20.680 0.92 S 
BRIC.BK 20.992 0.58 S 
KMR.NC 21.015 0.68 S 
KRP.NC 21.975 0.53 S 
1591.NP 22.262 0.95 S 
B934.PB 26.590 0.99 S 
79046.CE 27.272 0.99 S 
KIP.NC 30.972 0.82 S 
KOM.NC 31.455 0.73 S 
RVIT.BK 31.552 0.92 S 
KFP.NC 33.912 0.76 S 
KBN.NC 36.422 0.60 S 
