# 2022 12 20 11 18 56.568 40.5390 -123.9581 20.662 1.682 0.183 0.183 0.479 107 
89462 4.752 0.86 P 
KCR 5.192 0.57 P 
KMPB 5.335 0.82 P 
KNEE 5.356 0.76 P 
RBOW 6.152 0.58 P 
B049 6.430 0.60 P 
KCT 7.245 0.69 P 
KBU 7.522 0.74 P 
B046 7.560 0.73 P 
PRDS 9.482 0.72 P 
KMR 9.485 0.79 P 
BRIC 10.622 0.64 P 
HAYF 11.483 0.68 P 
B934 13.350 0.74 P 
WEAV 14.302 0.51 P 
89462 9.082 0.81 S 
KCR 9.452 0.51 S 
KMPB 9.785 0.81 S 
RBOW 10.902 0.64 S 
1586 12.142 0.80 S 
B935 12.810 0.80 S 
B049 13.360 0.73 S 
KBU 13.412 0.61 S 
B046 13.540 0.78 S 
KPR 13.782 0.79 S 
PETL 14.962 0.70 S 
KCO 15.005 0.82 S 
KMR 15.835 0.78 S 
BRIC 18.152 0.65 S 
HAYF 20.205 0.51 S 
KHBB 20.635 0.73 S 
B934 24.240 0.68 S 
WEAV 25.162 0.53 S 
# 2022 12 20 11 19 16.445 40.7033 -123.9502 19.772 1.450 0.185 0.185 0.392 108 
KNEE 4.065 0.55 P 
DMOR 4.365 0.60 P 
1581 5.265 0.84 P 
BJES 5.425 0.81 P 
1586 5.855 0.68 P 
KHMB 6.428 0.68 P 
KCR 7.405 0.67 P 
RBOW 8.325 0.68 P 
B935 8.393 0.81 P 
KCSB 8.558 0.78 P 
KRP 9.328 0.83 P 
B046 9.573 0.50 P 
KMR 11.208 0.77 P 
KHBB 11.578 0.73 P 
WEAV 14.005 0.59 P 
KNEE 7.685 0.58 S 
89781 8.665 0.80 S 
DMOR 9.095 0.57 S 
1581 10.125 0.82 S 
1586 11.055 0.66 S 
KHMB 11.858 0.59 S 
KCR 13.085 0.61 S 
B935 15.033 0.80 S 
KRP 17.008 0.79 S 
B046 17.113 0.56 S 
B049 17.843 0.72 S 
KMR 20.078 0.71 S 
KHBB 20.278 0.68 S 
HAYF 20.808 0.62 S 
KOM 22.968 0.61 S 
WEAV 24.135 0.53 S 
# 2022 12 20 11 19 29.182 40.4955 -124.3855 15.269 1.432 0.188 0.188 0.627 109 
1586 4.908 0.76 P 
B046 5.156 0.81 P 
PETL 5.408 0.59 P 
KMPB 5.541 0.82 P 
KCO 6.301 0.81 P 
KPR 8.268 0.65 P 
PRDS 9.018 0.76 P 
B049 9.496 0.74 P 
89688 9.858 0.80 P 
BRIC 11.648 0.57 P 
KHBB 17.451 0.62 P 
WEAV 19.878 0.58 P 
TRIN 23.691 0.51 P 
1584B 6.348 0.79 S 
1023 8.208 0.82 S 
B046 9.496 0.77 S 
1586 9.748 0.77 S 
PETL 10.198 0.57 S 
KMPB 10.261 0.60 S 
89462 10.508 0.79 S 
KCO 11.581 0.81 S 
RBOW 11.778 0.59 S 
KPR 15.318 0.65 S 
KCR 17.028 0.69 S 
B049 17.676 0.61 S 
89688 17.908 0.77 S 
KBU 18.498 0.63 S 
BRIC 20.698 0.70 S 
B934 26.616 0.53 S 
# 2022 12 20 11 19 36.502 40.7497 -123.8242 20.042 1.787 0.153 0.153 0.504 110 
DMOR 3.438 0.52 P 
KHMB 5.461 0.57 P 
89781 6.098 0.85 P 
1581 6.868 0.83 P 
BJES 7.588 0.61 P 
1586 7.658 0.85 P 
89462 7.708 0.77 P 
KCSB 7.831 0.85 P 
B935 7.836 0.85 P 
KCR 7.988 0.81 P 
KMPB 8.891 0.67 P 
KRP 9.311 0.78 P 
KHBB 10.091 0.64 P 
HAYF 10.701 0.60 P 
KMR 11.021 0.76 P 
B049 11.296 0.64 P 
KBU 11.908 0.52 P 
WEAV 12.568 0.66 P 
TRIN 16.379 0.64 P 
DMOR 7.428 0.65 S 
KNEE 8.488 0.62 S 
KHMB 9.791 0.69 S 
BJES 10.858 0.54 S 
89781 10.858 0.72 S 
1581 13.028 0.84 S 
KCR 13.908 0.63 S 
B935 13.926 0.84 S 
89462 13.988 0.81 S 
KCSB 14.221 0.82 S 
KTD 15.168 0.75 S 
KMPB 15.771 0.67 S 
KRP 16.911 0.81 S 
KHBB 17.511 0.66 S 
HAYF 18.681 0.57 S 
KCT 19.001 0.57 S 
KMR 20.311 0.60 S 
KOM 20.831 0.72 S 
WEAV 21.938 0.65 S 
TRIN 28.639 0.58 S 
LBK 31.108 0.78 S 
GUMB 35.338 0.65 S 
# 2022 12 20 11 19 47.972 40.5213 -124.4072 17.342 2.365 0.164 0.164 0.363 111 
1584B 4.018 0.85 P 
KCT 4.281 0.60 P 
1586 5.678 0.87 P 
1581 5.938 0.64 P 
B046 5.946 0.85 P 
89462 6.218 0.85 P 
KMPB 6.291 0.64 P 
PETL 6.368 0.59 P 
KCO 7.141 0.80 P 
BJES 8.878 0.68 P 
KPR 9.078 0.67 P 
KCR 9.818 0.66 P 
PRDS 9.948 0.64 P 
89688 10.748 0.72 P 
KBU 10.878 0.68 P 
B049 11.026 0.80 P 
BRIC 11.878 0.79 P 
B935 12.716 0.81 P 
1584B 7.008 0.82 S 
KCT 7.471 0.72 S 
1023 8.808 0.85 S 
B046 10.286 0.82 S 
1586 10.408 0.74 S 
PETL 10.918 0.54 S 
KMPB 10.971 0.62 S 
89462 11.178 0.81 S 
1581 12.238 0.79 S 
KCO 12.401 0.81 S 
BJES 15.718 0.54 S 
KPR 15.918 0.63 S 
KCR 17.498 0.62 S 
PRDS 18.152 0.51 S 
89688 18.508 0.79 S 
KBU 19.178 0.60 S 
B049 19.366 0.82 S 
DMOR 19.438 0.71 S 
B935 22.436 0.82 S 
KMR 22.721 0.56 S 
1591 23.088 0.72 S 
B934 27.406 0.72 S 
79046 27.838 0.72 S 
# 2022 12 20 11 20 21.935 40.7590 -123.9112 24.283 1.456 0.308 0.308 1.341 112 
KHMB 6.158 0.51 P 
1586 7.915 0.83 P 
KMPB 7.938 0.62 P 
B935 8.133 0.63 P 
KCT 8.338 0.77 P 
RBOW 9.875 0.68 P 
B046 9.993 0.83 P 
KHBB 10.478 0.60 P 
HAYF 11.096 0.54 P 
KCO 11.168 0.82 P 
WEAV 12.915 0.56 P 
KPR 13.145 0.56 P 
PRDS 14.595 0.81 P 
89688 14.795 0.81 P 
TRIN 18.028 0.75 P 
B934 19.073 0.81 P 
KNEE 8.575 0.79 S 
1023 13.155 0.80 S 
B935 14.253 0.75 S 
KCO 16.438 0.51 S 
KHBB 18.028 0.53 S 
HAYF 19.078 0.52 S 
KPR 19.855 0.56 S 
PRDS 22.235 0.51 S 
89688 22.665 0.60 S 
B934 31.323 0.70 S 
# 2022 12 20 11 20 50.433 40.5958 -124.0681 17.293 1.280 0.185 0.185 0.395 113 
89462 4.367 0.80 P 
1586 4.567 0.81 P 
BJES 4.767 0.79 P 
1581 4.997 0.85 P 
89781 5.087 0.84 P 
KNEE 5.091 0.76 P 
KCR 6.437 0.68 P 
RBOW 6.617 0.58 P 
KPR 8.577 0.78 P 
B935 8.765 0.83 P 
KBU 8.817 0.64 P 
B049 8.925 0.82 P 
KHMB 9.260 0.73 P 
KMR 10.180 0.62 P 
1591 11.357 0.72 P 
BRIC 11.437 0.53 P 
KHBB 12.620 0.56 P 
HAYF 12.640 0.56 P 
WEAV 15.577 0.82 P 
89462 8.137 0.73 S 
BJES 8.667 0.63 S 
1586 8.697 0.78 S 
89781 9.227 0.79 S 
KNEE 9.237 0.51 S 
1581 9.437 0.78 S 
KCR 11.427 0.62 S 
RBOW 11.617 0.51 S 
KPR 14.077 0.53 S 
KBU 15.457 0.65 S 
B049 15.875 0.82 S 
B935 15.905 0.82 S 
KCSB 17.460 0.80 S 
KMR 18.550 0.67 S 
BRIC 20.297 0.77 S 
KHBB 22.340 0.60 S 
HAYF 22.880 0.55 S 
# 2022 12 20 11 20 56.397 40.5008 -124.3236 18.484 1.967 0.188 0.188 0.496 114 
KCT 3.716 0.66 P 
1023 3.883 0.88 P 
1584B 4.233 0.83 P 
B046 5.281 0.88 P 
RBOW 5.573 0.51 P 
PETL 5.773 0.71 P 
KCO 6.436 0.84 P 
89781 7.793 0.75 P 
KPR 8.103 0.56 P 
KNEE 8.407 0.52 P 
KCR 8.963 0.56 P 
DMOR 9.153 0.68 P 
89688 9.853 0.79 P 
KRP 13.536 0.60 P 
KCT 7.016 0.66 S 
1023 7.813 0.85 S 
1586 9.313 0.75 S 
KMPB 9.456 0.57 S 
B046 9.501 0.83 S 
89462 9.933 0.60 S 
PETL 10.363 0.54 S 
1581 11.223 0.80 S 
RBOW 11.373 0.52 S 
89781 12.253 0.65 S 
BJES 14.083 0.67 S 
KNEE 15.473 0.57 S 
89688 17.933 0.63 S 
DMOR 17.933 0.70 S 
KRP 23.526 0.64 S 
# 2022 12 20 11 21 39.905 40.5898 -124.2813 20.863 2.234 0.160 0.160 0.344 115 
1023 4.295 0.91 P 
1586 4.355 0.91 P 
1584B 4.365 0.89 P 
KCT 4.858 0.65 P 
1581 5.035 0.90 P 
89462 5.365 0.90 P 
89781 5.655 0.89 P 
KMPB 5.958 0.63 P 
B046 6.743 0.89 P 
RBOW 6.895 0.55 P 
BJES 7.215 0.66 P 
KNEE 7.219 0.59 P 
PETL 7.275 0.60 P 
KCO 7.718 0.90 P 
KCR 8.555 0.69 P 
KPR 8.765 0.60 P 
KTD 9.325 0.88 P 
KBU 9.825 0.59 P 
PRDS 10.175 0.63 P 
KHMB 10.198 0.67 P 
B049 10.333 0.88 P 
89688 10.665 0.82 P 
B935 10.883 0.89 P 
KRP 11.328 0.89 P 
KCSB 11.688 0.79 P 
BRIC 11.905 0.51 P 
1591 12.335 0.76 P 
KHBB 14.588 0.62 P 
B934 15.103 0.74 P 
79046 15.825 0.86 P 
KOM 16.218 0.83 P 
KBN 19.145 0.51 P 
KFP 19.175 0.58 P 
TRIN 20.856 0.54 P 
DCMP 21.338 0.54 P 
LBK 21.935 0.92 P 
GUMB 24.369 0.53 P 
1584B 7.835 0.80 S 
1586 8.235 0.86 S 
1023 8.255 0.85 S 
KCT 8.788 0.67 S 
1581 9.415 0.85 S 
89462 9.935 0.84 S 
89781 10.235 0.81 S 
KMPB 10.388 0.66 S 
B046 11.833 0.82 S 
RBOW 12.185 0.60 S 
PETL 12.825 0.57 S 
BJES 13.085 0.57 S 
KNEE 13.539 0.58 S 
KCO 13.788 0.83 S 
KCR 15.305 0.64 S 
DMOR 15.695 0.80 S 
KPR 15.865 0.69 S 
KTD 17.005 0.84 S 
KBU 17.825 0.85 S 
KHMB 18.008 0.63 S 
B049 18.453 0.85 S 
PRDS 18.525 0.55 S 
89688 19.145 0.82 S 
B935 19.193 0.87 S 
KRP 20.108 0.84 S 
BRIC 21.155 0.68 S 
KHBB 25.468 0.71 S 
HAYF 25.618 0.81 S 
79046 27.525 0.78 S 
TRIN 36.756 0.65 S 
GUMB 43.505 0.63 S 
# 2022 12 20 11 22 39.741 40.5372 -124.3041 17.559 1.171 0.148 0.148 0.507 116 
KCT 3.932 0.59 P 
1586 4.579 0.89 P 
KMPB 4.732 0.82 P 
89462 5.069 0.90 P 
1582 5.259 0.88 P 
1023 5.309 0.75 P 
1581 5.649 0.90 P 
B046 5.827 0.89 P 
RBOW 6.159 0.59 P 
89781 6.369 0.90 P 
PETL 6.379 0.60 P 
KCO 6.962 0.89 P 
KPR 8.509 0.66 P 
KCR 8.699 0.82 P 
KBU 9.969 0.66 P 
PRDS 9.979 0.61 P 
B049 10.117 0.83 P 
89688 10.429 0.87 P 
KHMB 11.172 0.87 P 
B935 11.417 0.85 P 
KMR 11.732 0.83 P 
BRIC 11.899 0.58 P 
KRP 12.222 0.74 P 
KHBB 15.272 0.67 P 
1584B 6.379 0.87 S 
KCT 7.232 0.73 S 
1023 7.519 0.85 S 
1586 8.669 0.80 S 
89462 9.399 0.85 S 
KMPB 9.462 0.51 S 
B046 10.397 0.84 S 
RBOW 10.989 0.58 S 
PETL 11.299 0.57 S 
89781 11.619 0.84 S 
KCO 12.302 0.84 S 
BJES 12.389 0.71 S 
KPR 15.169 0.65 S 
KCR 15.809 0.66 S 
DMOR 17.389 0.75 S 
PRDS 17.723 0.54 S 
KBU 18.029 0.67 S 
B049 18.097 0.84 S 
89688 18.129 0.80 S 
KHMB 19.612 0.78 S 
KMR 19.992 0.66 S 
B935 20.517 0.82 S 
BRIC 20.719 0.62 S 
B934 26.437 0.52 S 
HAYF 27.672 0.55 S 
# 2022 12 20 11 23 43.763 40.5251 -124.4089 18.636 2.811 0.133 0.133 0.580 117 
1584B 4.347 0.89 P 
KCT 4.450 0.62 P 
1023 4.987 0.87 P 
B046 5.805 0.85 P 
1586 5.827 0.87 P 
PETL 6.127 0.58 P 
KMPB 6.310 0.62 P 
89462 6.387 0.86 P 
1582 6.397 0.87 P 
1581 6.637 0.90 P 
KCO 6.740 0.85 P 
RBOW 6.987 0.55 P 
89781 7.387 0.88 P 
BJES 8.747 0.82 P 
KPR 8.777 0.65 P 
KNEE 9.191 0.52 P 
KCR 9.727 0.62 P 
PRDS 9.977 0.62 P 
DMOR 9.997 0.64 P 
89688 10.237 0.82 P 
KBU 10.467 0.66 P 
B049 10.525 0.80 P 
KTD 10.607 0.85 P 
KHMB 12.050 0.84 P 
KMR 12.060 0.53 P 
BRIC 12.177 0.53 P 
B935 12.225 0.81 P 
KRP 12.750 0.87 P 
KCSB 13.090 0.83 P 
1591 13.167 0.83 P 
99700 13.967 0.83 P 
HAYF 16.060 0.88 P 
KHBB 16.220 0.61 P 
79046 16.587 0.86 P 
B934 17.075 0.82 P 
KOM 18.000 0.52 P 
KBN 20.007 0.55 P 
TRIN 22.080 0.87 P 
LBK 23.877 0.90 P 
SCOT 24.210 0.59 P 
GVA 25.587 0.56 P 
GUMB 26.521 0.65 P 
1584B 7.887 0.83 S 
KCT 8.340 0.69 S 
1023 9.577 0.71 S 
B046 10.225 0.78 S 
1586 10.867 0.77 S 
PETL 10.877 0.55 S 
KMPB 11.260 0.66 S 
89462 11.767 0.76 S 
1582 11.997 0.74 S 
KCO 12.220 0.83 S 
1581 12.317 0.82 S 
RBOW 12.487 0.58 S 
89781 13.557 0.80 S 
KPR 15.587 0.62 S 
BJES 15.707 0.51 S 
KNEE 16.397 0.60 S 
KCR 17.357 0.68 S 
PRDS 17.517 0.50 S 
89688 17.797 0.71 S 
DMOR 18.687 0.82 S 
KBU 18.727 0.63 S 
B049 19.495 0.80 S 
BRIC 20.987 0.63 S 
KHMB 21.210 0.63 S 
B935 22.055 0.83 S 
KRP 22.600 0.64 S 
KMR 22.810 0.77 S 
1591 23.177 0.81 S 
KCSB 23.680 0.84 S 
KHBB 28.670 0.77 S 
B934 28.855 0.84 S 
79046 29.767 0.82 S 
KOM 31.110 0.78 S 
LBK 41.407 0.85 S 
SCOT 41.750 0.59 S 
GUMB 46.681 0.63 S 
# 2022 12 20 11 24 49.617 40.5967 -124.0897 16.116 1.488 0.150 0.150 0.495 118 
1586 4.323 0.80 P 
1582 4.403 0.77 P 
BJES 4.863 0.64 P 
KNEE 4.987 0.54 P 
89781 5.063 0.87 P 
KCT 5.756 0.55 P 
DMOR 6.023 0.63 P 
RBOW 6.453 0.64 P 
KCR 6.503 0.68 P 
B046 7.441 0.77 P 
KPR 8.353 0.72 P 
KCO 8.376 0.78 P 
KHMB 8.786 0.54 P 
KBU 9.013 0.69 P 
B935 9.021 0.81 P 
B049 9.071 0.77 P 
KCSB 9.906 0.82 P 
PRDS 10.473 0.61 P 
KMR 10.576 0.69 P 
89688 11.113 0.79 P 
BRIC 11.713 0.71 P 
KHBB 13.076 0.51 P 
WEAV 15.903 0.56 P 
89462 7.633 0.75 S 
1582 8.123 0.82 S 
1586 8.263 0.83 S 
BJES 8.663 0.63 S 
1581 9.123 0.84 S 
89781 9.173 0.84 S 
KNEE 9.313 0.65 S 
KMPB 9.376 0.59 S 
RBOW 11.353 0.53 S 
B046 11.731 0.72 S 
KCR 11.753 0.59 S 
DMOR 11.833 0.53 S 
KCO 14.076 0.79 S 
KPR 15.003 0.64 S 
KHMB 15.676 0.76 S 
KBU 16.033 0.61 S 
B049 16.131 0.80 S 
B935 16.471 0.77 S 
KCSB 17.956 0.74 S 
KMR 18.796 0.55 S 
PRDS 18.843 0.57 S 
BRIC 20.413 0.56 S 
1591 20.693 0.79 S 
B934 26.651 0.63 S 
WEAV 28.193 0.61 S 
# 2022 12 20 11 25 32.390 40.5472 -124.2415 19.402 1.516 0.168 0.168 0.381 119 
KCT 4.663 0.86 P 
1581 4.800 0.85 P 
KMPB 4.983 0.84 P 
1582 5.000 0.85 P 
89781 5.760 0.87 P 
RBOW 6.040 0.52 P 
B046 6.168 0.84 P 
PETL 6.790 0.64 P 
KNEE 6.894 0.64 P 
KCO 7.163 0.85 P 
KCR 7.770 0.63 P 
KPR 8.150 0.56 P 
KBU 9.140 0.64 P 
B049 9.388 0.82 P 
PRDS 9.530 0.59 P 
KHMB 10.383 0.59 P 
KMR 11.013 0.59 P 
BRIC 11.480 0.59 P 
89255 8.190 0.79 S 
1586 8.450 0.79 S 
KCT 8.463 0.58 S 
89462 8.580 0.80 S 
KMPB 9.043 0.58 S 
1582 9.380 0.79 S 
1581 10.110 0.81 S 
RBOW 10.630 0.56 S 
B046 10.828 0.74 S 
89781 10.940 0.82 S 
BJES 11.910 0.74 S 
PETL 11.950 0.55 S 
KCO 12.633 0.68 S 
KNEE 13.010 0.60 S 
KCR 13.940 0.61 S 
KPR 14.330 0.69 S 
B049 16.788 0.76 S 
KBU 16.940 0.64 S 
PRDS 17.450 0.57 S 
89688 17.900 0.66 S 
KHMB 18.063 0.78 S 
B935 18.768 0.79 S 
KMR 19.823 0.79 S 
BRIC 20.040 0.71 S 
KHBB 26.243 0.50 S 
# 2022 12 20 11 25 47.136 40.5456 -123.9527 20.091 1.904 0.146 0.146 0.419 120 
KCR 5.134 0.58 P 
DMOR 5.184 0.64 P 
KMPB 5.437 0.66 P 
RBOW 6.204 0.61 P 
1586 6.224 0.86 P 
1582 6.504 0.86 P 
1581 6.854 0.87 P 
B935 7.182 0.86 P 
KCT 7.347 0.82 P 
KBU 7.474 0.66 P 
B049 7.482 0.85 P 
B046 7.632 0.87 P 
KPR 7.754 0.67 P 
KCO 8.397 0.81 P 
PETL 8.434 0.79 P 
KMR 8.717 0.62 P 
PRDS 9.628 0.75 P 
HAYF 11.155 0.54 P 
KHBB 11.447 0.56 P 
WEAV 13.954 0.65 P 
PETY 18.085 0.54 P 
BJES 7.634 0.86 S 
89462 9.174 0.85 S 
KCR 9.304 0.66 S 
89255 9.834 0.82 S 
KNEE 9.834 0.58 S 
KMPB 9.917 0.63 S 
RBOW 11.034 0.55 S 
1582 11.394 0.77 S 
1586 11.624 0.83 S 
89781 12.014 0.78 S 
1581 12.274 0.83 S 
B935 12.962 0.79 S 
B049 13.252 0.77 S 
B046 13.592 0.81 S 
KPR 13.634 0.65 S 
KBU 13.704 0.65 S 
KCT 13.957 0.53 S 
KCO 15.067 0.83 S 
PETL 15.504 0.56 S 
KMR 15.717 0.78 S 
1591 18.554 0.77 S 
HAYF 19.987 0.60 S 
KHBB 20.407 0.79 S 
B934 24.182 0.60 S 
WEAV 25.154 0.64 S 
PETY 32.045 0.58 S 
# 2022 12 20 11 26 16.980 40.6119 -123.9578 7.067 1.162 0.403 0.403 0.998 121 
89255 4.510 0.77 P 
DMOR 4.850 0.59 P 
1586 5.150 0.76 P 
1582 5.340 0.77 P 
89781 6.180 0.83 P 
B935 6.678 0.63 P 
KCSB 6.743 0.67 P 
RBOW 6.790 0.60 P 
KCT 8.123 0.57 P 
B046 8.188 0.68 P 
PETL 9.220 0.70 P 
KBU 10.010 0.64 P 
B049 10.138 0.84 P 
KCO 10.263 0.79 P 
KMR 10.493 0.78 P 
BRIC 12.620 0.65 P 
89255 7.750 0.79 S 
1586 8.790 0.80 S 
KMPB 9.293 0.54 S 
1582 9.310 0.77 S 
1581 10.110 0.78 S 
89781 10.400 0.80 S 
B935 11.038 0.71 S 
1584B 12.250 0.79 S 
KCT 13.163 0.54 S 
KCO 15.513 0.56 S 
KPR 16.130 0.75 S 
B049 16.918 0.80 S 
KBU 17.120 0.64 S 
PRDS 19.624 0.79 S 
BRIC 20.650 0.65 S 
# 2022 12 20 11 26 43.168 40.5328 -124.3368 17.760 -0.020 0.160 0.160 0.775 122 
KCT 3.955 0.68 P 
B046 4.810 0.88 P 
1586 4.872 0.87 P 
89255 5.142 0.78 P 
1582 5.562 0.87 P 
KPR 8.802 0.67 P 
KCR 8.922 0.69 P 
B935 9.650 0.64 P 
PRDS 10.156 0.57 P 
KBU 10.182 0.61 P 
B049 10.260 0.84 P 
89688 10.522 0.79 P 
KHMB 11.665 0.67 P 
KMR 11.675 0.83 P 
BRIC 12.072 0.61 P 
1584B 6.242 0.83 S 
KCT 7.045 0.69 S 
1023 7.792 0.75 S 
1586 9.162 0.81 S 
89255 9.492 0.73 S 
KMPB 9.685 0.63 S 
B046 10.140 0.84 S 
1582 10.432 0.77 S 
RBOW 10.582 0.53 S 
PETL 10.962 0.51 S 
1581 11.162 0.79 S 
BJES 14.162 0.59 S 
KPR 15.882 0.69 S 
KCR 16.202 0.59 S 
PRDS 17.822 0.61 S 
B049 18.300 0.85 S 
89688 18.312 0.67 S 
KBU 18.322 0.73 S 
BRIC 21.082 0.69 S 
KMR 21.135 0.81 S 
B935 21.350 0.58 S 
1591 22.642 0.73 S 
KHBB 24.765 0.64 S 
B934 26.770 0.68 S 
# 2022 12 20 11 27 11.801 40.5608 -124.2040 16.948 1.129 0.207 0.207 0.558 123 
1584B 4.079 0.77 P 
1582 4.469 0.88 P 
1586 5.599 0.82 P 
PETL 6.109 0.75 P 
B046 6.237 0.84 P 
KCR 7.329 0.69 P 
DMOR 7.359 0.56 P 
KPR 8.119 0.78 P 
KBU 9.109 0.79 P 
B049 9.117 0.82 P 
B935 10.247 0.80 P 
KMR 10.722 0.80 P 
89255 7.089 0.74 S 
1584B 7.459 0.80 S 
1586 7.679 0.73 S 
1582 8.529 0.84 S 
KCT 8.652 0.80 S 
1581 9.369 0.82 S 
B046 11.257 0.81 S 
KCR 13.199 0.60 S 
KCO 13.462 0.75 S 
KPR 14.909 0.52 S 
KBU 16.849 0.57 S 
KHMB 18.172 0.51 S 
KMR 19.662 0.85 S 
BRIC 19.919 0.58 S 
1591 20.749 0.82 S 
KHBB 25.642 0.56 S 
B934 27.217 0.53 S 
# 2022 12 20 11 27 28.728 40.5167 -124.3273 15.789 0.807 0.233 0.233 0.292 124 
1584B 3.542 0.78 P 
KCT 3.545 0.61 P 
1586 4.752 0.78 P 
KPR 8.482 0.74 P 
KCR 9.132 0.73 P 
1584B 6.032 0.73 S 
KCT 6.795 0.64 S 
1586 9.312 0.77 S 
B046 9.680 0.66 S 
KMPB 9.735 0.59 S 
PETL 10.412 0.57 S 
RBOW 11.062 0.54 S 
KCR 15.282 0.58 S 
KBU 17.752 0.69 S 
B049 18.410 0.72 S 
# 2022 12 20 11 27 45.350 40.7165 -123.8461 21.035 1.511 0.165 0.165 0.830 125 
DMOR 3.830 0.71 P 
KNEE 3.954 0.51 P 
KHMB 5.583 0.67 P 
89781 6.410 0.87 P 
1586 6.780 0.82 P 
B935 7.548 0.86 P 
1584B 8.060 0.73 P 
KCSB 8.133 0.77 P 
KCR 8.200 0.81 P 
KHBB 9.803 0.64 P 
RBOW 9.940 0.81 P 
KPR 10.320 0.61 P 
HAYF 10.431 0.59 P 
B049 10.628 0.73 P 
B046 11.728 0.62 P 
PRDS 11.874 0.58 P 
KBU 12.000 0.54 P 
WEAV 12.320 0.66 P 
PETL 12.690 0.54 P 
TRIN 16.463 0.63 P 
LBK 17.540 0.87 P 
PETY 18.743 0.54 P 
DMOR 7.290 0.56 S 
KNEE 8.460 0.65 S 
KHMB 10.313 0.60 S 
1586 11.060 0.53 S 
89781 11.320 0.79 S 
1582 12.370 0.79 S 
1581 12.750 0.83 S 
B935 13.628 0.83 S 
KMPB 15.663 0.60 S 
RBOW 16.800 0.60 S 
KRP 17.223 0.56 S 
KPR 17.230 0.53 S 
KHBB 17.703 0.72 S 
HAYF 18.543 0.61 S 
B049 18.708 0.66 S 
PRDS 20.190 0.62 S 
WEAV 21.790 0.64 S 
TRIN 28.821 0.66 S 
LBK 30.860 0.79 S 
GUMB 35.894 0.52 S 
# 2022 12 20 11 28 3.088 40.4836 -124.4368 13.645 1.321 0.159 0.159 0.937 126 
1584B 3.222 0.75 P 
B046 4.050 0.76 P 
KCT 4.445 0.64 P 
KCO 4.985 0.75 P 
1023 5.402 0.83 P 
1586 6.042 0.63 P 
KMPB 6.435 0.59 P 
89255 6.462 0.87 P 
89462 7.032 0.84 P 
RBOW 7.412 0.61 P 
KPR 9.502 0.62 P 
PRDS 10.602 0.78 P 
KBU 11.382 0.54 P 
B049 11.460 0.82 P 
BRIC 12.862 0.58 P 
B935 13.260 0.72 P 
KHBB 17.085 0.85 P 
HAYF 17.225 0.73 P 
KCT 7.865 0.66 S 
B046 8.630 0.82 S 
PETL 9.522 0.72 S 
KCO 10.565 0.81 S 
1586 11.242 0.75 S 
89255 11.582 0.84 S 
KMPB 11.585 0.65 S 
89462 12.002 0.80 S 
RBOW 12.882 0.65 S 
1582 14.142 0.54 S 
89781 14.352 0.51 S 
BJES 15.502 0.76 S 
KPR 16.722 0.66 S 
KCR 16.992 0.67 S 
KNEE 17.136 0.54 S 
89688 19.162 0.73 S 
KBU 20.082 0.62 S 
B049 20.090 0.74 S 
BRIC 22.122 0.67 S 
KMR 23.225 0.53 S 
B935 27.090 0.56 S 
# 2022 12 20 11 28 42.181 40.5262 -124.3724 18.369 1.245 0.161 0.161 0.578 127 
KCT 4.062 0.66 P 
1586 5.409 0.86 P 
B046 5.807 0.87 P 
1582 5.829 0.87 P 
KCO 5.952 0.85 P 
PETL 6.269 0.81 P 
RBOW 6.349 0.71 P 
KNEE 8.789 0.60 P 
KPR 8.909 0.77 P 
DMOR 9.149 0.54 P 
KCR 9.629 0.81 P 
PRDS 10.469 0.81 P 
KBU 10.629 0.63 P 
89688 10.689 0.75 P 
B049 10.817 0.77 P 
B935 12.317 0.83 P 
KMR 12.472 0.84 P 
HAYF 15.960 0.77 P 
KHBB 16.312 0.54 P 
WEAV 18.549 0.74 P 
1584B 6.759 0.79 S 
KCT 7.362 0.66 S 
1023 8.189 0.83 S 
1586 9.949 0.85 S 
89462 10.069 0.82 S 
B046 10.237 0.83 S 
KMPB 10.592 0.55 S 
89255 10.629 0.56 S 
1582 10.729 0.83 S 
1581 11.209 0.75 S 
KCO 12.352 0.85 S 
BJES 15.309 0.82 S 
KNEE 15.329 0.72 S 
KPR 15.739 0.55 S 
KCR 16.469 0.59 S 
B049 18.227 0.68 S 
KBU 18.349 0.66 S 
89688 18.589 0.64 S 
B935 19.957 0.59 S 
KMR 21.342 0.73 S 
BRIC 21.459 0.59 S 
B934 27.027 0.51 S 
# 2022 12 20 11 29 5.715 40.5631 -124.2098 17.717 1.795 0.142 0.142 0.523 128 
89255 3.865 0.88 P 
1584B 4.105 0.88 P 
1586 4.145 0.87 P 
1582 4.365 0.89 P 
KCT 4.668 0.85 P 
89462 4.855 0.86 P 
89781 5.705 0.87 P 
RBOW 6.005 0.52 P 
PETL 6.205 0.71 P 
B046 6.403 0.87 P 
KNEE 6.869 0.84 P 
KCO 7.418 0.89 P 
KCR 7.575 0.67 P 
DMOR 7.655 0.57 P 
KPR 8.235 0.65 P 
KBU 9.255 0.58 P 
B049 9.453 0.85 P 
PRDS 9.985 0.61 P 
BRIC 10.275 0.66 P 
B935 10.303 0.85 P 
KMR 10.778 0.78 P 
HAYF 14.058 0.63 P 
KHBB 14.218 0.82 P 
WEAV 16.805 0.57 P 
89255 7.325 0.85 S 
1584B 7.505 0.85 S 
1023 7.655 0.53 S 
1586 7.785 0.83 S 
89462 7.935 0.83 S 
KCT 8.618 0.84 S 
1582 8.695 0.82 S 
KMPB 8.758 0.80 S 
1581 9.725 0.62 S 
89781 10.495 0.83 S 
RBOW 10.665 0.59 S 
BJES 11.115 0.72 S 
B046 11.393 0.82 S 
PETL 12.495 0.59 S 
KCO 13.278 0.84 S 
KCR 13.585 0.65 S 
KPR 14.485 0.65 S 
DMOR 15.235 0.82 S 
KBU 16.425 0.81 S 
KHMB 16.458 0.60 S 
B049 16.583 0.67 S 
PRDS 17.845 0.53 S 
89688 18.495 0.72 S 
B935 18.863 0.83 S 
KMR 19.848 0.66 S 
BRIC 20.255 0.62 S 
1591 21.335 0.72 S 
HAYF 25.616 0.67 S 
KHBB 25.938 0.76 S 
B934 27.613 0.56 S 
