# 2022 12 20 11 9 1.477 40.5320 -124.3376 17.511 3.274 0.133 0.133 0.491 81 
1584B 3.603 0.90 P 
KCT 4.066 0.62 P 
1586 4.753 0.88 P 
89462 5.263 0.90 P 
KMPB 5.446 0.63 P 
1581 5.823 0.90 P 
B046 5.911 0.90 P 
PETL 6.413 0.57 P 
RBOW 6.443 0.56 P 
89781 6.533 0.89 P 
KCO 7.036 0.90 P 
BJES 7.683 0.83 P 
1580 8.073 0.85 P 
KPR 8.753 0.62 P 
KCR 8.813 0.65 P 
KBU 10.073 0.67 P 
PRDS 10.083 0.59 P 
B049 10.241 0.86 P 
KTD 10.353 0.88 P 
89688 10.393 0.82 P 
B935 11.581 0.87 P 
KMR 11.936 0.62 P 
BRIC 11.973 0.55 P 
1591 12.413 0.84 P 
KRP 12.426 0.71 P 
99700 13.713 0.73 P 
79046 15.673 0.86 P 
B934 15.861 0.78 P 
KOM 17.376 0.75 P 
KIP 17.733 0.79 P 
KFP 19.473 0.77 P 
KBN 19.613 0.52 P 
KRK 22.723 0.58 P 
1584B 6.443 0.85 S 
KCT 7.326 0.74 S 
1023 7.573 0.63 S 
1586 8.903 0.78 S 
89462 9.613 0.83 S 
KMPB 9.646 0.67 S 
B046 10.391 0.82 S 
1581 10.793 0.82 S 
RBOW 11.253 0.59 S 
PETL 11.293 0.59 S 
89781 12.023 0.82 S 
KCO 12.336 0.84 S 
BJES 13.863 0.54 S 
1580 14.573 0.81 S 
KPR 15.323 0.66 S 
KCR 15.853 0.67 S 
KBU 17.913 0.66 S 
PRDS 17.953 0.53 S 
89688 18.083 0.77 S 
B049 18.301 0.85 S 
KTD 18.463 0.81 S 
KHMB 20.616 0.65 S 
B935 20.701 0.83 S 
BRIC 20.833 0.62 S 
KMR 21.036 0.67 S 
1591 22.283 0.83 S 
B934 26.611 0.85 S 
79046 27.293 0.78 S 
KIP 30.993 0.81 S 
KOM 31.476 0.75 S 
RVIT 31.573 0.82 S 
79298 33.453 0.59 S 
KFP 33.933 0.70 S 
KBN 36.443 0.70 S 
MNDO 36.693 0.59 S 
# 2022 12 20 11 9 50.634 40.1603 -125.0348 -1.995 1.796 1.036 1.036 0.810 82 
1584B 15.516 0.63 P 
89462 17.036 0.67 P 
RBOW 18.216 0.66 P 
89781 18.356 0.59 P 
BJES 19.436 0.57 P 
1580 20.066 0.62 P 
KCR 20.576 0.54 P 
KTD 22.366 0.59 P 
B935 23.424 0.68 P 
KHMB 42.099 0.54 S 
# 2022 12 20 11 10 11.192 40.5225 -124.4078 16.131 2.888 0.123 0.123 0.563 83 
1584B 4.038 0.88 P 
KCT 4.251 0.64 P 
1586 5.678 0.89 P 
B046 5.946 0.88 P 
89462 6.238 0.88 P 
KMPB 6.301 0.62 P 
PETL 6.308 0.57 P 
1581 6.638 0.89 P 
RBOW 7.038 0.51 P 
KCO 7.141 0.88 P 
89781 7.428 0.87 P 
BJES 8.778 0.75 P 
KPR 9.118 0.64 P 
PRDS 9.368 0.58 P 
KCR 9.818 0.62 P 
89688 10.678 0.81 P 
KBU 10.838 0.62 P 
B049 10.986 0.84 P 
KTD 11.138 0.79 P 
BRIC 12.138 0.63 P 
B935 12.546 0.85 P 
KMR 12.731 0.85 P 
KRP 13.011 0.80 P 
1591 13.058 0.83 P 
KCSB 13.391 0.82 P 
HAYF 16.181 0.83 P 
79046 16.338 0.82 P 
KHBB 16.421 0.77 P 
KBN 20.318 0.82 P 
DCMP 22.341 0.59 P 
TRIN 22.541 0.86 P 
GNR 23.458 0.56 P 
LBK 24.208 0.84 P 
GBL 24.258 0.82 P 
SCOT 24.459 0.70 P 
GWR 25.318 0.66 P 
GHO 25.718 0.92 P 
GUMB 26.612 0.52 P 
1584B 7.068 0.77 S 
KCT 7.701 0.68 S 
1023 8.808 0.76 S 
1586 10.368 0.84 S 
B046 10.386 0.81 S 
KMPB 10.981 0.67 S 
PETL 11.068 0.59 S 
89462 11.208 0.82 S 
1581 12.098 0.80 S 
RBOW 12.268 0.59 S 
KCO 12.461 0.83 S 
89781 13.288 0.80 S 
1580 15.368 0.63 S 
KPR 15.958 0.69 S 
BJES 16.008 0.71 S 
KCR 17.738 0.67 S 
89688 18.738 0.62 S 
DMOR 19.298 0.73 S 
B049 19.466 0.73 S 
KBU 19.658 0.74 S 
KTD 19.898 0.79 S 
BRIC 21.678 0.60 S 
KHMB 22.221 0.51 S 
KMR 22.381 0.64 S 
B935 22.446 0.83 S 
1591 23.048 0.80 S 
KCSB 23.981 0.83 S 
B934 27.266 0.80 S 
79046 27.808 0.75 S 
KHBB 28.981 0.61 S 
KIP 31.658 0.73 S 
RVIT 34.418 0.76 S 
79298 37.498 0.63 S 
KBN 37.658 0.72 S 
MNDO 37.718 0.80 S 
GNR 40.618 0.74 S 
GBL 41.618 0.56 S 
SCOT 42.201 0.61 S 
LBK 42.738 0.78 S 
GHO 45.098 0.72 S 
GUMB 46.988 0.63 S 
# 2022 12 20 11 11 8.090 40.6212 -124.3015 16.582 1.284 0.389 0.389 1.249 84 
1584B 4.200 0.70 P 
89462 4.930 0.71 P 
KCT 6.433 0.58 P 
B049 10.958 0.51 P 
KMR 11.433 0.66 P 
1584B 8.720 0.74 S 
89462 8.870 0.75 S 
KCT 9.723 0.58 S 
B046 10.078 0.67 S 
KPR 18.400 0.57 S 
KMR 20.363 0.65 S 
KBU 20.710 0.52 S 
B049 20.718 0.64 S 
BRIC 20.940 0.51 S 
# 2022 12 20 11 11 15.865 40.4089 -123.9139 23.282 0.894 0.298 0.298 0.689 85 
89462 5.135 0.74 P 
KCR 5.185 0.60 P 
KPR 5.225 0.72 P 
RBOW 6.325 0.53 P 
PRDS 7.239 0.64 P 
KHBB 11.068 0.51 P 
HAYF 11.228 0.61 P 
WEAV 14.385 0.68 P 
KCR 9.345 0.61 S 
89462 9.425 0.70 S 
KPR 10.215 0.58 S 
RBOW 11.065 0.59 S 
B935 12.803 0.64 S 
BRIC 13.145 0.58 S 
PETL 15.385 0.52 S 
HAYF 19.158 0.56 S 
KHBB 20.398 0.72 S 
WEAV 25.305 0.51 S 
# 2022 12 20 11 11 31.461 40.4017 -124.2030 20.257 0.544 0.399 0.399 0.513 86 
KMPB 3.812 0.57 P 
B046 4.197 0.59 P 
RBOW 4.459 0.56 P 
PETL 4.789 0.55 P 
B049 8.657 0.59 P 
B046 7.607 0.59 S 
89462 8.719 0.54 S 
KCO 9.872 0.56 S 
PRDS 12.329 0.56 S 
# 2022 12 20 11 11 53.004 40.4473 -124.2314 17.334 1.639 0.329 0.329 0.888 87 
PRDS 8.486 0.67 P 
KBU 9.366 0.73 P 
B049 9.374 0.75 P 
89688 9.436 0.73 P 
KMR 12.089 0.69 P 
B046 6.884 0.70 S 
KCO 8.999 0.69 S 
KPR 12.416 0.51 S 
KCR 12.706 0.54 S 
B049 15.044 0.74 S 
KBU 15.166 0.55 S 
89688 15.356 0.62 S 
B935 17.834 0.71 S 
KMR 18.209 0.72 S 
1591 19.306 0.55 S 
# 2022 12 20 11 12 4.846 40.5117 -124.3297 14.299 1.784 0.224 0.224 0.443 88 
1584B 3.464 0.71 P 
KCT 3.497 0.65 P 
B046 5.232 0.82 P 
KMPB 5.277 0.65 P 
PETL 5.724 0.79 P 
RBOW 5.954 0.66 P 
KCO 6.367 0.81 P 
KPR 8.124 0.81 P 
KCR 8.604 0.63 P 
PRDS 9.644 0.61 P 
KBU 9.884 0.64 P 
B049 9.922 0.77 P 
BRIC 11.444 0.77 P 
B934 16.452 0.54 P 
1584B 5.874 0.74 S 
KCT 6.577 0.59 S 
KMPB 9.477 0.58 S 
B046 9.492 0.79 S 
PETL 10.304 0.60 S 
RBOW 10.794 0.61 S 
KCO 11.487 0.80 S 
KPR 14.754 0.62 S 
PRDS 17.414 0.56 S 
89688 17.954 0.63 S 
B049 17.982 0.78 S 
KBU 18.244 0.63 S 
BRIC 20.644 0.53 S 
1591 22.154 0.67 S 
# 2022 12 20 11 12 32.247 40.6096 -124.0569 16.728 2.313 0.129 0.129 0.401 89 
89462 4.393 0.84 P 
1586 4.603 0.79 P 
BJES 4.653 0.75 P 
1023 4.783 0.82 P 
KNEE 4.917 0.67 P 
1581 4.993 0.82 P 
89781 5.003 0.82 P 
KMPB 5.436 0.62 P 
DMOR 5.653 0.53 P 
1580 6.343 0.84 P 
KCR 6.463 0.65 P 
RBOW 6.653 0.54 P 
B046 7.691 0.81 P 
KHMB 8.316 0.65 P 
PETL 8.423 0.73 P 
KCO 8.576 0.81 P 
KPR 8.593 0.77 P 
B935 8.751 0.81 P 
KBU 8.933 0.60 P 
B049 9.031 0.80 P 
KTD 9.203 0.72 P 
KCSB 9.686 0.81 P 
KMR 10.466 0.59 P 
PRDS 10.563 0.58 P 
KRP 10.946 0.82 P 
BRIC 11.633 0.55 P 
99700 12.343 0.83 P 
KHBB 12.696 0.65 P 
HAYF 12.726 0.54 P 
B934 14.731 0.60 P 
WEAV 15.503 0.65 P 
TRIN 19.876 0.83 P 
89462 8.153 0.82 S 
BJES 8.483 0.55 S 
1586 8.733 0.78 S 
KNEE 9.083 0.57 S 
89781 9.093 0.77 S 
1581 9.293 0.76 S 
KMPB 9.846 0.61 S 
1023 9.883 0.73 S 
1584B 10.333 0.75 S 
DMOR 11.113 0.65 S 
1580 11.323 0.76 S 
KCR 11.533 0.65 S 
KCT 11.596 0.73 S 
RBOW 11.893 0.58 S 
B046 13.771 0.76 S 
PETL 15.013 0.57 S 
KHMB 15.046 0.62 S 
B935 15.431 0.77 S 
KCO 15.686 0.74 S 
KBU 15.763 0.65 S 
KPR 15.893 0.63 S 
B049 15.981 0.75 S 
KCSB 17.476 0.76 S 
KMR 18.686 0.66 S 
PRDS 19.003 0.57 S 
KRP 19.646 0.73 S 
BRIC 20.393 0.57 S 
89688 20.413 0.52 S 
HAYF 22.446 0.54 S 
KHBB 22.496 0.58 S 
WEAV 27.123 0.60 S 
KFP 33.753 0.57 S 
LBK 36.543 0.69 S 
# 2022 12 20 11 12 48.462 40.5617 -123.9807 29.253 2.117 0.305 0.305 1.030 90 
89462 3.618 0.79 P 
KMPB 4.341 0.53 P 
KNEE 5.588 0.71 P 
1584B 6.208 0.79 P 
89781 6.618 0.82 P 
1581 6.978 0.85 P 
1580 7.448 0.82 P 
KHMB 8.051 0.55 P 
B935 8.316 0.70 P 
KCSB 9.061 0.80 P 
89688 9.108 0.58 P 
KHBB 11.791 0.63 P 
HAYF 12.099 0.50 P 
WEAV 14.628 0.56 P 
TRIN 19.691 0.75 P 
89781 11.558 0.75 S 
1586 12.458 0.73 S 
1581 12.468 0.80 S 
1580 12.708 0.71 S 
1584B 13.108 0.72 S 
KCT 13.901 0.53 S 
KCSB 15.621 0.80 S 
KRP 17.631 0.54 S 
HAYF 17.991 0.61 S 
KHBB 20.171 0.61 S 
WEAV 22.648 0.57 S 
LBK 33.368 0.57 S 
# 2022 12 20 11 13 4.928 40.5503 -124.2701 21.236 1.953 0.173 0.173 0.852 91 
1586 4.962 0.87 P 
KCT 5.145 0.70 P 
89462 5.192 0.88 P 
KMPB 5.555 0.64 P 
89781 6.172 0.89 P 
B046 6.400 0.87 P 
RBOW 6.412 0.54 P 
BJES 6.942 0.51 P 
PETL 7.002 0.59 P 
KNEE 7.306 0.60 P 
KCO 7.365 0.86 P 
KCR 8.002 0.65 P 
KPR 8.232 0.66 P 
KBU 9.362 0.67 P 
B049 9.510 0.81 P 
PRDS 10.012 0.78 P 
KRP 11.845 0.50 P 
BRIC 12.002 0.67 P 
KHBB 14.385 0.62 P 
LBK 22.062 0.87 P 
SCOT 22.633 0.54 P 
1584B 8.012 0.82 S 
1023 8.852 0.82 S 
KCT 9.045 0.60 S 
1586 9.162 0.82 S 
89462 9.452 0.79 S 
KMPB 9.745 0.63 S 
1581 10.392 0.83 S 
89781 11.092 0.83 S 
B046 11.170 0.75 S 
RBOW 11.202 0.56 S 
PETL 12.202 0.56 S 
BJES 12.352 0.78 S 
KCO 12.895 0.69 S 
KNEE 13.252 0.57 S 
KCR 14.402 0.64 S 
KPR 14.482 0.66 S 
DMOR 15.462 0.65 S 
KBU 16.722 0.72 S 
B049 16.810 0.71 S 
89688 18.002 0.72 S 
KHMB 18.045 0.50 S 
KMR 19.445 0.59 S 
BRIC 19.522 0.57 S 
KRP 20.955 0.57 S 
B935 22.850 0.53 S 
KCSB 24.245 0.50 S 
KHBB 25.155 0.70 S 
B934 25.650 0.50 S 
LBK 38.822 0.73 S 
# 2022 12 20 11 13 16.030 40.6313 -123.8628 17.309 1.552 0.218 0.218 0.865 92 
BJES 4.170 0.79 P 
DMOR 4.340 0.78 P 
KMPB 6.143 0.66 P 
1581 6.440 0.72 P 
1586 6.460 0.71 P 
KCSB 7.103 0.51 P 
1023 8.730 0.64 P 
PRDS 12.934 0.54 P 
BJES 8.020 0.74 S 
DMOR 8.740 0.62 S 
KCR 9.660 0.77 S 
89781 11.660 0.74 S 
1586 12.380 0.62 S 
1581 12.530 0.70 S 
B049 13.798 0.59 S 
PRDS 21.524 0.52 S 
# 2022 12 20 11 13 43.195 40.5396 -124.2288 18.636 1.996 0.181 0.181 0.511 93 
RBOW 5.805 0.61 P 
B046 5.963 0.84 P 
89781 6.275 0.83 P 
PETL 6.635 0.56 P 
KCO 6.968 0.81 P 
KNEE 7.089 0.57 P 
KCR 7.675 0.67 P 
DMOR 7.935 0.66 P 
KPR 7.975 0.65 P 
KBU 9.195 0.68 P 
B049 9.363 0.81 P 
PRDS 9.685 0.59 P 
KHMB 10.438 0.54 P 
KMR 10.938 0.61 P 
BRIC 11.245 0.59 P 
1584B 7.445 0.77 S 
1023 8.015 0.79 S 
89462 8.455 0.76 S 
1586 8.455 0.69 S 
1581 10.255 0.79 S 
RBOW 10.395 0.54 S 
B046 10.583 0.82 S 
89781 11.085 0.80 S 
PETL 11.665 0.58 S 
BJES 11.925 0.82 S 
KCO 12.388 0.80 S 
KNEE 13.169 0.64 S 
KCR 13.495 0.66 S 
KPR 14.215 0.67 S 
DMOR 15.715 0.82 S 
B049 16.563 0.81 S 
KBU 16.705 0.66 S 
PRDS 17.225 0.56 S 
89688 17.695 0.72 S 
KMR 19.458 0.66 S 
BRIC 19.755 0.69 S 
1591 20.935 0.71 S 
HAYF 26.156 0.53 S 
# 2022 12 20 11 14 0.718 40.5161 -124.3425 16.625 1.707 0.148 0.148 0.572 94 
1584B 3.842 0.59 P 
KCT 4.015 0.59 P 
1586 5.112 0.75 P 
KMPB 5.515 0.61 P 
B046 5.650 0.81 P 
PETL 6.132 0.78 P 
RBOW 6.312 0.54 P 
KCO 6.705 0.75 P 
89781 6.932 0.73 P 
KPR 8.402 0.61 P 
KNEE 8.452 0.63 P 
KBU 8.992 0.52 P 
PRDS 9.152 0.68 P 
DMOR 9.422 0.66 P 
89688 10.432 0.75 P 
KHMB 11.755 0.66 P 
BRIC 12.002 0.54 P 
KCT 6.205 0.58 S 
1584B 6.372 0.56 S 
1023 7.932 0.60 S 
1586 9.432 0.75 S 
KMPB 9.795 0.63 S 
B046 9.860 0.77 S 
89462 9.892 0.68 S 
PETL 10.682 0.53 S 
RBOW 11.242 0.54 S 
1581 11.412 0.77 S 
KCO 11.865 0.74 S 
BJES 14.172 0.70 S 
KPR 15.362 0.71 S 
KCR 15.732 0.59 S 
PRDS 16.862 0.55 S 
KBU 17.012 0.69 S 
DMOR 18.052 0.75 S 
B049 18.180 0.71 S 
89688 18.362 0.65 S 
B935 20.930 0.71 S 
KMR 21.215 0.71 S 
1591 21.912 0.71 S 
HAYF 28.463 0.54 S 
KHBB 29.415 0.73 S 
WEAV 32.372 0.59 S 
# 2022 12 20 11 14 11.232 40.5298 -124.5559 31.919 1.774 1.042 1.042 0.811 95 
KCT 6.841 0.53 P 
KMPB 8.331 0.51 P 
KPR 9.768 0.53 P 
KBU 9.928 0.58 P 
PRDS 11.598 0.50 P 
KNEE 18.202 0.53 S 
KCR 18.848 0.51 S 
KBU 21.058 0.54 S 
KMR 24.141 0.53 S 
HAYF 31.389 0.53 S 
# 2022 12 20 11 14 13.739 40.5292 -124.3660 16.335 1.633 0.149 0.149 0.681 96 
1584B 3.941 0.86 P 
KCT 4.324 0.63 P 
1586 5.341 0.89 P 
1581 5.731 0.88 P 
KMPB 5.864 0.66 P 
89781 5.911 0.76 P 
B046 6.009 0.86 P 
PETL 6.411 0.83 P 
KCO 6.954 0.86 P 
KPR 7.271 0.56 P 
BJES 8.271 0.82 P 
KNEE 8.801 0.51 P 
PRDS 9.131 0.54 P 
DMOR 9.711 0.69 P 
KCR 9.991 0.66 P 
KBU 10.511 0.79 P 
89688 10.731 0.85 P 
B935 12.149 0.81 P 
BRIC 12.341 0.59 P 
1591 12.931 0.84 P 
HAYF 15.274 0.75 P 
1584B 6.641 0.83 S 
KCT 7.464 0.69 S 
1023 8.201 0.74 S 
1586 9.711 0.81 S 
KMPB 10.074 0.62 S 
89462 10.231 0.75 S 
B046 10.279 0.81 S 
RBOW 10.311 0.51 S 
1581 11.271 0.83 S 
KCO 12.354 0.84 S 
89781 12.751 0.78 S 
BJES 14.511 0.76 S 
KNEE 15.671 0.69 S 
KPR 15.871 0.78 S 
KCR 16.451 0.60 S 
DMOR 18.471 0.83 S 
B049 18.599 0.78 S 
89688 18.781 0.82 S 
KBU 18.781 0.63 S 
BRIC 21.141 0.59 S 
KMR 21.624 0.56 S 
B935 21.749 0.83 S 
1591 22.711 0.83 S 
HAYF 28.874 0.64 S 
KHBB 29.794 0.61 S 
# 2022 12 20 11 14 38.075 40.5133 -124.3966 14.254 2.843 0.159 0.159 0.550 97 
1584B 3.705 0.76 P 
1023 5.125 0.75 P 
1586 5.575 0.77 P 
B046 5.833 0.78 P 
PETL 6.165 0.52 P 
89462 6.175 0.72 P 
KMPB 6.198 0.57 P 
1581 6.605 0.73 P 
KCO 6.988 0.77 P 
89781 7.455 0.71 P 
KCR 9.805 0.56 P 
PRDS 10.125 0.53 P 
89688 10.445 0.71 P 
KBU 10.765 0.67 P 
BRIC 12.415 0.52 P 
KCT 4.578 0.55 S 
1584B 6.895 0.77 S 
1023 8.665 0.76 S 
B046 10.103 0.75 S 
1586 10.255 0.72 S 
PETL 10.825 0.54 S 
KMPB 10.898 0.60 S 
1581 12.095 0.61 S 
RBOW 12.135 0.53 S 
KCO 12.248 0.65 S 
BJES 15.595 0.52 S 
KNEE 16.695 0.51 S 
KPR 16.915 0.64 S 
KCR 17.565 0.65 S 
PRDS 18.195 0.55 S 
89688 18.455 0.64 S 
KBU 19.125 0.56 S 
B049 19.333 0.66 S 
# 2022 12 20 11 14 51.298 40.5440 -124.2639 20.969 1.856 0.185 0.185 0.433 98 
KCT 4.465 0.79 P 
1586 4.612 0.75 P 
89462 4.862 0.82 P 
KMPB 5.195 0.68 P 
89781 6.042 0.78 P 
B046 6.050 0.75 P 
RBOW 6.122 0.58 P 
PETL 6.732 0.61 P 
BJES 6.812 0.75 P 
KCO 7.075 0.81 P 
KNEE 7.416 0.82 P 
KCR 7.952 0.68 P 
KPR 8.272 0.68 P 
KBU 9.412 0.65 P 
B049 9.590 0.83 P 
PRDS 9.626 0.63 P 
89688 10.192 0.83 P 
KMR 11.055 0.80 P 
KHBB 14.495 0.55 P 
79046 14.502 0.60 P 
1023 8.322 0.71 S 
KCT 8.455 0.65 S 
1586 8.722 0.83 S 
89462 9.042 0.82 S 
KMPB 9.285 0.60 S 
1581 10.402 0.77 S 
B046 10.740 0.78 S 
RBOW 10.802 0.59 S 
89781 11.162 0.81 S 
PETL 11.802 0.52 S 
KCO 12.625 0.83 S 
KNEE 13.386 0.50 S 
KCR 14.462 0.64 S 
KPR 14.472 0.67 S 
DMOR 15.632 0.77 S 
KBU 16.892 0.71 S 
B049 17.010 0.82 S 
PRDS 17.306 0.54 S 
89688 17.822 0.83 S 
KHMB 19.075 0.51 S 
KMR 19.575 0.60 S 
BRIC 19.852 0.52 S 
KHBB 25.075 0.70 S 
HAYF 26.523 0.56 S 
# 2022 12 20 11 15 25.542 40.4899 -124.4222 18.822 0.713 0.274 0.274 0.843 99 
1584B 4.418 0.79 P 
1023 6.018 0.80 P 
KCO 6.701 0.81 P 
1586 7.628 0.77 P 
PRDS 9.108 0.50 P 
89688 9.588 0.58 P 
KCR 10.468 0.75 P 
1584B 7.618 0.75 S 
KCT 8.891 0.83 S 
B046 9.626 0.75 S 
1586 10.528 0.53 S 
KMPB 11.071 0.61 S 
KCO 12.331 0.70 S 
KPR 16.988 0.51 S 
KCR 17.628 0.56 S 
# 2022 12 20 11 16 3.402 40.6148 -124.0506 21.753 1.395 0.214 0.214 0.646 100 
KNEE 4.822 0.79 P 
1586 4.968 0.61 P 
89462 4.998 0.84 P 
89781 4.998 0.87 P 
1584B 5.028 0.73 P 
1581 5.108 0.87 P 
KCT 5.931 0.53 P 
BJES 6.588 0.81 P 
1023 6.678 0.84 P 
KCR 6.718 0.66 P 
RBOW 6.928 0.55 P 
KHMB 7.861 0.66 P 
B046 7.916 0.86 P 
B935 8.476 0.85 P 
PETL 8.488 0.70 P 
KPR 8.798 0.81 P 
BRIC 8.888 0.57 P 
KBU 8.888 0.64 P 
B049 8.946 0.82 P 
KMR 10.281 0.65 P 
1591 10.468 0.79 P 
HAYF 12.481 0.68 P 
TRIN 19.499 0.50 P 
LBK 19.598 0.69 P 
89462 8.808 0.84 S 
BJES 9.178 0.59 S 
89781 9.338 0.80 S 
1586 9.488 0.76 S 
1581 9.738 0.81 S 
1023 10.788 0.82 S 
KMPB 10.811 0.66 S 
DMOR 10.968 0.76 S 
KCR 11.838 0.61 S 
RBOW 12.368 0.55 S 
B046 14.216 0.80 S 
KHMB 14.371 0.62 S 
B935 15.496 0.83 S 
KPR 15.638 0.56 S 
B049 15.986 0.79 S 
KBU 16.048 0.68 S 
PRDS 16.688 0.57 S 
KCSB 17.011 0.80 S 
KMR 18.571 0.59 S 
1591 20.728 0.78 S 
HAYF 21.811 0.53 S 
# 2022 12 20 11 16 24.404 40.5742 -124.1260 20.300 1.272 0.192 0.192 0.327 101 
1586 4.476 0.87 P 
1023 4.646 0.88 P 
1581 5.056 0.87 P 
89781 5.396 0.86 P 
KMPB 5.629 0.66 P 
KNEE 5.970 0.72 P 
RBOW 6.086 0.60 P 
B046 6.714 0.84 P 
KCR 7.066 0.69 P 
KCO 7.649 0.80 P 
KPR 8.076 0.67 P 
KBU 8.716 0.67 P 
B049 8.794 0.80 P 
KHMB 9.189 0.69 P 
B935 9.204 0.82 P 
PRDS 9.840 0.71 P 
KMR 10.369 0.65 P 
BRIC 11.086 0.55 P 
WEAV 15.756 0.59 P 
89462 8.186 0.70 S 
1586 8.536 0.81 S 
1023 9.056 0.71 S 
KMPB 9.159 0.63 S 
BJES 9.356 0.80 S 
1581 9.636 0.77 S 
89781 10.056 0.78 S 
RBOW 10.806 0.52 S 
KNEE 10.886 0.51 S 
B046 12.024 0.79 S 
KCR 12.526 0.56 S 
KCO 13.639 0.77 S 
KPR 14.526 0.61 S 
B049 15.764 0.80 S 
KBU 15.796 0.61 S 
KHMB 16.609 0.62 S 
B935 17.014 0.81 S 
KMR 18.449 0.60 S 
BRIC 19.526 0.60 S 
KRP 19.719 0.74 S 
# 2022 12 20 11 16 53.776 40.5533 -123.9541 20.452 1.386 0.157 0.157 0.477 102 
DMOR 5.134 0.62 P 
KCR 5.254 0.65 P 
KNEE 5.268 0.84 P 
RBOW 6.404 0.57 P 
89781 6.544 0.85 P 
1581 6.614 0.84 P 
B935 7.202 0.85 P 
KBU 7.594 0.64 P 
B049 7.642 0.87 P 
B046 7.772 0.65 P 
KPR 8.034 0.85 P 
KHMB 8.347 0.67 P 
KCO 8.617 0.84 P 
KMR 8.877 0.65 P 
PRDS 9.468 0.54 P 
89688 9.974 0.64 P 
1591 10.104 0.83 P 
BRIC 10.534 0.54 P 
HAYF 11.337 0.55 P 
KHBB 11.517 0.61 P 
KRP 11.817 0.55 P 
B934 14.122 0.81 P 
KFP 17.654 0.73 P 
BJES 7.674 0.79 S 
89462 9.264 0.74 S 
KCR 9.474 0.63 S 
KMPB 10.207 0.58 S 
RBOW 11.284 0.59 S 
1581 12.384 0.81 S 
KBU 12.644 0.61 S 
B935 13.122 0.84 S 
B049 13.532 0.81 S 
KPR 13.794 0.77 S 
KHMB 14.057 0.67 S 
KCSB 14.837 0.78 S 
KMR 15.957 0.66 S 
1591 16.704 0.72 S 
PRDS 17.244 0.59 S 
89688 18.214 0.69 S 
BRIC 18.434 0.58 S 
HAYF 19.995 0.60 S 
KHBB 20.307 0.66 S 
B934 24.542 0.74 S 
WEAV 25.434 0.52 S 
RVIT 27.639 0.56 S 
# 2022 12 20 11 17 3.183 40.5051 -124.4351 14.529 1.611 0.162 0.162 0.489 103 
1584B 3.097 0.74 P 
KCT 4.210 0.64 P 
B046 4.545 0.75 P 
1586 6.087 0.87 P 
PETL 6.247 0.60 P 
KMPB 6.530 0.63 P 
89462 6.617 0.85 P 
1581 7.127 0.86 P 
KCO 7.140 0.86 P 
RBOW 7.237 0.70 P 
KPR 9.227 0.67 P 
KCR 10.227 0.67 P 
KBU 11.087 0.68 P 
B049 11.255 0.84 P 
1591 13.707 0.82 P 
1584B 7.387 0.83 S 
KCT 7.630 0.68 S 
1023 9.377 0.77 S 
B046 10.085 0.77 S 
PETL 10.737 0.58 S 
1586 11.037 0.84 S 
KMPB 11.270 0.67 S 
89462 11.787 0.82 S 
KCO 12.270 0.82 S 
1581 12.877 0.84 S 
89781 14.447 0.79 S 
KPR 16.037 0.67 S 
KCR 18.007 0.68 S 
PRDS 18.391 0.57 S 
89688 18.657 0.62 S 
KBU 19.697 0.65 S 
B049 19.805 0.82 S 
BRIC 21.737 0.53 S 
1591 23.667 0.78 S 
# 2022 12 20 11 17 25.418 40.6084 -124.0693 16.125 1.716 0.137 0.137 0.417 104 
89462 4.152 0.91 P 
1586 4.392 0.88 P 
BJES 4.622 0.60 P 
KNEE 4.746 0.57 P 
1581 4.832 0.91 P 
89781 4.982 0.91 P 
KMPB 5.375 0.85 P 
DMOR 5.912 0.54 P 
KCT 6.245 0.70 P 
KCR 6.442 0.74 P 
RBOW 6.522 0.58 P 
B046 7.660 0.89 P 
KCO 8.465 0.89 P 
KHMB 8.515 0.70 P 
KPR 8.572 0.82 P 
B935 8.860 0.87 P 
KBU 8.942 0.63 P 
B049 9.070 0.84 P 
KCSB 9.815 0.86 P 
KMR 10.485 0.66 P 
PRDS 10.622 0.60 P 
BRIC 11.672 0.58 P 
HAYF 12.825 0.55 P 
KHBB 12.855 0.60 P 
B934 15.560 0.80 P 
KIP 16.942 0.71 P 
TRIN 18.635 0.66 P 
LBK 20.612 0.66 P 
89462 7.712 0.85 S 
BJES 8.382 0.66 S 
1586 8.412 0.73 S 
89781 9.022 0.82 S 
KNEE 9.072 0.60 S 
1581 9.132 0.82 S 
KMPB 9.525 0.72 S 
1023 9.552 0.86 S 
1584B 10.022 0.75 S 
KCT 11.245 0.61 S 
KCR 11.472 0.58 S 
RBOW 11.902 0.66 S 
B046 13.570 0.84 S 
KHMB 15.075 0.64 S 
PETL 15.182 0.51 S 
KCO 15.555 0.83 S 
B935 15.710 0.85 S 
KBU 16.002 0.72 S 
B049 16.090 0.84 S 
KPR 16.892 0.57 S 
KCSB 17.595 0.84 S 
KMR 18.705 0.64 S 
PRDS 19.042 0.57 S 
89688 19.992 0.77 S 
BRIC 20.462 0.59 S 
1591 20.712 0.77 S 
KHBB 23.065 0.82 S 
HAYF 23.315 0.63 S 
B934 26.710 0.85 S 
KFP 34.212 0.66 S 
# 2022 12 20 11 17 58.084 41.2992 -124.3936 -1.973 1.321 1.572 1.572 1.421 105 
DMOR 17.836 0.59 P 
B935 20.494 0.69 P 
KBU 21.386 0.69 P 
B049 21.524 0.66 P 
KPR 21.546 0.58 P 
PRDS 22.826 0.71 P 
BRIC 24.126 0.71 P 
KHBB 24.279 0.67 P 
HAYF 24.439 0.51 P 
KCR 35.376 0.54 S 
KCT 35.539 0.55 S 
KBU 37.406 0.59 S 
KPR 37.616 0.56 S 
KMR 41.449 0.61 S 
BRIC 42.516 0.55 S 
# 2022 12 20 11 18 22.520 40.5340 -124.0669 20.416 1.045 0.170 0.170 0.534 106 
89462 4.400 0.89 P 
KMPB 4.783 0.64 P 
1584B 4.930 0.82 P 
BJES 5.090 0.83 P 
1586 5.240 0.88 P 
RBOW 5.570 0.59 P 
KCT 5.953 0.63 P 
KNEE 5.964 0.63 P 
KCR 6.080 0.67 P 
DMOR 6.310 0.58 P 
B046 6.548 0.84 P 
KCO 7.313 0.83 P 
PETL 7.330 0.80 P 
KPR 7.410 0.68 P 
KBU 7.870 0.70 P 
B049 7.908 0.83 P 
B935 8.478 0.87 P 
PRDS 9.230 0.58 P 
KCSB 9.403 0.86 P 
KMR 9.413 0.82 P 
KHBB 12.533 0.84 P 
HAYF 12.693 0.62 P 
B934 14.278 0.57 P 
WEAV 14.910 0.88 P 
LBK 20.910 0.76 P 
LSF 22.620 0.67 P 
89462 8.260 0.84 S 
KMPB 8.683 0.67 S 
1584B 9.890 0.83 S 
RBOW 10.000 0.56 S 
1586 10.080 0.81 S 
1023 10.400 0.72 S 
KCR 10.980 0.60 S 
KNEE 11.150 0.54 S 
KCT 11.173 0.64 S 
1581 11.260 0.78 S 
B046 11.698 0.81 S 
DMOR 12.730 0.81 S 
KCO 13.133 0.81 S 
KPR 13.560 0.59 S 
KBU 14.060 0.72 S 
B049 14.098 0.78 S 
B935 15.278 0.82 S 
PRDS 16.244 0.56 S 
KMR 17.133 0.54 S 
KCSB 17.193 0.83 S 
BRIC 18.010 0.63 S 
HAYF 21.753 0.65 S 
KHBB 22.133 0.83 S 
WEAV 27.130 0.61 S 
