# 2022 12 20 10 52 3.815 40.5928 -124.1395 23.250 2.569 0.178 0.178 0.568 57 
1584B.NP 4.095 0.66 P 
89462.CE 4.885 1.04 P 
1586.NP 5.095 1.03 P 
KMPB.NC 5.448 0.61 P 
1581.NP 5.475 1.00 P 
B045.PB 5.493 0.95 P 
89781.CE 5.545 1.03 P 
1023.NP 5.695 1.02 P 
BJES.BK 5.815 0.92 P 
KNEE.BK 5.815 0.50 P 
KCT.NC 6.098 0.53 P 
RBOW.BK 6.435 0.47 P 
1580.NP 6.745 1.02 P 
KCR.NC 7.085 0.70 P 
B046.PB 7.123 1.00 P 
PETL.BK 7.795 0.90 P 
KCO.NC 7.958 1.00 P 
KPR.NC 8.335 0.77 P 
KBU.NC 8.825 0.49 P 
KHMB.NC 8.938 0.65 P 
B935.PB 9.303 1.00 P 
KTD.NC 9.475 1.03 P 
B049.PB 9.743 1.00 P 
PRDS.BK 10.015 0.52 P 
KCSB.NC 10.358 1.03 P 
KMR.NC 11.118 0.97 P 
KRP.NC 11.148 1.02 P 
BRIC.BK 12.255 0.39 P 
KHBB.NC 12.948 0.63 P 
HAYF.BK 13.036 0.43 P 
KOM.NC 15.358 0.84 P 
WEAV.BK 15.485 0.96 P 
LBK.NC 20.635 1.01 P 
89462.CE 8.835 0.96 S 
1586.NP 9.355 0.90 S 
B045.PB 9.713 0.86 S 
KMPB.NC 9.788 0.59 S 
89781.CE 9.835 0.95 S 
1581.NP 9.845 0.96 S 
1584B.NP 9.865 0.86 S 
1023.NP 9.985 0.86 S 
BJES.BK 10.165 0.56 S 
KNEE.BK 10.275 0.45 S 
RBOW.BK 11.295 0.36 S 
KCT.NC 11.338 0.90 S 
1580.NP 11.675 0.94 S 
B046.PB 12.483 0.91 S 
KCR.NC 13.315 0.48 S 
B047.PB 13.563 0.88 S 
PETL.BK 13.705 0.53 S 
KCO.NC 14.118 0.93 S 
KPR.NC 14.825 0.43 S 
B049.PB 15.623 0.67 S 
KHMB.NC 15.838 0.59 S 
KBU.NC 16.005 0.61 S 
KTD.NC 16.075 0.92 S 
B935.PB 16.853 0.93 S 
89688.CE 17.235 0.33 S 
PRDS.BK 17.705 0.41 S 
KCSB.NC 18.358 0.90 S 
BRIC.BK 19.365 0.77 S 
KRP.NC 19.428 0.93 S 
KMR.NC 19.638 0.58 S 
1591.NP 21.435 0.38 S 
KHBB.NC 22.958 0.57 S 
HAYF.BK 23.188 0.45 S 
KOM.NC 26.068 0.81 S 
79046.CE 27.715 0.35 S 
LBK.NC 36.475 0.55 S 
# 2022 12 20 10 52 39.352 40.5792 -124.3374 20.132 3.354 0.134 0.134 0.504 58 
1584B.NP 4.398 1.05 P 
1023.NP 4.428 1.07 P 
1586.NP 4.658 1.05 P 
KCT.NC 4.871 0.59 P 
1581.NP 5.308 0.99 P 
89462.CE 5.768 1.04 P 
89781.CE 5.998 1.02 P 
KMPB.NC 6.221 0.67 P 
B046.PB 6.746 1.06 P 
B045.PB 6.976 1.04 P 
RBOW.BK 7.148 0.49 P 
PETL.BK 7.238 0.51 P 
1580.NP 7.548 1.05 P 
KCO.NC 7.831 1.01 P 
BJES.BK 7.938 0.52 P 
KNEE.BK 7.958 0.57 P 
B047.PB 8.056 1.04 P 
DMOR.BK 8.768 0.58 P 
KCR.NC 9.018 0.63 P 
KPR.NC 9.208 0.65 P 
KTD.NC 9.598 1.04 P 
KBU.NC 10.378 0.49 P 
PRDS.BK 10.728 0.67 P 
B049.PB 10.756 0.98 P 
KHMB.NC 10.891 0.51 P 
89688.CE 11.068 0.97 P 
B935.PB 11.496 0.97 P 
KRP.NC 11.681 1.01 P 
KMR.NC 12.181 0.63 P 
KCSB.NC 12.311 0.95 P 
BRIC.BK 12.368 0.50 P 
99700.CE 12.858 0.96 P 
1591.NP 12.998 0.90 P 
KHBB.NC 15.221 0.56 P 
B934.PB 15.906 0.95 P 
79046.CE 16.378 0.96 P 
RVIT.BK 18.178 0.91 P 
79298.CE 19.258 0.57 P 
KFP.NC 19.598 0.52 P 
LSF.NC 21.538 0.45 P 
DCMP.BK 21.691 0.39 P 
KRK.NC 22.258 0.69 P 
LBK.NC 22.598 1.06 P 
SCOT.BK 23.009 0.50 P 
GNR.NC 24.218 0.54 P 
GUMB.BK 24.922 0.63 P 
1584B.NP 7.778 0.91 S 
1023.NP 8.338 0.83 S 
KCT.NC 8.581 0.68 S 
1586.NP 8.588 0.97 S 
1581.NP 9.938 0.89 S 
89462.CE 10.458 0.91 S 
KMPB.NC 10.771 0.54 S 
89781.CE 10.868 0.92 S 
B046.PB 11.776 0.92 S 
B045.PB 12.266 0.90 S 
RBOW.BK 12.508 0.46 S 
PETL.BK 12.778 0.45 S 
1580.NP 13.368 0.95 S 
KCO.NC 13.501 0.91 S 
BJES.BK 13.928 0.44 S 
B047.PB 13.986 0.87 S 
KNEE.BK 14.258 0.47 S 
KCR.NC 15.638 0.58 S 
KPR.NC 16.158 0.49 S 
KTD.NC 17.618 0.98 S 
KBU.NC 18.808 0.92 S 
89688.CE 18.838 0.58 S 
PRDS.BK 18.912 0.42 S 
KHMB.NC 18.941 0.65 S 
B049.PB 19.026 0.95 S 
B935.PB 20.446 0.95 S 
KRP.NC 20.641 0.90 S 
BRIC.BK 21.328 0.49 S 
KMR.NC 22.041 0.60 S 
KCSB.NC 22.181 0.97 S 
1591.NP 22.818 0.98 S 
KHBB.NC 26.901 0.67 S 
B934.PB 27.066 0.97 S 
HAYF.BK 27.971 0.47 S 
79046.CE 28.088 0.97 S 
KOM.NC 28.701 0.76 S 
79298.CE 34.058 0.52 S 
KFP.NC 34.358 0.77 S 
MNDO.BK 37.338 0.81 S 
SCOT.BK 39.451 0.42 S 
LBK.NC 39.618 0.93 S 
GNR.NC 40.928 0.62 S 
GUMB.BK 44.428 0.36 S 
# 2022 12 20 10 52 54.121 39.7367 -123.2016 6.900 2.260 0.468 0.468 0.957 59 
KFP.NC 4.089 0.46 P 
KBN.NC 4.879 0.56 P 
DCMP.BK 6.880 0.33 P 
GROB.NC 9.049 0.91 P 
GWR.NC 10.349 0.88 P 
GCWB.NC 12.609 0.82 P 
GTSB.BK 14.803 0.34 P 
GHGB.NC 15.032 0.78 P 
GSR.NC 15.569 0.80 P 
KIP.NC 8.069 0.85 S 
KFP.NC 9.319 0.84 S 
GROB.NC 15.269 0.72 S 
GWR.NC 18.149 0.69 S 
GCWB.NC 21.049 0.59 S 
GSR.NC 26.509 0.54 S 
GBL.NC 26.979 0.34 S 
# 2022 12 20 10 53 16.429 40.5222 -124.3584 15.610 2.942 0.124 0.124 0.428 60 
1584B.NP 3.491 0.98 P 
KCT.NC 3.894 0.61 P 
1023.NP 4.091 1.05 P 
1586.NP 5.091 1.01 P 
89462.CE 5.561 0.99 P 
KMPB.NC 5.664 0.62 P 
B046.PB 5.709 1.04 P 
1581.NP 6.061 1.00 P 
PETL.BK 6.201 0.89 P 
RBOW.BK 6.541 0.36 P 
B045.PB 6.859 0.99 P 
KCO.NC 6.924 0.99 P 
89781.CE 6.961 1.05 P 
B047.PB 7.329 1.00 P 
BJES.BK 8.261 0.88 P 
1580.NP 8.531 0.75 P 
KNEE.BK 8.721 0.52 P 
KPR.NC 8.731 0.57 P 
KCR.NC 9.261 0.59 P 
PRDS.BK 10.091 0.52 P 
KBU.NC 10.341 0.60 P 
89688.CE 10.501 0.94 P 
B049.PB 10.529 0.95 P 
KTD.NC 10.681 0.85 P 
KHMB.NC 11.814 0.40 P 
B935.PB 12.049 0.91 P 
BRIC.BK 12.151 0.43 P 
KMR.NC 12.244 0.59 P 
1591.NP 12.621 0.91 P 
KCSB.NC 12.984 0.94 P 
HAYF.BK 15.744 0.98 P 
79046.CE 15.771 0.98 P 
KHBB.NC 15.934 0.42 P 
KOM.NC 17.704 0.66 P 
LBK.NC 23.681 0.76 P 
SCOT.BK 23.964 0.40 P 
1584B.NP 6.281 0.87 S 
KCT.NC 7.014 0.64 S 
1023.NP 7.941 0.92 S 
1586.NP 9.541 0.92 S 
B046.PB 9.989 0.90 S 
KMPB.NC 10.014 0.54 S 
89462.CE 10.141 0.92 S 
PETL.BK 10.781 0.43 S 
RBOW.BK 11.411 0.47 S 
1581.NP 11.471 0.94 S 
B045.PB 11.979 0.79 S 
KCO.NC 12.194 0.90 S 
89781.CE 12.631 0.95 S 
B047.PB 12.639 0.73 S 
BJES.BK 14.781 0.42 S 
1580.NP 15.141 0.80 S 
KPR.NC 15.291 0.54 S 
KNEE.BK 15.891 0.44 S 
KCR.NC 16.161 0.57 S 
PRDS.BK 17.971 0.44 S 
89688.CE 18.161 0.83 S 
DMOR.BK 18.501 0.34 S 
KBU.NC 18.561 0.58 S 
B049.PB 18.669 0.92 S 
BRIC.BK 21.091 0.51 S 
KMR.NC 21.284 0.59 S 
KHMB.NC 21.434 0.88 S 
B935.PB 21.869 0.94 S 
1591.NP 22.661 0.96 S 
KCSB.NC 23.384 0.96 S 
79046.CE 27.361 0.93 S 
B934.PB 27.469 0.89 S 
HAYF.BK 29.024 0.85 S 
KHBB.NC 29.864 0.60 S 
# 2022 12 20 10 53 55.331 40.6080 -124.0591 17.381 1.969 0.151 0.151 0.527 61 
89462.CE 4.369 0.97 P 
1586.NP 4.569 0.91 P 
BJES.BK 4.679 0.96 P 
1581.NP 4.939 0.99 P 
89781.CE 5.029 0.96 P 
B045.PB 5.107 1.00 P 
KCR.NC 6.429 0.63 P 
RBOW.BK 6.719 0.46 P 
KCO.NC 7.642 0.88 P 
KPR.NC 8.789 0.58 P 
B935.PB 8.907 1.00 P 
KBU.NC 9.049 0.62 P 
B049.PB 9.117 0.95 P 
KCSB.NC 9.742 0.97 P 
KMR.NC 10.522 0.53 P 
PRDS.BK 10.719 0.43 P 
KHBB.NC 11.222 0.76 P 
89688.CE 11.229 0.85 P 
BRIC.BK 11.859 0.42 P 
HAYF.BK 13.002 0.89 P 
89462.CE 8.009 0.71 S 
BJES.BK 8.409 0.79 S 
1586.NP 8.739 0.84 S 
KNEE.BK 8.909 0.40 S 
89781.CE 9.069 0.88 S 
B045.PB 9.197 0.86 S 
1581.NP 9.389 0.93 S 
KMPB.NC 9.822 0.36 S 
1023.NP 10.029 0.71 S 
1584B.NP 10.349 0.94 S 
DMOR.BK 11.399 0.61 S 
KCR.NC 11.589 0.57 S 
RBOW.BK 12.049 0.42 S 
B047.PB 13.447 0.89 S 
B046.PB 13.887 0.90 S 
KPR.NC 15.279 0.53 S 
PETL.BK 15.559 0.59 S 
B935.PB 15.877 0.92 S 
KBU.NC 16.149 0.56 S 
B049.PB 16.167 0.91 S 
KCSB.NC 17.312 0.91 S 
PRDS.BK 18.749 0.43 S 
KMR.NC 18.752 0.61 S 
89688.CE 19.189 0.63 S 
BRIC.BK 20.629 0.46 S 
KHBB.NC 22.802 0.81 S 
B934.PB 26.867 0.52 S 
# 2022 12 20 10 54 12.003 40.6208 -124.1992 28.454 1.965 0.231 0.231 1.069 62 
89781.CE 4.547 0.34 P 
1584B.NP 5.027 0.72 P 
KCT.NC 5.270 0.93 P 
1586.NP 6.217 0.99 P 
B046.PB 6.475 1.04 P 
B045.PB 6.575 0.97 P 
PETL.BK 6.777 0.88 P 
KMPB.NC 6.850 0.64 P 
1581.NP 6.957 0.95 P 
KCO.NC 7.450 0.94 P 
KCR.NC 7.507 0.56 P 
RBOW.BK 7.547 0.44 P 
B047.PB 7.775 1.00 P 
B935.PB 9.315 0.62 P 
KPR.NC 9.517 0.54 P 
KBU.NC 10.187 0.62 P 
B049.PB 10.205 0.92 P 
PRDS.BK 10.821 0.50 P 
89688.CE 11.127 0.91 P 
BRIC.BK 12.797 0.41 P 
KHBB.NC 13.130 0.56 P 
1023.NP 9.437 0.91 S 
89781.CE 10.127 0.90 S 
89462.CE 10.287 0.70 S 
1581.NP 10.777 0.75 S 
B046.PB 10.815 0.79 S 
KMPB.NC 11.300 0.63 S 
BJES.BK 12.297 0.46 S 
KCR.NC 12.497 0.41 S 
KCO.NC 12.880 0.85 S 
RBOW.BK 13.007 0.53 S 
B047.PB 13.505 0.90 S 
B935.PB 15.825 0.61 S 
KPR.NC 16.657 0.80 S 
B049.PB 17.215 0.91 S 
KBU.NC 17.327 0.58 S 
PRDS.BK 18.767 0.47 S 
89688.CE 19.217 0.88 S 
KMR.NC 19.650 0.77 S 
BRIC.BK 22.157 0.50 S 
1591.NP 22.467 0.74 S 
KHBB.NC 22.530 0.69 S 
B934.PB 27.935 0.44 S 
# 2022 12 20 10 54 50.451 40.5389 -124.2999 18.047 2.281 0.138 0.138 0.683 63 
KCT.NC 4.082 0.67 P 
1586.NP 4.549 0.75 P 
89462.CE 5.059 0.95 P 
KMPB.NC 5.302 0.89 P 
1581.NP 5.559 0.92 P 
B046.PB 5.817 0.99 P 
RBOW.BK 6.289 0.54 P 
PETL.BK 6.359 0.53 P 
89781.CE 6.369 0.99 P 
KCO.NC 6.952 0.96 P 
B047.PB 7.197 1.00 P 
KNEE.BK 7.999 0.71 P 
1580.NP 8.019 1.01 P 
KPR.NC 8.469 0.57 P 
KCR.NC 8.659 0.62 P 
DMOR.BK 8.979 0.75 P 
KBU.NC 9.939 0.57 P 
PRDS.BK 9.953 0.47 P 
B049.PB 10.097 0.94 P 
89688.CE 10.389 0.95 P 
KHMB.NC 11.202 0.43 P 
B935.PB 11.427 0.87 P 
KMR.NC 11.762 0.53 P 
BRIC.BK 11.929 0.56 P 
KCSB.NC 14.562 0.34 P 
KHBB.NC 15.322 0.79 P 
WEAV.BK 19.829 0.45 P 
LBK.NC 23.039 0.43 P 
1584B.NP 6.299 0.53 S 
KCT.NC 7.192 0.48 S 
1023.NP 7.369 0.64 S 
1586.NP 8.609 0.83 S 
89462.CE 9.399 0.90 S 
B046.PB 10.357 0.87 S 
1581.NP 10.589 0.89 S 
KMPB.NC 10.722 0.56 S 
RBOW.BK 11.069 0.45 S 
PETL.BK 11.189 0.45 S 
B045.PB 11.257 0.61 S 
89781.CE 11.759 0.94 S 
KCO.NC 12.272 0.81 S 
B047.PB 12.657 0.92 S 
BJES.BK 13.549 0.52 S 
1580.NP 13.959 0.91 S 
KNEE.BK 14.649 0.36 S 
KPR.NC 14.909 0.56 S 
KCR.NC 15.709 0.56 S 
DMOR.BK 16.239 0.37 S 
PRDS.BK 17.889 0.48 S 
KBU.NC 17.919 0.64 S 
B049.PB 17.957 0.86 S 
89688.CE 18.039 0.87 S 
B935.PB 18.757 0.62 S 
KHMB.NC 20.162 0.78 S 
KCSB.NC 20.402 0.57 S 
BRIC.BK 20.759 0.43 S 
KMR.NC 20.882 0.61 S 
HAYF.BK 25.780 0.35 S 
KHBB.NC 26.122 0.57 S 
B934.PB 26.527 0.50 S 
WEAV.BK 31.089 0.39 S 
# 2022 12 20 10 55 1.002 40.5382 -124.3445 16.819 2.244 0.164 0.164 0.627 64 
1584B.NP 3.568 0.58 P 
KCT.NC 4.111 0.63 P 
1586.NP 4.958 0.93 P 
KMPB.NC 5.631 0.66 P 
PETL.BK 6.408 0.92 P 
RBOW.BK 6.608 0.68 P 
BJES.BK 8.048 0.81 P 
KPR.NC 8.798 0.61 P 
KNEE.BK 8.982 0.68 P 
KCR.NC 9.208 0.80 P 
DMOR.BK 9.208 0.78 P 
BRIC.BK 10.328 0.61 P 
KBU.NC 10.368 0.58 P 
KMR.NC 10.521 0.40 P 
1584B.NP 6.238 0.90 S 
KCT.NC 7.101 0.62 S 
1023.NP 7.888 0.96 S 
1586.NP 9.318 0.88 S 
KMPB.NC 9.811 0.61 S 
89462.CE 9.888 0.80 S 
B046.PB 10.336 0.53 S 
RBOW.BK 11.358 0.41 S 
B045.PB 11.816 0.39 S 
KCO.NC 12.091 0.82 S 
89781.CE 12.548 0.79 S 
KNEE.BK 13.928 0.37 S 
1580.NP 15.148 0.80 S 
KPR.NC 15.598 0.61 S 
KCR.NC 16.428 0.66 S 
DMOR.BK 18.088 0.75 S 
PRDS.BK 18.112 0.35 S 
KBU.NC 18.568 0.57 S 
B049.PB 18.656 0.79 S 
BRIC.BK 21.198 0.40 S 
KMR.NC 21.511 0.66 S 
1591.NP 22.678 0.73 S 
# 2022 12 20 10 55 25.792 40.5152 -124.3821 16.064 1.912 0.159 0.159 0.478 65 
1584B.NP 3.648 0.71 P 
KCT.NC 4.661 0.44 P 
1586.NP 5.388 0.81 P 
B046.PB 5.536 0.85 P 
89462.CE 5.978 0.96 P 
KMPB.NC 6.001 0.56 P 
1581.NP 6.398 0.82 P 
PETL.BK 6.558 0.50 P 
RBOW.BK 6.678 0.63 P 
KCO.NC 6.751 0.70 P 
B045.PB 7.206 0.83 P 
B047.PB 7.286 0.82 P 
89781.CE 7.338 0.96 P 
KPR.NC 8.818 0.67 P 
KCR.NC 9.648 0.54 P 
PRDS.BK 10.152 0.59 P 
89688.CE 10.428 0.89 P 
KBU.NC 10.578 0.55 P 
B049.PB 10.716 0.93 P 
BRIC.BK 12.238 0.40 P 
B935.PB 12.406 0.70 P 
KMR.NC 12.601 0.90 P 
1584B.NP 6.698 0.67 S 
1023.NP 8.518 0.76 S 
B046.PB 9.816 0.89 S 
1586.NP 10.258 0.92 S 
PETL.BK 10.538 0.46 S 
KMPB.NC 10.691 0.66 S 
89462.CE 10.958 0.93 S 
1581.NP 11.988 0.95 S 
KCO.NC 11.991 0.79 S 
B047.PB 12.706 0.82 S 
B045.PB 12.766 0.77 S 
89781.CE 13.298 0.95 S 
BJES.BK 14.488 0.51 S 
KPR.NC 15.698 0.52 S 
KCR.NC 17.058 0.94 S 
PRDS.BK 17.938 0.37 S 
89688.CE 18.258 0.93 S 
KBU.NC 19.108 0.58 S 
B049.PB 19.276 0.93 S 
BRIC.BK 21.498 0.52 S 
KHMB.NC 21.901 0.67 S 
1591.NP 23.178 0.79 S 
B934.PB 27.306 0.52 S 
# 2022 12 20 10 56 10.638 40.2761 -124.2698 -1.816 0.132 0.409 0.409 0.970 66 
B046.PB -0.540 0.44 P 
B047.PB 2.150 0.80 P 
KMPB.NC 2.625 0.76 P 
RBOW.BK 3.372 0.85 P 
KPR.NC 4.932 0.50 P 
89688.CE 6.952 0.50 P 
1023.NP 8.432 0.54 P 
KCO.NC 0.495 0.57 S 
RBOW.BK 5.232 0.66 S 
KMPB.NC 7.395 0.87 S 
1023.NP 15.012 0.40 S 
# 2022 12 20 10 56 51.062 40.5765 -124.1302 25.794 2.250 0.166 0.166 0.544 67 
89462.CE 5.008 1.02 P 
1586.NP 5.148 1.02 P 
KMPB.NC 5.401 0.64 P 
1023.NP 5.498 1.05 P 
BJES.BK 5.648 0.93 P 
B045.PB 5.676 0.98 P 
89781.CE 5.718 1.03 P 
1584B.NP 5.788 1.00 P 
RBOW.BK 6.008 0.53 P 
KNEE.BK 6.098 0.92 P 
KCT.NC 6.391 0.36 P 
PETL.BK 6.698 0.56 P 
KCR.NC 7.008 0.59 P 
B046.PB 7.546 0.94 P 
KPR.NC 7.548 0.65 P 
PRDS.BK 8.928 0.94 P 
KBU.NC 8.938 0.47 P 
KHMB.NC 8.961 0.63 P 
B049.PB 9.026 1.01 P 
B935.PB 9.126 0.97 P 
89688.CE 9.698 0.88 P 
KCSB.NC 10.071 0.97 P 
KMR.NC 10.381 0.92 P 
BRIC.BK 10.788 0.59 P 
KRP.NC 11.101 0.91 P 
HAYF.BK 12.731 0.41 P 
KHBB.NC 12.861 0.47 P 
KOM.NC 15.261 0.88 P 
WEAV.BK 15.438 0.61 P 
TRIN.BK 19.331 0.56 P 
LBK.NC 20.548 1.06 P 
GUMB.BK 23.212 0.43 P 
89462.CE 9.068 0.93 S 
1586.NP 9.558 0.98 S 
B045.PB 9.906 0.81 S 
BJES.BK 9.998 0.64 S 
KMPB.NC 10.151 0.52 S 
1023.NP 10.258 0.90 S 
89781.CE 10.318 0.97 S 
1581.NP 10.328 0.91 S 
KNEE.BK 10.748 0.39 S 
RBOW.BK 11.568 0.33 S 
B047.PB 11.796 0.68 S 
1580.NP 12.178 0.80 S 
KCR.NC 12.358 0.53 S 
B046.PB 13.236 0.73 S 
KPR.NC 14.698 0.49 S 
KBU.NC 15.828 0.90 S 
B049.PB 16.036 0.92 S 
KHMB.NC 16.151 0.63 S 
B935.PB 16.196 0.94 S 
89688.CE 16.388 0.82 S 
KCSB.NC 17.951 0.97 S 
KMR.NC 18.381 0.43 S 
PRDS.BK 18.482 0.43 S 
BRIC.BK 19.368 0.55 S 
KRP.NC 19.761 0.88 S 
KHBB.NC 22.561 0.88 S 
HAYF.BK 22.599 0.61 S 
B934.PB 25.236 0.71 S 
WEAV.BK 28.178 0.47 S 
TRIN.BK 34.499 0.95 S 
LBK.NC 36.148 0.95 S 
LSF.NC 36.418 0.58 S 
GUMB.BK 41.268 0.91 S 
# 2022 12 20 10 57 19.173 40.6729 -124.0489 26.810 2.440 0.296 0.296 1.286 68 
1023.NP 6.177 0.99 P 
1586.NP 7.167 0.95 P 
B046.PB 7.405 0.97 P 
KMPB.NC 7.830 0.59 P 
PETL.BK 7.867 0.51 P 
RBOW.BK 8.507 0.78 P 
KCO.NC 8.510 0.95 P 
B047.PB 9.065 0.98 P 
KMR.NC 10.340 0.42 P 
KPR.NC 10.557 0.40 P 
KHBB.NC 11.560 0.54 P 
HAYF.BK 11.680 0.60 P 
PRDS.BK 11.877 0.50 P 
89688.CE 12.217 0.95 P 
1591.NP 14.317 0.68 P 
WEAV.BK 14.557 0.45 P 
LBK.NC 19.347 0.44 P 
GNR.NC 24.947 0.84 P 
GHO.NC 27.307 0.48 P 
1023.NP 10.317 0.92 S 
KCR.NC 11.417 0.42 S 
1586.NP 11.947 0.85 S 
KMPB.NC 12.590 0.61 S 
RBOW.BK 13.657 0.84 S 
KCO.NC 13.920 0.89 S 
B047.PB 14.535 0.87 S 
KCSB.NC 15.720 0.71 S 
KPR.NC 17.837 0.68 S 
PRDS.BK 19.701 0.42 S 
89688.CE 20.017 0.89 S 
KHBB.NC 20.650 0.37 S 
BRIC.BK 23.307 0.36 S 
B934.PB 28.875 0.64 S 
79046.CE 29.437 0.70 S 
79298.CE 35.197 0.63 S 
GNR.NC 42.157 0.60 S 
# 2022 12 20 10 57 45.337 40.5371 -124.3178 17.084 2.811 0.140 0.140 0.409 69 
1584B.NP 3.573 0.87 P 
1023.NP 3.963 0.86 P 
KCT.NC 3.986 0.56 P 
1586.NP 4.683 0.86 P 
89462.CE 5.203 0.89 P 
KMPB.NC 5.386 0.53 P 
B046.PB 5.871 0.89 P 
RBOW.BK 6.403 0.58 P 
PETL.BK 6.443 0.58 P 
B045.PB 6.461 0.86 P 
89781.CE 6.493 0.92 P 
BJES.BK 7.633 0.80 P 
KNEE.BK 8.007 0.49 P 
1580.NP 8.133 0.88 P 
KPR.NC 8.533 0.54 P 
KCR.NC 8.773 0.52 P 
DMOR.BK 9.133 0.64 P 
PRDS.BK 10.013 0.44 P 
KBU.NC 10.043 0.46 P 
B049.PB 10.211 0.81 P 
KTD.NC 10.493 0.86 P 
KHMB.NC 11.296 0.50 P 
B935.PB 11.541 0.84 P 
KMR.NC 11.896 0.51 P 
BRIC.BK 12.023 0.42 P 
KRP.NC 12.316 0.81 P 
KCSB.NC 12.436 0.82 P 
HAYF.BK 14.996 0.86 P 
KOM.NC 17.316 0.41 P 
1584B.NP 6.353 0.80 S 
KCT.NC 7.276 0.53 S 
1023.NP 7.603 0.80 S 
1586.NP 8.843 0.81 S 
KMPB.NC 9.226 0.53 S 
89462.CE 9.563 0.83 S 
B046.PB 10.391 0.81 S 
RBOW.BK 11.183 0.50 S 
PETL.BK 11.263 0.42 S 
B045.PB 11.391 0.70 S 
89781.CE 11.883 0.81 S 
BJES.BK 13.803 0.62 S 
1580.NP 14.353 0.79 S 
KNEE.BK 14.903 0.35 S 
KPR.NC 15.243 0.52 S 
KCR.NC 15.953 0.56 S 
DMOR.BK 17.513 0.51 S 
PRDS.BK 17.703 0.43 S 
89688.CE 17.973 0.70 S 
KBU.NC 18.123 0.77 S 
B049.PB 18.251 0.79 S 
KTD.NC 18.393 0.85 S 
KHMB.NC 20.196 0.63 S 
BRIC.BK 20.873 0.47 S 
KMR.NC 21.116 0.56 S 
KHBB.NC 27.266 0.38 S 
# 2022 12 20 10 57 56.247 40.5033 -124.4437 17.872 3.295 0.127 0.127 0.446 70 
1584B.NP 4.243 0.99 P 
KCT.NC 4.296 0.49 P 
1023.NP 5.013 1.04 P 
B046.PB 5.841 1.00 P 
1586.NP 6.083 1.03 P 
PETL.BK 6.173 0.41 P 
KMPB.NC 6.516 0.61 P 
89462.CE 6.663 1.00 P 
1581.NP 6.703 1.01 P 
KCO.NC 6.946 0.97 P 
RBOW.BK 7.283 0.52 P 
B047.PB 7.551 0.94 P 
89781.CE 7.703 1.05 P 
B045.PB 7.731 0.73 P 
1580.NP 9.163 1.06 P 
KPR.NC 9.193 0.67 P 
BJES.BK 9.193 0.99 P 
KNEE.BK 9.723 0.34 P 
KCR.NC 10.143 0.56 P 
PRDS.BK 10.163 0.51 P 
89688.CE 10.463 0.89 P 
DMOR.BK 10.563 0.87 P 
KBU.NC 11.063 0.56 P 
B049.PB 11.071 0.96 P 
KTD.NC 11.243 1.01 P 
BRIC.BK 12.303 0.58 P 
KHMB.NC 12.806 0.93 P 
B935.PB 12.811 0.93 P 
KCSB.NC 13.766 0.91 P 
99700.CE 14.843 0.95 P 
B934.PB 15.731 0.98 P 
79046.CE 15.933 0.95 P 
KIP.NC 18.103 0.44 P 
KOM.NC 18.576 0.52 P 
KFP.NC 19.723 0.45 P 
KBN.NC 20.353 0.77 P 
MNDO.BK 21.343 1.00 P 
GNR.NC 23.233 0.43 P 
TRIN.BK 23.526 0.66 P 
GBL.NC 23.903 0.54 P 
LBK.NC 24.403 0.98 P 
SCOT.BK 24.756 0.46 P 
LSF.NC 25.083 0.36 P 
GWR.NC 25.183 1.04 P 
GHO.NC 25.533 0.50 P 
GCWB.NC 27.383 1.08 P 
GTSB.BK 30.243 0.52 P 
GHGB.NC 30.286 0.90 P 
1584B.NP 7.593 0.93 S 
KCT.NC 7.916 0.71 S 
1023.NP 9.523 0.79 S 
B046.PB 10.261 0.92 S 
PETL.BK 10.793 0.55 S 
1586.NP 11.123 0.82 S 
KMPB.NC 11.526 0.52 S 
89462.CE 12.153 0.74 S 
KCO.NC 12.336 0.91 S 
1581.NP 12.713 0.93 S 
RBOW.BK 12.793 0.41 S 
B047.PB 13.311 0.89 S 
89781.CE 13.883 0.94 S 
1580.NP 16.043 0.95 S 
KPR.NC 16.203 0.51 S 
BJES.BK 16.723 0.85 S 
KNEE.BK 17.623 0.53 S 
PRDS.BK 18.123 0.35 S 
KCR.NC 18.203 0.64 S 
89688.CE 18.283 0.83 S 
KBU.NC 19.643 0.65 S 
DMOR.BK 19.663 0.88 S 
B049.PB 19.711 0.92 S 
BRIC.BK 21.633 0.50 S 
KHMB.NC 22.126 0.90 S 
B935.PB 22.881 0.97 S 
KMR.NC 23.196 0.36 S 
1591.NP 23.273 0.92 S 
KCSB.NC 24.396 0.99 S 
B934.PB 27.521 0.98 S 
79046.CE 27.553 0.92 S 
KOM.NC 31.756 0.85 S 
KIP.NC 32.123 0.82 S 
79298.CE 33.923 0.66 S 
KFP.NC 34.743 0.62 S 
DCMP.BK 38.144 0.42 S 
KRK.NC 40.023 0.86 S 
79668.CE 40.463 0.90 S 
GNR.NC 40.523 0.86 S 
GBL.NC 41.243 0.58 S 
SCOT.BK 43.286 0.45 S 
LSF.NC 44.003 0.44 S 
GHO.NC 44.623 0.71 S 
GUMB.BK 47.483 0.46 S 
GCWB.NC 48.043 0.45 S 
# 2022 12 20 10 59 7.722 40.5243 -124.3689 16.710 2.068 0.145 0.145 0.440 71 
1584B.NP 3.608 0.90 P 
KCT.NC 3.961 0.55 P 
1023.NP 4.258 0.98 P 
1586.NP 5.208 0.98 P 
89462.CE 5.648 0.97 P 
B046.PB 5.806 0.99 P 
KMPB.NC 5.831 0.55 P 
PETL.BK 6.198 0.90 P 
1581.NP 6.268 0.94 P 
RBOW.BK 6.568 0.57 P 
KCO.NC 7.131 0.98 P 
BJES.BK 8.188 0.84 P 
1580.NP 8.698 0.98 P 
KPR.NC 8.838 0.59 P 
KNEE.BK 8.878 0.49 P 
KCR.NC 9.308 0.59 P 
DMOR.BK 9.648 0.42 P 
KBU.NC 10.428 0.59 P 
B049.PB 10.536 0.89 P 
BRIC.BK 11.108 0.71 P 
B935.PB 11.886 0.79 P 
KHMB.NC 11.921 0.54 P 
KMR.NC 12.091 0.58 P 
1591.NP 12.708 0.95 P 
KRP.NC 13.331 0.90 P 
B934.PB 14.176 0.39 P 
KHBB.NC 15.981 0.37 P 
1584B.NP 6.378 0.91 S 
KCT.NC 7.101 0.70 S 
1023.NP 8.048 0.96 S 
1586.NP 9.678 0.93 S 
B046.PB 10.056 0.93 S 
KMPB.NC 10.121 0.59 S 
89462.CE 10.208 0.93 S 
1581.NP 11.558 0.94 S 
KCO.NC 12.221 0.92 S 
89781.CE 12.728 0.71 S 
B047.PB 12.856 0.82 S 
1580.NP 15.328 0.92 S 
KPR.NC 15.368 0.59 S 
KNEE.BK 15.972 0.52 S 
KCR.NC 16.798 0.64 S 
KBU.NC 18.478 0.64 S 
89688.CE 18.568 0.78 S 
DMOR.BK 18.688 0.96 S 
B049.PB 18.696 0.93 S 
BRIC.BK 21.168 0.37 S 
KHMB.NC 21.491 0.71 S 
B935.PB 21.866 0.86 S 
KMR.NC 21.931 0.62 S 
1591.NP 22.688 0.92 S 
B934.PB 27.296 0.78 S 
# 2022 12 20 10 59 26.073 40.5494 -124.4025 27.081 1.784 0.316 0.316 0.774 72 
1023.NP 4.207 0.38 P 
PETL.BK 5.567 0.42 P 
KCO.NC 6.360 0.65 P 
1584B.NP 6.657 0.48 P 
89781.CE 6.777 0.50 P 
RBOW.BK 7.357 0.36 P 
1581.NP 7.587 0.44 P 
KCR.NC 9.137 0.55 P 
KPR.NC 9.457 0.46 P 
KBU.NC 10.577 0.52 P 
B049.PB 10.745 0.87 P 
KMR.NC 12.400 0.79 P 
1584B.NP 8.957 0.49 S 
1023.NP 9.327 0.63 S 
1581.NP 11.577 0.68 S 
B046.PB 12.075 0.81 S 
89781.CE 12.437 0.56 S 
PETL.BK 13.137 0.57 S 
KCO.NC 13.880 0.75 S 
1580.NP 14.957 0.64 S 
KPR.NC 15.847 0.43 S 
PRDS.BK 17.117 0.54 S 
89688.CE 18.157 0.74 S 
B049.PB 18.305 0.56 S 
KBU.NC 18.537 0.48 S 
BRIC.BK 21.887 0.40 S 
