# 2022 12 20 10 43 9.350 40.5290 -124.3520 16.706 1.524 0.154 0.154 0.636 22 
1584B 3.810 0.86 P 
KCT 4.273 0.65 P 
1586 4.460 0.88 P 
KMPB 5.773 0.62 P 
RBOW 6.620 0.64 P 
B045 6.868 0.85 P 
89781 7.100 0.80 P 
KNEE 7.570 0.87 P 
B047 7.808 0.82 P 
KPR 8.900 0.59 P 
KCR 8.920 0.61 P 
KBU 9.480 0.80 P 
DMOR 9.610 0.59 P 
BRIC 9.740 0.61 P 
B049 10.408 0.85 P 
B935 12.048 0.83 P 
1584B 6.650 0.78 S 
KCT 7.453 0.65 S 
1023 8.210 0.79 S 
1586 9.580 0.84 S 
B046 9.748 0.77 S 
KMPB 10.033 0.63 S 
PETL 11.000 0.74 S 
1581 11.440 0.71 S 
RBOW 11.560 0.54 S 
B045 11.898 0.66 S 
KCO 12.363 0.83 S 
89781 12.590 0.83 S 
B047 13.008 0.73 S 
BJES 14.420 0.53 S 
1580 15.200 0.80 S 
KPR 15.420 0.61 S 
KNEE 15.780 0.60 S 
KCR 16.280 0.83 S 
DMOR 18.120 0.76 S 
KBU 18.580 0.78 S 
B049 18.588 0.71 S 
BRIC 21.170 0.51 S 
B935 21.618 0.76 S 
1591 22.570 0.74 S 
KHBB 29.773 0.63 S 
# 2022 12 20 10 43 39.509 40.5158 -124.4143 15.450 3.069 0.117 0.117 0.629 23 
1584B 4.001 0.88 P 
KCT 4.114 0.61 P 
1023 4.721 0.90 P 
1586 5.801 0.89 P 
B046 5.929 0.88 P 
PETL 6.271 0.56 P 
89462 6.361 0.86 P 
KMPB 6.374 0.61 P 
1581 6.861 0.90 P 
RBOW 7.071 0.59 P 
KCO 7.124 0.88 P 
B045 7.609 0.83 P 
89781 7.631 0.88 P 
B047 7.649 0.88 P 
BJES 9.001 0.69 P 
KPR 9.181 0.69 P 
1580 9.201 0.87 P 
KCR 10.001 0.61 P 
PRDS 10.381 0.61 P 
DMOR 10.441 0.63 P 
89688 10.641 0.78 P 
KBU 11.001 0.65 P 
B049 11.119 0.82 P 
KTD 11.421 0.83 P 
BRIC 12.611 0.55 P 
KHMB 12.624 0.51 P 
B935 12.769 0.86 P 
KMR 12.884 0.74 P 
1591 13.181 0.83 P 
KCSB 13.624 0.84 P 
B934 15.749 0.81 P 
79046 16.121 0.88 P 
KIP 18.381 0.56 P 
KOM 18.454 0.87 P 
KFP 19.961 0.60 P 
DCMP 22.112 0.54 P 
PETY 22.632 0.89 P 
LSF 23.441 0.60 P 
TRIN 23.504 0.76 P 
GBL 24.371 0.83 P 
LBK 24.421 0.83 P 
SCOT 24.864 0.71 P 
GWR 25.261 0.50 P 
GVA 25.571 0.76 P 
GUMB 27.255 0.62 P 
1584B 6.981 0.75 S 
KCT 7.424 0.70 S 
1023 8.901 0.81 S 
B046 10.189 0.80 S 
1586 10.531 0.83 S 
PETL 10.911 0.58 S 
KMPB 11.064 0.67 S 
89462 11.381 0.81 S 
1581 12.371 0.86 S 
KCO 12.384 0.83 S 
RBOW 12.951 0.57 S 
B047 13.189 0.78 S 
B045 13.189 0.74 S 
89781 13.711 0.83 S 
BJES 15.751 0.52 S 
1580 16.231 0.85 S 
KPR 16.561 0.68 S 
KNEE 17.085 0.62 S 
KCR 17.741 0.69 S 
89688 18.571 0.73 S 
KBU 19.491 0.66 S 
B049 19.589 0.75 S 
DMOR 19.701 0.59 S 
BRIC 21.891 0.61 S 
KHMB 22.014 0.79 S 
KMR 22.334 0.63 S 
B935 22.689 0.80 S 
1591 23.261 0.79 S 
KCSB 24.384 0.80 S 
B934 27.189 0.85 S 
79046 28.221 0.84 S 
HAYF 30.424 0.63 S 
KOM 31.644 0.84 S 
KIP 32.181 0.85 S 
KFP 35.421 0.66 S 
KBN 37.921 0.76 S 
DCMP 38.394 0.55 S 
GNR 41.421 0.57 S 
PETY 41.582 0.60 S 
SCOT 42.624 0.62 S 
GVA 43.021 0.57 S 
TRIN 43.554 0.70 S 
GHO 45.221 0.57 S 
GUMB 47.135 0.62 S 
# 2022 12 20 10 44 28.437 40.5117 -124.3395 17.902 1.691 0.152 0.152 0.478 24 
1584B 3.763 0.86 P 
KCT 4.246 0.64 P 
1023 4.303 0.89 P 
1586 5.243 0.88 P 
89462 5.493 0.84 P 
KMPB 5.596 0.62 P 
RBOW 6.193 0.63 P 
B045 6.261 0.84 P 
89781 7.043 0.90 P 
KPR 7.843 0.64 P 
BJES 7.933 0.84 P 
KNEE 8.567 0.70 P 
KCR 8.713 0.68 P 
1580 8.753 0.86 P 
89688 9.323 0.85 P 
B049 9.531 0.85 P 
KBU 10.213 0.85 P 
BRIC 10.923 0.83 P 
B935 11.361 0.84 P 
KMR 11.696 0.84 P 
KHMB 11.876 0.51 P 
1584B 6.143 0.56 S 
KCT 7.636 0.66 S 
1023 8.103 0.81 S 
1586 9.523 0.82 S 
KMPB 9.726 0.64 S 
PETL 11.003 0.87 S 
RBOW 11.343 0.65 S 
B045 11.551 0.74 S 
89781 12.573 0.82 S 
BJES 14.113 0.58 S 
KPR 14.573 0.84 S 
1580 15.243 0.84 S 
KNEE 15.333 0.55 S 
KCR 16.153 0.69 S 
89688 17.133 0.78 S 
KBU 17.883 0.64 S 
B049 17.941 0.85 S 
KHMB 20.116 0.63 S 
BRIC 20.203 0.81 S 
KMR 21.226 0.66 S 
B935 21.341 0.84 S 
1591 22.103 0.73 S 
B934 26.601 0.53 S 
# 2022 12 20 10 44 38.812 41.1115 -124.7967 32.686 2.982 0.931 0.931 0.703 25 
B046 13.986 0.72 P 
89462 14.188 0.72 P 
KMPB 14.231 0.59 P 
PETL 14.418 0.50 P 
1584B 14.598 0.64 P 
KCT 15.131 0.50 P 
KPR 17.108 0.59 P 
B049 19.146 0.76 P 
KIP 26.278 0.75 P 
1023 23.268 0.77 S 
KMPB 26.041 0.60 S 
B045 27.406 0.79 S 
DMOR 27.558 0.58 S 
PETL 27.668 0.53 S 
B047 28.976 0.78 S 
KCR 30.958 0.54 S 
KPR 30.998 0.60 S 
B049 33.466 0.76 S 
PRDS 33.478 0.50 S 
89688 33.798 0.75 S 
B934 42.166 0.73 S 
79046 42.948 0.69 S 
RVIT 46.798 0.68 S 
KIP 46.898 0.71 S 
KFP 49.318 0.59 S 
# 2022 12 20 10 44 46.877 40.5202 -124.4052 14.158 2.889 0.193 0.193 0.392 26 
1584B 3.733 0.52 P 
1586 5.553 0.66 P 
KMPB 6.196 0.63 P 
PETL 6.363 0.58 P 
RBOW 6.963 0.79 P 
KCO 7.166 0.81 P 
89781 7.503 0.76 P 
B047 7.611 0.82 P 
KPR 9.033 0.64 P 
1580 9.073 0.81 P 
KCR 9.893 0.80 P 
PRDS 10.433 0.60 P 
89688 10.683 0.81 P 
KBU 10.923 0.61 P 
KTD 11.373 0.66 P 
BRIC 12.563 0.51 P 
1591 13.053 0.81 P 
KRP 13.316 0.69 P 
79046 16.133 0.74 P 
1586 10.123 0.81 S 
B046 10.171 0.74 S 
KMPB 10.746 0.56 S 
PETL 10.963 0.58 S 
KCO 12.486 0.82 S 
B047 13.111 0.82 S 
89781 13.503 0.80 S 
KPR 16.053 0.65 S 
1580 16.053 0.79 S 
PRDS 18.533 0.52 S 
89688 18.743 0.80 S 
KBU 19.563 0.68 S 
BRIC 21.813 0.55 S 
KHMB 22.406 0.53 S 
1591 23.783 0.67 S 
B934 27.681 0.77 S 
79046 28.213 0.78 S 
# 2022 12 20 10 44 53.782 40.5622 -124.3260 25.421 2.923 0.302 0.302 0.956 27 
1584B 4.408 0.85 P 
KCT 4.851 0.66 P 
89462 5.828 0.82 P 
B046 6.776 0.79 P 
RBOW 7.188 0.77 P 
PETL 7.298 0.74 P 
KNEE 7.698 0.58 P 
BJES 7.778 0.62 P 
KCO 7.831 0.78 P 
KCR 9.118 0.66 P 
KTD 9.368 0.51 P 
KHMB 10.591 0.61 P 
B935 11.476 0.72 P 
KRP 11.631 0.51 P 
KCSB 12.231 0.67 P 
1584B 7.908 0.81 S 
1586 8.428 0.56 S 
KCT 8.721 0.66 S 
89462 10.618 0.81 S 
KMPB 11.001 0.52 S 
B046 11.916 0.81 S 
KCO 13.861 0.79 S 
BJES 13.938 0.78 S 
KNEE 14.202 0.60 S 
BRIC 14.978 0.50 S 
KCR 15.928 0.61 S 
KTD 16.388 0.61 S 
B935 20.486 0.68 S 
# 2022 12 20 10 45 22.276 40.5318 -124.3514 17.626 1.841 0.187 0.187 0.514 28 
KCT 4.257 0.59 P 
1586 4.924 0.84 P 
89462 5.434 0.84 P 
KMPB 5.837 0.67 P 
B046 6.072 0.85 P 
RBOW 6.494 0.64 P 
PETL 6.594 0.72 P 
B045 6.692 0.88 P 
89781 6.714 0.84 P 
KCO 7.177 0.86 P 
B047 7.442 0.85 P 
BJES 7.844 0.80 P 
1580 8.354 0.84 P 
KCR 9.034 0.65 P 
KBU 9.494 0.79 P 
B049 9.502 0.77 P 
89688 10.674 0.83 P 
KCT 6.867 0.58 S 
1023 7.754 0.81 S 
1586 9.134 0.80 S 
PETL 9.454 0.55 S 
89462 9.854 0.76 S 
KMPB 10.157 0.66 S 
B046 10.552 0.82 S 
RBOW 11.354 0.64 S 
KCO 12.477 0.82 S 
B047 12.852 0.60 S 
1580 14.854 0.84 S 
KPR 15.954 0.75 S 
KCR 16.174 0.69 S 
B049 17.782 0.82 S 
PRDS 18.054 0.61 S 
KBU 18.354 0.80 S 
BRIC 21.134 0.52 S 
# 2022 12 20 10 45 39.043 40.5095 -124.2663 14.962 1.344 0.254 0.254 0.793 29 
1584B 2.507 0.88 P 
1586 3.457 0.85 P 
1023 3.547 0.84 P 
89462 3.947 0.88 P 
KCO 6.160 0.77 P 
1581 7.017 0.57 P 
KPR 7.627 0.83 P 
89688 9.767 0.79 P 
1584B 5.547 0.85 S 
1023 6.537 0.82 S 
89462 8.077 0.83 S 
B046 9.685 0.52 S 
RBOW 9.887 0.53 S 
PETL 10.677 0.55 S 
KPR 11.367 0.53 S 
KCO 11.540 0.76 S 
89688 19.047 0.64 S 
# 2022 12 20 10 46 4.194 40.4987 -123.9866 24.267 1.881 0.300 0.300 0.800 30 
B045 4.544 0.70 P 
KMPB 5.019 0.68 P 
KNEE 5.570 0.64 P 
KCR 5.696 0.77 P 
RBOW 5.776 0.53 P 
B046 6.894 0.62 P 
1023 6.966 0.73 P 
B047 7.164 0.79 P 
KPR 7.476 0.60 P 
KCO 7.659 0.68 P 
B935 8.004 0.74 P 
89781 8.336 0.59 P 
B045 8.384 0.64 S 
89462 8.616 0.74 S 
KMPB 9.279 0.80 S 
KCR 10.386 0.58 S 
RBOW 10.636 0.58 S 
1023 10.956 0.64 S 
KMR 11.939 0.65 S 
B046 12.464 0.58 S 
B047 12.854 0.74 S 
KPR 13.376 0.60 S 
KCO 13.409 0.67 S 
B935 14.544 0.68 S 
PRDS 16.856 0.67 S 
# 2022 12 20 10 46 15.853 40.5364 -124.2998 16.551 1.569 0.145 0.145 0.381 31 
1584B 3.437 0.85 P 
1023 3.737 0.90 P 
KCT 3.890 0.60 P 
89462 4.987 0.85 P 
1586 5.157 0.86 P 
B046 5.765 0.85 P 
1581 5.857 0.88 P 
B045 6.115 0.66 P 
RBOW 6.127 0.61 P 
89781 6.457 0.85 P 
KCO 6.880 0.82 P 
B047 7.045 0.80 P 
BJES 7.477 0.52 P 
1580 7.897 0.81 P 
KNEE 8.271 0.67 P 
KPR 8.367 0.60 P 
KCR 8.447 0.68 P 
KBU 9.797 0.67 P 
PRDS 9.911 0.61 P 
B049 9.925 0.71 P 
KMR 11.560 0.59 P 
BRIC 11.717 0.53 P 
1584B 6.247 0.84 S 
KCT 7.220 0.71 S 
1023 7.407 0.70 S 
1586 8.517 0.85 S 
KMPB 9.190 0.59 S 
89462 9.197 0.86 S 
B046 10.315 0.83 S 
1581 10.437 0.84 S 
RBOW 10.867 0.52 S 
B045 10.975 0.79 S 
PETL 11.077 0.54 S 
89781 11.927 0.83 S 
KCO 12.220 0.83 S 
B047 12.485 0.76 S 
1580 14.107 0.79 S 
KNEE 14.597 0.61 S 
KPR 14.917 0.64 S 
KCR 15.507 0.65 S 
DMOR 17.117 0.63 S 
KBU 17.797 0.56 S 
B049 17.845 0.81 S 
PRDS 17.917 0.54 S 
B935 20.305 0.77 S 
BRIC 20.437 0.61 S 
KMR 20.610 0.79 S 
1591 22.177 0.70 S 
# 2022 12 20 10 46 36.850 40.5121 -124.3410 16.452 1.520 0.171 0.171 0.453 32 
1584B 3.600 0.81 P 
KCT 3.943 0.62 P 
1586 5.110 0.81 P 
KMPB 5.203 0.61 P 
89462 5.230 0.83 P 
KCO 5.753 0.77 P 
RBOW 6.190 0.51 P 
B045 6.528 0.81 P 
1584B 6.330 0.69 S 
KCT 7.203 0.63 S 
1023 7.920 0.79 S 
KMPB 9.563 0.63 S 
1586 9.630 0.75 S 
B046 9.688 0.79 S 
89462 9.920 0.79 S 
PETL 10.600 0.55 S 
B045 11.438 0.72 S 
1581 11.440 0.75 S 
KCO 11.733 0.81 S 
KPR 14.800 0.76 S 
KCR 16.220 0.74 S 
B049 17.998 0.65 S 
KBU 18.000 0.62 S 
89688 18.210 0.72 S 
BRIC 20.590 0.56 S 
B935 21.088 0.77 S 
1591 22.280 0.73 S 
# 2022 12 20 10 46 53.903 40.5201 -124.3133 16.239 1.959 0.163 0.163 0.922 33 
1023 3.167 0.69 P 
KCT 3.820 0.62 P 
KMPB 5.290 0.57 P 
B046 5.465 0.76 P 
RBOW 6.207 0.59 P 
B045 6.385 0.78 P 
PETL 6.677 0.66 P 
B047 6.915 0.79 P 
KPR 8.327 0.76 P 
KBU 9.947 0.51 P 
B049 10.125 0.76 P 
KHMB 11.540 0.74 P 
KHBB 15.390 0.57 P 
1584B 6.067 0.74 S 
KCT 7.110 0.59 S 
1586 9.207 0.75 S 
KCO 9.330 0.62 S 
B046 9.725 0.72 S 
89462 9.747 0.76 S 
PETL 10.587 0.52 S 
1581 11.177 0.72 S 
B045 11.385 0.80 S 
89781 12.267 0.81 S 
B047 13.525 0.50 S 
BJES 14.027 0.69 S 
KPR 14.897 0.75 S 
KCR 14.947 0.73 S 
1580 14.947 0.78 S 
B935 17.575 0.51 S 
B049 17.985 0.77 S 
DMOR 17.987 0.69 S 
KMR 21.140 0.52 S 
1591 22.287 0.56 S 
KHBB 29.250 0.52 S 
# 2022 12 20 10 47 14.087 40.5155 -124.3889 16.169 2.005 0.153 0.153 0.490 34 
1584B 3.803 0.85 P 
KCT 3.966 0.66 P 
1586 5.443 0.86 P 
B046 5.711 0.82 P 
PETL 5.963 0.59 P 
KMPB 6.026 0.61 P 
1581 6.483 0.87 P 
RBOW 6.693 0.60 P 
KCO 6.846 0.83 P 
89781 7.193 0.85 P 
BJES 8.633 0.85 P 
KPR 8.763 0.64 P 
KCR 9.463 0.61 P 
PRDS 10.193 0.54 P 
89688 10.403 0.81 P 
KBU 10.563 0.57 P 
B049 10.731 0.83 P 
BRIC 12.263 0.76 P 
B934 17.391 0.56 P 
1584B 6.803 0.75 S 
KCT 7.326 0.64 S 
1023 8.473 0.83 S 
B046 10.051 0.78 S 
1586 10.153 0.82 S 
PETL 10.633 0.56 S 
KMPB 10.696 0.64 S 
1581 11.933 0.83 S 
RBOW 12.043 0.54 S 
KCO 12.086 0.74 S 
B047 12.731 0.78 S 
89781 13.173 0.85 S 
1580 15.723 0.80 S 
KPR 15.803 0.64 S 
KNEE 16.593 0.83 S 
KCR 17.083 0.63 S 
PRDS 17.883 0.58 S 
89688 18.043 0.64 S 
KBU 19.033 0.65 S 
B049 19.201 0.74 S 
BRIC 21.413 0.61 S 
1591 22.833 0.74 S 
B934 26.971 0.57 S 
79046 27.523 0.71 S 
# 2022 12 20 10 47 33.919 40.5975 -124.0815 16.341 3.013 0.114 0.114 0.455 35 
89462 4.221 0.86 P 
1586 4.471 0.89 P 
BJES 4.661 0.78 P 
KNEE 4.891 0.66 P 
1581 4.951 0.91 P 
B045 5.039 0.80 P 
1023 5.061 0.91 P 
89781 5.071 0.93 P 
KMPB 5.324 0.67 P 
1584B 5.621 0.88 P 
KCT 6.294 0.71 P 
KCR 6.401 0.69 P 
RBOW 6.561 0.59 P 
B046 7.749 0.89 P 
B047 8.229 0.88 P 
PETL 8.431 0.65 P 
KCO 8.574 0.85 P 
KPR 8.591 0.67 P 
KHMB 8.594 0.69 P 
B935 8.949 0.86 P 
KBU 9.021 0.68 P 
B049 9.119 0.83 P 
KCSB 9.834 0.87 P 
KMR 10.554 0.64 P 
PRDS 10.641 0.59 P 
KRP 11.124 0.89 P 
89688 11.251 0.84 P 
1591 11.621 0.85 P 
BRIC 11.791 0.54 P 
HAYF 12.894 0.64 P 
KHBB 12.914 0.66 P 
B934 15.009 0.85 P 
KOM 15.214 0.86 P 
WEAV 15.851 0.70 P 
KIP 16.961 0.62 P 
KBN 18.171 0.83 P 
RVIT 18.171 0.87 P 
KFP 18.931 0.60 P 
TRIN 19.214 0.90 P 
LBK 20.651 0.89 P 
LSF 22.071 0.61 P 
GROB 23.301 0.82 P 
89462 7.751 0.86 S 
BJES 8.441 0.80 S 
1586 8.531 0.70 S 
B045 9.009 0.84 S 
KNEE 9.125 0.52 S 
89781 9.171 0.83 S 
1581 9.291 0.79 S 
KMPB 9.514 0.60 S 
1023 9.661 0.66 S 
1584B 10.091 0.82 S 
KCT 11.234 0.61 S 
KCR 11.531 0.55 S 
RBOW 11.541 0.53 S 
B046 13.619 0.84 S 
B047 14.479 0.84 S 
PETL 14.961 0.55 S 
KPR 15.201 0.58 S 
KCO 15.284 0.84 S 
KHMB 15.304 0.61 S 
B049 16.099 0.80 S 
KBU 16.151 0.61 S 
B935 16.259 0.86 S 
KTD 16.851 0.82 S 
KCSB 17.534 0.86 S 
KMR 18.734 0.57 S 
89688 19.771 0.83 S 
KRP 19.894 0.83 S 
BRIC 20.511 0.61 S 
1591 20.721 0.84 S 
HAYF 23.162 0.51 S 
KHBB 23.464 0.65 S 
B934 26.659 0.85 S 
KOM 27.174 0.86 S 
79046 27.671 0.80 S 
WEAV 28.981 0.53 S 
RVIT 29.711 0.86 S 
KIP 30.211 0.80 S 
KBN 33.451 0.81 S 
KFP 33.591 0.82 S 
SCOT 37.994 0.75 S 
GNR 40.691 0.54 S 
GBL 42.351 0.51 S 
# 2022 12 20 10 48 1.073 40.6378 -124.0114 18.229 2.276 0.135 0.135 0.497 36 
KNEE 4.657 0.54 P 
DMOR 4.927 0.65 P 
89781 5.087 0.90 P 
1586 5.187 0.72 P 
1581 5.257 0.88 P 
B045 5.595 0.85 P 
1580 5.997 0.83 P 
KMPB 6.220 0.82 P 
KCR 6.447 0.69 P 
RBOW 7.307 0.62 P 
KHMB 7.640 0.67 P 
B935 8.425 0.89 P 
B047 8.785 0.85 P 
KTD 8.917 0.86 P 
KPR 9.057 0.56 P 
KBU 9.167 0.57 P 
B049 9.225 0.88 P 
KCSB 9.250 0.84 P 
89688 10.467 0.56 P 
KRP 10.480 0.85 P 
KMR 10.570 0.82 P 
PRDS 10.697 0.53 P 
BRIC 11.537 0.56 P 
1591 11.777 0.84 P 
KHBB 12.130 0.59 P 
HAYF 12.140 0.55 P 
WEAV 14.487 0.61 P 
LSF 20.367 0.61 P 
KNEE 8.047 0.66 S 
89781 9.127 0.83 S 
89462 9.267 0.78 S 
1581 9.787 0.83 S 
1586 9.897 0.80 S 
B045 9.915 0.80 S 
DMOR 10.207 0.79 S 
KMPB 11.040 0.56 S 
1584B 11.367 0.63 S 
1023 11.457 0.86 S 
KCR 11.727 0.60 S 
KCT 12.130 0.55 S 
RBOW 12.907 0.56 S 
KHMB 13.650 0.64 S 
B046 14.545 0.82 S 
B935 14.955 0.83 S 
B047 15.785 0.77 S 
KTD 15.857 0.80 S 
B049 16.225 0.80 S 
PETL 16.317 0.61 S 
KCO 16.340 0.84 S 
KBU 16.367 0.81 S 
KCSB 16.400 0.82 S 
KPR 16.437 0.81 S 
KMR 18.750 0.61 S 
KRP 19.010 0.72 S 
PRDS 20.217 0.57 S 
89688 21.057 0.57 S 
1591 21.087 0.84 S 
HAYF 21.170 0.61 S 
BRIC 21.207 0.63 S 
KHBB 21.570 0.70 S 
KOM 25.060 0.76 S 
WEAV 25.937 0.65 S 
B934 27.025 0.65 S 
# 2022 12 20 10 48 24.287 40.5146 -124.3669 17.561 2.619 0.204 0.204 0.405 37 
1584B 3.943 0.61 P 
1023 4.423 0.73 P 
KCT 4.426 0.61 P 
1586 5.093 0.69 P 
B046 5.401 0.62 P 
KMPB 5.726 0.58 P 
PETL 5.833 0.59 P 
KCO 6.586 0.62 P 
KPR 8.593 0.58 P 
PRDS 9.833 0.50 P 
89688 10.303 0.65 P 
1584B 6.443 0.66 S 
KCT 7.886 0.58 S 
1023 8.253 0.75 S 
1586 9.683 0.71 S 
B046 9.701 0.70 S 
KMPB 9.916 0.54 S 
KCO 11.956 0.73 S 
89781 12.723 0.64 S 
KPR 15.343 0.57 S 
PRDS 17.703 0.53 S 
89688 18.123 0.66 S 
KBU 18.383 0.60 S 
B049 18.391 0.54 S 
1591 22.463 0.55 S 
# 2022 12 20 10 48 38.124 40.5932 -123.9082 25.989 2.867 0.161 0.161 0.413 38 
DMOR 4.726 0.54 P 
KNEE 5.166 0.61 P 
B045 5.584 0.86 P 
KCR 5.716 0.69 P 
BJES 5.786 0.81 P 
89462 5.866 0.83 P 
KMPB 6.489 0.64 P 
89781 6.516 0.87 P 
1586 6.736 0.88 P 
1581 6.836 0.86 P 
B935 7.074 0.80 P 
1580 7.186 0.88 P 
RBOW 7.226 0.55 P 
1584B 7.406 0.81 P 
KHMB 7.649 0.72 P 
KCSB 7.699 0.85 P 
B049 8.114 0.83 P 
KBU 8.166 0.65 P 
B046 8.544 0.84 P 
B047 8.634 0.90 P 
KPR 8.666 0.67 P 
KMR 9.069 0.66 P 
KCO 9.119 0.86 P 
PETL 9.246 0.81 P 
PRDS 10.166 0.57 P 
HAYF 10.499 0.64 P 
KHBB 10.639 0.65 P 
BRIC 10.956 0.56 P 
B934 12.884 0.63 P 
79046 13.516 0.64 P 
KOM 13.979 0.88 P 
TRIN 17.169 0.80 P 
LBK 18.566 0.71 P 
GUMB 21.366 0.54 P 
BJES 8.486 0.72 S 
KNEE 9.586 0.51 S 
B045 10.034 0.82 S 
KCR 10.386 0.60 S 
89462 10.966 0.85 S 
KMPB 11.779 0.65 S 
89781 11.876 0.83 S 
1586 12.546 0.79 S 
RBOW 12.586 0.62 S 
1580 12.606 0.82 S 
1581 12.676 0.83 S 
B935 12.694 0.82 S 
1584B 13.476 0.81 S 
1023 13.566 0.78 S 
KHMB 13.749 0.57 S 
KCSB 14.049 0.83 S 
B049 14.364 0.81 S 
KBU 14.526 0.62 S 
B046 15.084 0.84 S 
B047 15.174 0.84 S 
KPR 15.396 0.65 S 
PETL 16.326 0.53 S 
KMR 16.489 0.61 S 
KCO 16.589 0.81 S 
PRDS 18.000 0.56 S 
BRIC 18.656 0.63 S 
KHBB 18.679 0.61 S 
1591 18.836 0.81 S 
KRP 19.139 0.81 S 
89688 19.286 0.68 S 
KOM 24.369 0.82 S 
79046 25.886 0.75 S 
SCOT 33.989 0.58 S 
GUMB 37.840 0.62 S 
# 2022 12 20 10 48 55.387 40.5927 -124.1394 20.052 2.720 0.143 0.143 0.519 39 
1586 4.483 0.85 P 
89462 4.603 0.87 P 
1023 4.793 0.87 P 
1581 5.003 0.83 P 
1584B 5.123 0.86 P 
89781 5.273 0.82 P 
KMPB 5.326 0.55 P 
KCT 5.366 0.83 P 
B045 5.491 0.85 P 
BJES 5.583 0.72 P 
KNEE 5.777 0.61 P 
RBOW 6.423 0.54 P 
1580 6.563 0.86 P 
DMOR 6.573 0.75 P 
KCR 7.033 0.64 P 
B046 7.161 0.86 P 
PETL 7.843 0.62 P 
B047 7.851 0.86 P 
KCO 8.066 0.88 P 
KPR 8.443 0.62 P 
KBU 9.073 0.62 P 
KHMB 9.076 0.81 P 
B049 9.181 0.84 P 
KTD 9.303 0.85 P 
B935 9.411 0.84 P 
PRDS 10.073 0.60 P 
KCSB 10.246 0.85 P 
KMR 10.706 0.63 P 
89688 10.783 0.81 P 
KRP 11.026 0.83 P 
1591 11.383 0.84 P 
BRIC 11.563 0.54 P 
HAYF 13.026 0.56 P 
KOM 15.306 0.67 P 
WEAV 16.233 0.80 P 
GNR 21.383 0.80 P 
GBL 23.283 0.63 P 
1586 8.423 0.76 S 
89462 8.513 0.82 S 
1023 9.193 0.82 S 
1584B 9.233 0.75 S 
1581 9.393 0.77 S 
KMPB 9.636 0.64 S 
89781 9.703 0.82 S 
B045 9.841 0.81 S 
BJES 10.033 0.59 S 
KCT 10.616 0.82 S 
KNEE 10.703 0.56 S 
RBOW 11.583 0.57 S 
1580 12.023 0.78 S 
KCR 12.593 0.63 S 
B046 12.641 0.81 S 
DMOR 13.053 0.82 S 
B047 13.871 0.78 S 
PETL 13.903 0.51 S 
KCO 14.276 0.81 S 
KPR 15.223 0.65 S 
KBU 16.183 0.61 S 
KHMB 16.346 0.62 S 
B049 16.411 0.77 S 
KTD 16.723 0.81 S 
B935 17.021 0.84 S 
PRDS 18.337 0.52 S 
KCSB 18.626 0.83 S 
KMR 19.066 0.64 S 
89688 19.233 0.82 S 
KRP 19.626 0.82 S 
BRIC 19.823 0.62 S 
1591 20.903 0.84 S 
HAYF 23.946 0.58 S 
B934 25.731 0.76 S 
79046 26.863 0.75 S 
KIP 30.443 0.70 S 
RVIT 30.623 0.66 S 
79298 34.013 0.52 S 
KBN 34.103 0.63 S 
GNR 40.283 0.70 S 
# 2022 12 20 10 49 10.256 40.5062 -124.4664 22.724 2.993 0.284 0.284 0.633 40 
KCT 5.087 0.67 P 
1584B 5.144 0.86 P 
B046 6.022 0.86 P 
PETL 6.164 0.82 P 
1586 6.804 0.88 P 
KCO 6.937 0.86 P 
KMPB 6.997 0.64 P 
89462 7.284 0.87 P 
RBOW 7.604 0.62 P 
B047 7.672 0.87 P 
B045 8.272 0.86 P 
KPR 9.344 0.65 P 
BJES 9.664 0.81 P 
PRDS 10.228 0.62 P 
89688 10.494 0.84 P 
KCR 10.534 0.62 P 
DMOR 10.774 0.75 P 
B049 11.102 0.84 P 
BRIC 12.194 0.73 P 
B935 13.042 0.84 P 
KCSB 13.947 0.79 P 
1584B 9.034 0.74 S 
KCT 9.167 0.67 S 
B046 10.512 0.81 S 
PETL 10.874 0.51 S 
1023 10.984 0.82 S 
KMPB 12.207 0.68 S 
1586 12.274 0.85 S 
KCO 12.307 0.84 S 
89462 12.994 0.79 S 
RBOW 13.184 0.55 S 
B047 13.452 0.76 S 
1581 13.584 0.84 S 
B045 14.362 0.83 S 
KPR 16.794 0.80 S 
PRDS 17.974 0.55 S 
89688 18.014 0.81 S 
KCR 18.504 0.77 S 
B049 19.592 0.79 S 
KHMB 20.117 0.60 S 
79046 29.714 0.55 S 
# 2022 12 20 10 49 42.781 40.5248 -124.0225 20.627 2.249 0.137 0.137 0.457 41 
B045 4.487 0.84 P 
89462 4.589 0.84 P 
KMPB 4.982 0.65 P 
BJES 5.329 0.80 P 
KCR 5.629 0.69 P 
RBOW 5.659 0.59 P 
1586 5.929 0.83 P 
KNEE 5.973 0.65 P 
1023 5.989 0.79 P 
1584B 6.009 0.84 P 
DMOR 6.129 0.59 P 
89781 6.639 0.85 P 
KCT 6.712 0.60 P 
1581 6.789 0.86 P 
B046 7.017 0.83 P 
B047 7.187 0.86 P 
KPR 7.389 0.64 P 
KBU 7.529 0.66 P 
B049 7.627 0.84 P 
KCO 7.722 0.84 P 
1580 7.849 0.83 P 
B935 7.977 0.87 P 
89688 8.849 0.80 P 
KCSB 8.932 0.83 P 
KHMB 9.102 0.65 P 
KMR 9.132 0.62 P 
PRDS 9.233 0.57 P 
1591 10.059 0.83 P 
BRIC 10.189 0.58 P 
KTD 10.609 0.82 P 
HAYF 11.760 0.56 P 
KHBB 12.032 0.55 P 
WEAV 14.629 0.63 P 
KIP 15.409 0.84 P 
B045 8.027 0.80 S 
89462 8.499 0.80 S 
KMPB 8.942 0.62 S 
KCR 9.989 0.59 S 
RBOW 10.099 0.57 S 
1584B 10.879 0.79 S 
1586 11.019 0.77 S 
1023 11.429 0.74 S 
KCT 11.762 0.64 S 
89781 12.069 0.78 S 
1581 12.159 0.80 S 
B046 12.367 0.78 S 
B047 12.597 0.80 S 
KPR 13.099 0.64 S 
B049 13.367 0.77 S 
KBU 13.369 0.61 S 
KCO 13.712 0.81 S 
PETL 13.789 0.50 S 
B935 14.467 0.80 S 
KCSB 15.602 0.78 S 
KMR 16.172 0.62 S 
PRDS 16.383 0.57 S 
KHMB 16.472 0.61 S 
BRIC 17.619 0.54 S 
89688 17.669 0.80 S 
KTD 18.149 0.76 S 
1591 18.269 0.80 S 
HAYF 20.482 0.55 S 
KHBB 22.352 0.77 S 
B934 24.187 0.80 S 
WEAV 26.299 0.63 S 
RVIT 27.489 0.79 S 
KIP 28.429 0.83 S 
LBK 37.549 0.63 S 
