# 2022 12 20 11 10 11.175 40.5251 -124.4069 16.343 2.671 0.124 0.124 0.559 91 
1584B.NP 4.055 0.99 P 
KCT.NC 4.268 0.57 P 
1586.NP 5.695 1.01 P 
B046.PB 5.963 0.99 P 
89462.CE 6.255 0.97 P 
KMPB.NC 6.318 0.59 P 
PETL.BK 6.325 0.43 P 
1581.NP 6.655 1.05 P 
RBOW.BK 7.055 0.42 P 
KCO.NC 7.158 0.99 P 
89781.CE 7.445 1.07 P 
BJES.BK 8.795 0.90 P 
KPR.NC 9.075 0.56 P 
PRDS.BK 9.385 0.44 P 
KCR.NC 9.835 0.56 P 
89688.CE 10.695 0.84 P 
KBU.NC 10.855 0.54 P 
B049.PB 11.003 0.93 P 
KTD.NC 11.155 0.82 P 
BRIC.BK 12.155 0.59 P 
B935.PB 12.563 0.86 P 
KMR.NC 12.748 0.90 P 
KRP.NC 13.028 0.85 P 
1591.NP 13.075 0.90 P 
KCSB.NC 13.408 0.89 P 
HAYF.BK 16.198 0.84 P 
79046.CE 16.355 0.89 P 
KHBB.NC 16.438 0.86 P 
KBN.NC 20.335 0.82 P 
PETY.BK 22.276 0.35 P 
DCMP.BK 22.358 0.47 P 
TRIN.BK 22.558 1.07 P 
LBK.NC 24.225 1.03 P 
GBL.NC 24.275 0.89 P 
SCOT.BK 24.388 0.66 P 
GWR.NC 25.335 0.50 P 
GHO.NC 25.735 0.98 P 
GUMB.BK 26.629 0.48 P 
1584B.NP 7.085 0.87 S 
KCT.NC 7.718 0.67 S 
1023.NP 8.825 0.80 S 
1586.NP 10.385 0.92 S 
B046.PB 10.403 0.88 S 
KMPB.NC 10.998 0.55 S 
PETL.BK 11.085 0.51 S 
89462.CE 11.225 0.91 S 
1581.NP 12.115 0.94 S 
RBOW.BK 12.285 0.41 S 
KCO.NC 12.478 0.91 S 
89781.CE 13.305 0.94 S 
1580.NP 15.385 0.71 S 
BJES.BK 16.025 0.76 S 
KPR.NC 16.235 0.60 S 
KCR.NC 17.755 0.61 S 
89688.CE 18.755 0.49 S 
DMOR.BK 19.315 0.64 S 
B049.PB 19.483 0.84 S 
KBU.NC 19.675 0.63 S 
KTD.NC 19.915 0.87 S 
KHMB.NC 21.558 0.38 S 
BRIC.BK 21.695 0.46 S 
KMR.NC 22.398 0.47 S 
B935.PB 22.463 0.94 S 
1591.NP 23.065 0.96 S 
KCSB.NC 23.998 0.94 S 
B934.PB 27.283 0.84 S 
79046.CE 27.825 0.92 S 
KHBB.NC 28.998 0.53 S 
KOM.NC 31.078 0.76 S 
KIP.NC 31.675 0.75 S 
RVIT.BK 34.435 0.86 S 
KFP.NC 34.665 0.35 S 
79298.CE 37.515 0.56 S 
KBN.NC 37.675 0.80 S 
MNDO.BK 37.735 0.77 S 
GNR.NC 40.635 0.73 S 
GBL.NC 42.075 0.51 S 
SCOT.BK 42.218 0.53 S 
LBK.NC 42.755 0.90 S 
GHO.NC 45.115 0.69 S 
GUMB.BK 47.005 0.59 S 
# 2022 12 20 11 11 10.003 40.4887 -124.2427 15.151 1.243 0.232 0.232 1.080 92 
1584B.NP 2.287 0.83 P 
89462.CE 3.017 0.83 P 
KCT.NC 4.520 0.55 P 
KMR.NC 9.520 0.67 P 
1584B.NP 6.807 0.86 S 
89462.CE 6.957 0.82 S 
KCT.NC 7.810 0.53 S 
B046.PB 8.165 0.73 S 
PETL.BK 9.847 0.37 S 
1586.NP 9.887 0.35 S 
KMR.NC 18.450 0.63 S 
B049.PB 18.805 0.53 S 
BRIC.BK 19.007 0.42 S 
# 2022 12 20 11 11 15.046 40.4399 -123.9837 32.535 1.571 0.484 0.484 0.526 93 
89462.CE 5.954 0.57 P 
KCR.NC 6.024 0.40 P 
KPR.NC 6.044 0.48 P 
PRDS.BK 8.058 0.35 P 
KHBB.NC 11.887 0.56 P 
HAYF.BK 11.975 0.39 P 
WEAV.BK 15.194 0.37 P 
89462.CE 10.244 0.50 S 
RBOW.BK 11.884 0.42 S 
B935.PB 13.622 0.34 S 
HAYF.BK 19.977 0.33 S 
KHBB.NC 21.217 0.55 S 
# 2022 12 20 11 11 32.131 40.3834 -124.1716 16.272 0.888 0.292 0.292 0.589 94 
KMPB.NC 3.142 0.63 P 
B046.PB 3.527 0.71 P 
RBOW.BK 3.789 0.58 P 
PETL.BK 4.119 0.44 P 
KBU.NC 7.819 0.39 P 
B049.PB 7.987 0.46 P 
B046.PB 6.937 0.69 S 
89462.CE 8.049 0.63 S 
KCO.NC 9.202 0.64 S 
PRDS.BK 11.659 0.52 S 
KBU.NC 11.709 0.38 S 
# 2022 12 20 11 11 48.363 40.6384 -124.3246 12.116 1.625 0.295 0.295 1.021 95 
KCT.NC 5.680 0.45 P 
B046.PB 5.725 0.47 P 
PETL.BK 6.597 0.34 P 
KMPB.NC 7.120 0.48 P 
B935.PB 13.255 0.53 P 
1586.NP 5.047 0.34 S 
1584B.NP 8.037 0.65 S 
KCT.NC 8.890 0.45 S 
KMPB.NC 11.210 0.36 S 
KCR.NC 17.347 0.34 S 
# 2022 12 20 11 11 52.667 40.4649 -124.1944 -0.921 0.302 0.469 0.469 1.155 96 
B046.PB 3.111 0.38 P 
RBOW.BK 3.563 0.37 P 
KPR.NC 6.003 0.50 P 
PRDS.BK 8.823 0.67 P 
KBU.NC 9.703 0.75 P 
B049.PB 9.711 0.75 P 
89688.CE 9.773 0.79 P 
KMR.NC 12.426 0.65 P 
B046.PB 7.221 0.74 S 
KCO.NC 9.336 0.62 S 
KPR.NC 12.223 0.43 S 
KCR.NC 13.323 0.47 S 
B049.PB 15.381 0.67 S 
KBU.NC 15.503 0.49 S 
89688.CE 15.693 0.61 S 
BRIC.BK 18.023 0.45 S 
B935.PB 18.171 0.59 S 
KMR.NC 18.546 0.72 S 
1591.NP 19.643 0.51 S 
B934.PB 30.751 0.36 S 
# 2022 12 20 11 12 4.852 40.5116 -124.3244 14.629 1.378 0.228 0.228 0.392 97 
1584B.NP 3.458 0.71 P 
KCT.NC 3.491 0.61 P 
B046.PB 5.226 0.95 P 
KMPB.NC 5.271 0.61 P 
PETL.BK 5.718 0.90 P 
RBOW.BK 5.948 0.61 P 
KCO.NC 6.361 0.90 P 
KPR.NC 8.118 0.89 P 
KCR.NC 8.598 0.74 P 
PRDS.BK 9.638 0.51 P 
KBU.NC 9.878 0.59 P 
B049.PB 9.916 0.84 P 
BRIC.BK 11.438 0.86 P 
B934.PB 16.446 0.54 P 
1584B.NP 5.868 0.71 S 
KCT.NC 6.571 0.50 S 
KMPB.NC 9.471 0.51 S 
B046.PB 9.486 0.89 S 
PETL.BK 10.298 0.51 S 
RBOW.BK 10.788 0.47 S 
KCO.NC 11.481 0.90 S 
KPR.NC 14.798 0.54 S 
PRDS.BK 17.438 0.50 S 
KBU.NC 17.758 0.57 S 
89688.CE 17.948 0.79 S 
B049.PB 17.976 0.80 S 
1591.NP 22.148 0.59 S 
# 2022 12 20 11 12 32.241 40.6087 -124.0578 16.667 2.035 0.123 0.123 0.400 98 
89462.CE 4.399 0.95 P 
1586.NP 4.609 0.78 P 
BJES.BK 4.659 0.81 P 
1023.NP 4.789 0.76 P 
KNEE.BK 4.923 0.76 P 
1581.NP 4.999 0.89 P 
89781.CE 5.009 0.93 P 
KMPB.NC 5.452 0.61 P 
DMOR.BK 5.659 0.46 P 
1580.NP 6.349 0.92 P 
KCR.NC 6.469 0.63 P 
RBOW.BK 6.659 0.43 P 
B046.PB 7.697 0.86 P 
KHMB.NC 8.322 0.60 P 
PETL.BK 8.429 0.71 P 
KCO.NC 8.582 0.89 P 
KPR.NC 8.599 0.82 P 
B935.PB 8.757 0.90 P 
KBU.NC 8.939 0.55 P 
B049.PB 9.037 0.89 P 
KTD.NC 9.209 0.76 P 
KCSB.NC 9.692 0.89 P 
KMR.NC 10.472 0.47 P 
PRDS.BK 10.569 0.50 P 
KRP.NC 10.952 0.91 P 
BRIC.BK 11.639 0.41 P 
99700.CE 12.349 0.81 P 
KHBB.NC 12.702 0.55 P 
HAYF.BK 12.732 0.43 P 
B934.PB 14.737 0.65 P 
WEAV.BK 15.509 0.59 P 
TRIN.BK 19.882 0.89 P 
89462.CE 8.159 0.89 S 
BJES.BK 8.489 0.51 S 
1586.NP 8.739 0.82 S 
KNEE.BK 9.089 0.42 S 
89781.CE 9.099 0.86 S 
1581.NP 9.299 0.83 S 
KMPB.NC 9.852 0.53 S 
1023.NP 9.889 0.86 S 
1584B.NP 10.339 0.81 S 
DMOR.BK 11.119 0.78 S 
1580.NP 11.329 0.84 S 
KCR.NC 11.539 0.56 S 
KCT.NC 11.602 0.76 S 
RBOW.BK 11.899 0.45 S 
B046.PB 13.777 0.77 S 
PETL.BK 14.989 0.42 S 
KHMB.NC 15.052 0.53 S 
B935.PB 15.437 0.78 S 
KCO.NC 15.692 0.82 S 
KBU.NC 15.769 0.61 S 
KPR.NC 15.899 0.55 S 
B049.PB 15.987 0.84 S 
KCSB.NC 17.482 0.72 S 
KMR.NC 18.692 0.58 S 
PRDS.BK 19.009 0.46 S 
KRP.NC 19.652 0.83 S 
BRIC.BK 20.399 0.39 S 
89688.CE 20.419 0.40 S 
HAYF.BK 22.452 0.36 S 
KHBB.NC 22.502 0.53 S 
B934.PB 26.557 0.39 S 
WEAV.BK 27.129 0.52 S 
KFP.NC 33.759 0.55 S 
LBK.NC 36.549 0.68 S 
SCOT.BK 37.602 0.37 S 
GUMB.BK 40.959 0.38 S 
# 2022 12 20 11 12 47.952 40.5074 -124.0123 27.165 2.297 0.291 0.291 0.878 99 
BJES.BK 3.728 0.60 P 
89462.CE 4.128 0.85 P 
KMPB.NC 4.851 0.33 P 
KNEE.BK 6.098 0.72 P 
KCR.NC 6.468 0.35 P 
PETL.BK 6.578 0.40 P 
1584B.NP 6.718 0.89 P 
89781.CE 7.128 0.94 P 
1581.NP 7.488 0.98 P 
1580.NP 7.958 0.97 P 
KHMB.NC 8.561 0.42 P 
B935.PB 8.826 0.67 P 
KCSB.NC 9.571 0.93 P 
89688.CE 9.618 0.57 P 
KHBB.NC 12.301 0.57 P 
HAYF.BK 12.609 0.42 P 
WEAV.BK 15.138 0.35 P 
TRIN.BK 20.201 0.54 P 
BJES.BK 10.098 0.63 S 
89781.CE 12.068 0.73 S 
1586.NP 12.968 0.62 S 
1581.NP 12.978 0.77 S 
1580.NP 13.218 0.71 S 
KCSB.NC 16.131 0.91 S 
HAYF.BK 18.501 0.33 S 
KHBB.NC 20.681 0.56 S 
LBK.NC 33.878 0.41 S 
# 2022 12 20 11 13 5.121 40.5507 -124.2296 21.988 2.118 0.181 0.181 0.434 100 
1586.NP 4.769 1.00 P 
KCT.NC 4.952 0.69 P 
89462.CE 4.999 1.07 P 
KMPB.NC 5.362 0.67 P 
89781.CE 5.979 1.03 P 
RBOW.BK 6.189 0.49 P 
B046.PB 6.207 1.00 P 
BJES.BK 6.669 0.36 P 
PETL.BK 6.809 0.49 P 
KCO.NC 7.172 0.98 P 
KNEE.BK 7.189 0.55 P 
KCR.NC 7.809 0.66 P 
DMOR.BK 7.919 0.51 P 
KPR.NC 8.029 0.68 P 
KBU.NC 9.009 0.63 P 
B049.PB 9.317 0.84 P 
PRDS.BK 9.819 0.92 P 
KRP.NC 11.652 0.44 P 
BRIC.BK 11.809 0.74 P 
KHBB.NC 14.172 0.60 P 
LSF.NC 20.569 0.36 P 
LBK.NC 21.869 0.96 P 
SCOT.BK 22.440 0.43 P 
1584B.NP 7.819 0.96 S 
1023.NP 8.659 0.93 S 
KCT.NC 8.852 0.51 S 
1586.NP 8.969 0.89 S 
89462.CE 9.259 0.96 S 
KMPB.NC 9.552 0.49 S 
1581.NP 10.199 0.92 S 
89781.CE 10.899 0.92 S 
B046.PB 10.977 0.85 S 
RBOW.BK 11.009 0.42 S 
PETL.BK 12.009 0.46 S 
BJES.BK 12.159 0.88 S 
KCO.NC 12.702 0.92 S 
KNEE.BK 13.009 0.41 S 
1580.NP 13.609 0.34 S 
KCR.NC 13.969 0.61 S 
KPR.NC 14.289 0.58 S 
DMOR.BK 15.269 0.77 S 
KBU.NC 16.529 0.63 S 
B049.PB 16.617 0.90 S 
PRDS.BK 17.013 0.35 S 
89688.CE 17.809 0.92 S 
KHMB.NC 17.892 0.34 S 
KMR.NC 19.252 0.45 S 
BRIC.BK 19.329 0.46 S 
KRP.NC 20.762 0.51 S 
KHBB.NC 24.962 0.79 S 
79046.CE 26.609 0.40 S 
LBK.NC 38.629 0.81 S 
SCOT.BK 39.172 0.35 S 
GUMB.BK 42.879 0.33 S 
# 2022 12 20 11 13 16.709 40.6437 -123.8705 13.980 1.682 0.202 0.202 0.772 101 
BJES.BK 3.491 0.87 P 
DMOR.BK 3.661 0.84 P 
1581.NP 5.761 0.82 P 
1586.NP 5.781 0.76 P 
KHMB.NC 6.264 0.49 P 
KCSB.NC 6.424 0.87 P 
1023.NP 8.051 0.76 P 
KPR.NC 11.691 0.47 P 
PRDS.BK 12.255 0.35 P 
BJES.BK 7.341 0.84 S 
DMOR.BK 8.061 0.51 S 
KCR.NC 8.981 0.82 S 
89781.CE 10.981 0.72 S 
B935.PB 11.069 0.70 S 
1586.NP 11.701 0.78 S 
1581.NP 11.851 0.75 S 
KHMB.NC 12.304 0.50 S 
KCSB.NC 12.464 0.83 S 
KPR.NC 18.761 0.39 S 
PRDS.BK 20.845 0.35 S 
# 2022 12 20 11 13 43.216 40.5407 -124.2220 19.162 1.714 0.181 0.181 0.592 102 
RBOW.BK 5.844 0.57 P 
B046.PB 5.942 0.99 P 
89781.CE 6.254 0.97 P 
PETL.BK 6.614 0.47 P 
KCO.NC 6.947 0.93 P 
KNEE.BK 7.068 0.53 P 
KCR.NC 7.544 0.71 P 
KPR.NC 7.904 0.69 P 
DMOR.BK 7.914 0.89 P 
KBU.NC 9.074 0.60 P 
B049.PB 9.342 0.98 P 
PRDS.BK 9.664 0.45 P 
KHMB.NC 10.417 0.39 P 
KMR.NC 10.917 0.51 P 
BRIC.BK 11.224 0.53 P 
1584B.NP 7.424 0.74 S 
1023.NP 7.994 0.82 S 
89462.CE 8.434 0.74 S 
1586.NP 8.434 0.65 S 
1581.NP 10.234 0.81 S 
RBOW.BK 10.374 0.35 S 
B046.PB 10.562 0.91 S 
89781.CE 11.064 0.91 S 
PETL.BK 11.644 0.48 S 
BJES.BK 11.904 0.97 S 
KCO.NC 12.367 0.82 S 
KNEE.BK 13.194 0.57 S 
KCR.NC 13.474 0.61 S 
KPR.NC 14.194 0.59 S 
DMOR.BK 15.694 0.92 S 
B049.PB 16.542 0.94 S 
KBU.NC 16.914 0.60 S 
B935.PB 17.082 0.85 S 
PRDS.BK 17.204 0.50 S 
89688.CE 17.674 0.94 S 
KMR.NC 19.377 0.66 S 
BRIC.BK 19.734 0.64 S 
1591.NP 20.914 0.73 S 
HAYF.BK 26.135 0.36 S 
# 2022 12 20 11 14 0.734 40.5161 -124.3419 16.742 1.718 0.149 0.149 0.610 103 
1584B.NP 3.826 0.63 P 
KCT.NC 3.989 0.53 P 
1586.NP 5.096 0.76 P 
KMPB.NC 5.499 0.60 P 
B046.PB 5.634 0.93 P 
PETL.BK 6.116 0.84 P 
RBOW.BK 6.296 0.51 P 
KCO.NC 6.689 0.75 P 
89781.CE 6.916 0.81 P 
KCR.NC 7.756 0.35 P 
KPR.NC 8.346 0.48 P 
KNEE.BK 8.436 0.55 P 
KBU.NC 8.976 0.73 P 
PRDS.BK 9.136 0.77 P 
DMOR.BK 9.406 0.36 P 
89688.CE 10.416 0.84 P 
KHMB.NC 11.739 0.65 P 
BRIC.BK 11.916 0.39 P 
KCT.NC 6.189 0.49 S 
1584B.NP 6.356 0.62 S 
1023.NP 7.916 0.66 S 
1586.NP 9.416 0.77 S 
KMPB.NC 9.779 0.57 S 
B046.PB 9.844 0.83 S 
89462.CE 9.876 0.74 S 
PETL.BK 10.666 0.39 S 
RBOW.BK 11.226 0.38 S 
1581.NP 11.396 0.82 S 
KCO.NC 11.849 0.69 S 
BJES.BK 14.156 0.52 S 
KPR.NC 15.346 0.66 S 
KCR.NC 15.716 0.64 S 
PRDS.BK 16.846 0.49 S 
KBU.NC 16.996 0.76 S 
DMOR.BK 18.036 0.75 S 
B049.PB 18.164 0.68 S 
89688.CE 18.346 0.77 S 
B935.PB 20.914 0.68 S 
KMR.NC 21.199 0.69 S 
1591.NP 21.896 0.77 S 
HAYF.BK 28.439 0.42 S 
KHBB.NC 29.399 0.76 S 
# 2022 12 20 11 14 11.314 40.4831 -124.5859 33.472 2.191 1.035 1.035 0.974 104 
KCT.NC 6.759 0.37 P 
KPR.NC 9.686 0.40 P 
KBU.NC 9.846 0.40 P 
PRDS.BK 11.510 0.33 P 
KCR.NC 18.766 0.44 S 
KBU.NC 21.206 0.38 S 
KMR.NC 24.059 0.33 S 
HAYF.BK 31.307 0.37 S 
KHBB.NC 32.219 0.45 S 
# 2022 12 20 11 14 13.862 40.5350 -124.3666 16.945 1.928 0.155 0.155 0.571 105 
1584B.NP 3.818 0.96 P 
KCT.NC 4.201 0.62 P 
1586.NP 5.218 1.02 P 
1581.NP 5.608 0.94 P 
KMPB.NC 5.741 0.60 P 
89781.CE 5.788 0.79 P 
B046.PB 5.886 0.99 P 
PETL.BK 6.288 0.96 P 
KCO.NC 6.831 1.01 P 
BJES.BK 8.148 0.89 P 
KNEE.BK 8.728 0.39 P 
KPR.NC 8.808 0.48 P 
PRDS.BK 9.008 0.46 P 
DMOR.BK 9.588 0.83 P 
KCR.NC 9.868 0.57 P 
KBU.NC 10.388 0.81 P 
89688.CE 10.608 0.87 P 
KHMB.NC 11.911 0.47 P 
B935.PB 12.026 0.91 P 
BRIC.BK 12.218 0.51 P 
1591.NP 12.808 0.95 P 
HAYF.BK 15.151 0.53 P 
WEAV.BK 19.228 0.42 P 
1584B.NP 6.518 0.90 S 
KCT.NC 7.341 0.65 S 
1023.NP 8.078 0.90 S 
1586.NP 9.588 0.96 S 
KMPB.NC 9.951 0.55 S 
89462.CE 10.108 0.73 S 
B046.PB 10.156 0.89 S 
1581.NP 11.148 0.97 S 
KCO.NC 12.231 0.92 S 
89781.CE 12.628 0.90 S 
BJES.BK 14.388 0.91 S 
KNEE.BK 15.548 0.69 S 
KPR.NC 15.748 0.86 S 
KCR.NC 16.328 0.67 S 
DMOR.BK 18.348 0.94 S 
KBU.NC 18.428 0.59 S 
B049.PB 18.476 0.85 S 
89688.CE 18.658 0.95 S 
BRIC.BK 21.108 0.52 S 
KMR.NC 21.501 0.44 S 
B935.PB 21.626 0.91 S 
1591.NP 22.588 0.95 S 
HAYF.BK 28.751 0.54 S 
# 2022 12 20 11 14 38.017 40.5138 -124.4033 14.652 2.112 0.158 0.158 0.549 106 
1584B.NP 3.763 0.88 P 
1023.NP 5.183 0.85 P 
1586.NP 5.633 0.82 P 
B046.PB 5.891 0.88 P 
PETL.BK 6.223 0.41 P 
89462.CE 6.233 0.77 P 
KMPB.NC 6.256 0.51 P 
1581.NP 6.663 0.74 P 
RBOW.BK 6.963 0.40 P 
KCO.NC 7.046 0.83 P 
89781.CE 7.513 0.75 P 
KPR.NC 9.393 0.69 P 
KCR.NC 9.863 0.42 P 
PRDS.BK 10.183 0.39 P 
89688.CE 10.503 0.77 P 
KBU.NC 10.823 0.68 P 
BRIC.BK 12.473 0.69 P 
KCT.NC 4.636 0.45 S 
1584B.NP 6.953 0.88 S 
1023.NP 8.723 0.84 S 
B046.PB 10.161 0.79 S 
1586.NP 10.313 0.70 S 
PETL.BK 10.883 0.48 S 
KMPB.NC 10.956 0.56 S 
1581.NP 12.153 0.63 S 
RBOW.BK 12.193 0.42 S 
KCO.NC 12.306 0.60 S 
89781.CE 13.443 0.68 S 
KPR.NC 16.973 0.75 S 
KCR.NC 17.623 0.57 S 
PRDS.BK 18.253 0.45 S 
89688.CE 18.513 0.71 S 
KBU.NC 19.183 0.41 S 
B049.PB 19.391 0.42 S 
B934.PB 27.401 0.36 S 
79046.CE 27.873 0.33 S 
# 2022 12 20 11 14 51.269 40.5401 -124.2682 20.301 2.147 0.172 0.172 0.479 107 
KCT.NC 4.494 0.91 P 
1586.NP 4.641 0.84 P 
89462.CE 4.891 0.92 P 
KMPB.NC 5.224 0.73 P 
89781.CE 6.071 0.97 P 
B046.PB 6.079 1.01 P 
RBOW.BK 6.151 0.61 P 
PETL.BK 6.761 0.55 P 
BJES.BK 6.841 0.90 P 
KCO.NC 7.104 1.04 P 
KNEE.BK 7.445 0.93 P 
KCR.NC 7.981 0.67 P 
KPR.NC 8.281 0.65 P 
KBU.NC 9.411 0.54 P 
B049.PB 9.619 1.00 P 
PRDS.BK 9.655 0.57 P 
89688.CE 10.221 0.93 P 
KMR.NC 11.084 0.83 P 
KHBB.NC 14.524 0.42 P 
79046.CE 14.531 0.66 P 
1584B.NP 7.241 0.41 S 
1023.NP 8.351 0.55 S 
KCT.NC 8.484 0.68 S 
1586.NP 8.751 0.90 S 
89462.CE 9.071 0.92 S 
KMPB.NC 9.314 0.42 S 
1581.NP 10.431 0.60 S 
B046.PB 10.769 0.95 S 
RBOW.BK 10.851 0.36 S 
89781.CE 11.191 0.93 S 
PETL.BK 11.831 0.38 S 
KCO.NC 12.654 0.95 S 
KNEE.BK 13.415 0.36 S 
KCR.NC 14.491 0.61 S 
KPR.NC 14.501 0.65 S 
DMOR.BK 15.661 0.63 S 
KBU.NC 16.921 0.67 S 
B049.PB 17.039 0.89 S 
PRDS.BK 17.335 0.44 S 
89688.CE 17.851 0.92 S 
KHMB.NC 19.024 0.45 S 
KMR.NC 19.604 0.71 S 
B935.PB 20.989 0.37 S 
KHBB.NC 25.104 0.75 S 
HAYF.BK 26.552 0.46 S 
# 2022 12 20 11 15 26.014 40.4762 -124.3903 19.256 1.217 0.279 0.279 0.680 108 
1584B.NP 3.946 0.86 P 
1023.NP 5.546 0.86 P 
KCO.NC 6.229 0.86 P 
1586.NP 7.156 0.83 P 
PRDS.BK 8.636 0.40 P 
89688.CE 9.116 0.46 P 
KCR.NC 9.996 0.80 P 
1584B.NP 7.146 0.84 S 
KCT.NC 8.419 0.89 S 
B046.PB 9.154 0.78 S 
1586.NP 10.056 0.37 S 
KMPB.NC 10.599 0.62 S 
KCO.NC 11.859 0.66 S 
KCR.NC 17.016 0.46 S 
# 2022 12 20 11 16 3.354 40.6173 -124.0449 21.496 1.908 0.204 0.204 0.671 109 
KNEE.BK 4.870 0.93 P 
1586.NP 5.016 0.56 P 
89462.CE 5.046 0.98 P 
89781.CE 5.046 1.01 P 
1584B.NP 5.076 0.75 P 
1581.NP 5.156 1.00 P 
KMPB.NC 5.219 0.39 P 
KCT.NC 5.979 0.40 P 
BJES.BK 6.636 0.91 P 
1023.NP 6.726 0.94 P 
KCR.NC 6.766 0.61 P 
RBOW.BK 6.976 0.47 P 
KHMB.NC 7.909 0.48 P 
B046.PB 7.964 0.98 P 
B935.PB 8.524 0.96 P 
PETL.BK 8.536 0.67 P 
KPR.NC 8.846 0.96 P 
KBU.NC 8.896 0.53 P 
BRIC.BK 8.936 0.40 P 
B049.PB 8.994 0.93 P 
KMR.NC 10.359 0.59 P 
1591.NP 10.516 0.81 P 
HAYF.BK 12.529 0.69 P 
89688.CE 12.916 0.35 P 
LBK.NC 19.646 0.59 P 
89462.CE 8.856 0.92 S 
BJES.BK 9.226 0.52 S 
89781.CE 9.386 0.91 S 
1586.NP 9.536 0.92 S 
1581.NP 9.786 0.90 S 
1023.NP 10.836 0.88 S 
KMPB.NC 10.859 0.50 S 
DMOR.BK 11.016 0.67 S 
KCR.NC 11.886 0.52 S 
RBOW.BK 12.556 0.45 S 
B046.PB 14.264 0.89 S 
KHMB.NC 14.419 0.68 S 
B935.PB 15.544 0.93 S 
KPR.NC 15.686 0.47 S 
B049.PB 16.034 0.78 S 
KBU.NC 16.096 0.67 S 
PRDS.BK 16.736 0.41 S 
KCSB.NC 17.059 0.78 S 
KMR.NC 18.619 0.54 S 
KRP.NC 19.069 0.33 S 
1591.NP 20.776 0.52 S 
KHBB.NC 20.799 0.41 S 
HAYF.BK 21.859 0.33 S 
# 2022 12 20 11 16 24.420 40.5763 -124.1278 20.328 1.698 0.195 0.195 0.333 110 
1586.NP 4.460 1.03 P 
1023.NP 4.630 1.03 P 
1581.NP 5.040 1.00 P 
89781.CE 5.380 1.01 P 
KMPB.NC 5.613 0.73 P 
KNEE.BK 5.954 0.69 P 
RBOW.BK 6.070 0.55 P 
B046.PB 6.698 1.02 P 
KCR.NC 7.050 0.66 P 
KCO.NC 7.633 0.93 P 
KPR.NC 8.060 0.68 P 
KBU.NC 8.700 0.65 P 
B049.PB 8.778 0.89 P 
KHMB.NC 9.173 0.69 P 
B935.PB 9.188 0.91 P 
PRDS.BK 9.824 0.74 P 
KMR.NC 10.323 0.66 P 
BRIC.BK 11.070 0.50 P 
WEAV.BK 15.740 0.38 P 
89462.CE 8.170 0.69 S 
1586.NP 8.520 0.97 S 
1023.NP 9.040 0.76 S 
KMPB.NC 9.143 0.56 S 
BJES.BK 9.340 0.76 S 
1581.NP 9.620 0.80 S 
89781.CE 10.040 0.90 S 
KNEE.BK 10.870 0.37 S 
B046.PB 12.008 0.94 S 
KCR.NC 12.830 0.49 S 
KCO.NC 13.623 0.90 S 
KPR.NC 14.710 0.53 S 
B049.PB 15.748 0.81 S 
KBU.NC 15.780 0.52 S 
KHMB.NC 16.593 0.60 S 
B935.PB 16.998 0.93 S 
KMR.NC 18.553 0.52 S 
BRIC.BK 19.510 0.48 S 
KRP.NC 19.703 0.73 S 
# 2022 12 20 11 16 53.812 40.5473 -123.9563 20.445 1.838 0.158 0.158 0.414 111 
KNEE.BK 5.232 0.89 P 
KCR.NC 5.258 0.63 P 
RBOW.BK 6.378 0.47 P 
89781.CE 6.508 0.91 P 
1581.NP 6.578 0.92 P 
B935.PB 7.166 1.00 P 
KBU.NC 7.558 0.49 P 
B049.PB 7.606 1.00 P 
B046.PB 7.736 0.70 P 
KPR.NC 7.998 0.99 P 
KHMB.NC 8.311 0.62 P 
KCO.NC 8.581 0.97 P 
KMR.NC 8.841 0.56 P 
PRDS.BK 9.588 0.43 P 
89688.CE 9.938 0.67 P 
1591.NP 10.068 0.91 P 
BRIC.BK 10.518 0.39 P 
HAYF.BK 11.301 0.45 P 
KHBB.NC 11.481 0.58 P 
KRP.NC 11.781 0.46 P 
B934.PB 14.086 0.83 P 
KFP.NC 17.618 0.52 P 
BJES.BK 7.638 0.89 S 
89462.CE 9.228 0.64 S 
KCR.NC 9.438 0.54 S 
KMPB.NC 10.171 0.45 S 
RBOW.BK 11.278 0.48 S 
1581.NP 12.348 0.75 S 
KBU.NC 12.608 0.50 S 
B935.PB 13.086 0.94 S 
B049.PB 13.496 0.85 S 
KPR.NC 13.758 0.84 S 
KCSB.NC 14.801 0.81 S 
KHMB.NC 14.911 0.63 S 
KMR.NC 15.921 0.62 S 
1591.NP 16.668 0.83 S 
PRDS.BK 17.208 0.54 S 
89688.CE 18.178 0.67 S 
BRIC.BK 18.398 0.41 S 
HAYF.BK 19.959 0.44 S 
KHBB.NC 20.271 0.62 S 
B934.PB 24.506 0.80 S 
WEAV.BK 25.398 0.47 S 
RVIT.BK 27.603 0.43 S 
# 2022 12 20 11 17 3.188 40.5044 -124.4350 14.752 1.789 0.157 0.157 0.483 112 
1584B.NP 3.092 0.85 P 
KCT.NC 4.205 0.61 P 
B046.PB 4.540 0.82 P 
1586.NP 6.082 0.95 P 
PETL.BK 6.242 0.44 P 
KMPB.NC 6.575 0.61 P 
89462.CE 6.612 0.97 P 
1581.NP 7.122 1.01 P 
KCO.NC 7.135 0.99 P 
RBOW.BK 7.232 0.66 P 
KPR.NC 9.182 0.62 P 
KCR.NC 10.262 0.63 P 
KBU.NC 11.062 0.62 P 
B049.PB 11.250 0.89 P 
1591.NP 13.702 0.91 P 
1584B.NP 7.382 0.95 S 
KCT.NC 7.625 0.68 S 
1023.NP 9.372 0.76 S 
B046.PB 10.080 0.84 S 
PETL.BK 10.732 0.54 S 
1586.NP 11.032 0.89 S 
KMPB.NC 11.275 0.61 S 
89462.CE 11.782 0.91 S 
KCO.NC 12.265 0.89 S 
RBOW.BK 12.662 0.35 S 
1581.NP 12.872 0.93 S 
89781.CE 14.442 0.83 S 
KPR.NC 16.032 0.62 S 
KCR.NC 18.072 0.60 S 
PRDS.BK 18.382 0.43 S 
89688.CE 18.652 0.62 S 
KBU.NC 19.692 0.61 S 
B049.PB 19.800 0.71 S 
BRIC.BK 21.782 0.42 S 
1591.NP 23.662 0.82 S 
79046.CE 28.062 0.62 S 
# 2022 12 20 11 17 25.423 40.6088 -124.0694 16.197 2.106 0.137 0.137 0.411 113 
89462.CE 4.147 0.99 P 
1586.NP 4.387 1.02 P 
BJES.BK 4.657 0.41 P 
1581.NP 4.827 1.03 P 
KNEE.BK 4.867 0.51 P 
89781.CE 4.977 1.06 P 
KMPB.NC 5.370 0.90 P 
DMOR.BK 5.907 0.42 P 
KCT.NC 6.240 0.62 P 
KCR.NC 6.437 0.61 P 
RBOW.BK 6.517 0.38 P 
B046.PB 7.655 1.01 P 
KCO.NC 8.460 1.03 P 
KHMB.NC 8.510 0.62 P 
KPR.NC 8.567 0.86 P 
B935.PB 8.855 1.01 P 
KBU.NC 8.937 0.60 P 
B049.PB 9.065 0.96 P 
KCSB.NC 9.810 1.02 P 
KMR.NC 10.480 0.62 P 
PRDS.BK 10.617 0.44 P 
BRIC.BK 11.667 0.49 P 
HAYF.BK 12.820 0.43 P 
KHBB.NC 12.850 0.46 P 
B934.PB 15.555 0.95 P 
KIP.NC 16.937 0.92 P 
TRIN.BK 18.630 0.49 P 
KFP.NC 18.847 0.69 P 
LBK.NC 20.607 0.75 P 
89462.CE 7.707 0.92 S 
BJES.BK 8.377 0.65 S 
1586.NP 8.407 0.91 S 
89781.CE 9.017 0.91 S 
KNEE.BK 9.067 0.58 S 
1581.NP 9.127 0.93 S 
KMPB.NC 9.520 0.55 S 
1023.NP 9.547 0.88 S 
1584B.NP 10.017 0.66 S 
KCT.NC 11.240 0.56 S 
KCR.NC 11.467 0.57 S 
RBOW.BK 11.897 0.70 S 
B046.PB 13.565 0.87 S 
KHMB.NC 15.070 0.60 S 
PETL.BK 15.417 0.39 S 
KCO.NC 15.550 0.92 S 
B935.PB 15.705 0.93 S 
KBU.NC 15.997 0.69 S 
B049.PB 16.085 0.85 S 
KPR.NC 16.887 0.43 S 
KCSB.NC 17.590 0.88 S 
KMR.NC 18.750 0.57 S 
PRDS.BK 19.037 0.49 S 
89688.CE 19.987 0.65 S 
BRIC.BK 20.457 0.39 S 
1591.NP 20.707 0.90 S 
KHBB.NC 23.060 0.89 S 
HAYF.BK 23.190 0.48 S 
B934.PB 26.705 0.97 S 
KFP.NC 34.207 0.63 S 
