# 2022 12 20 10 50 1.899 40.5854 -123.9061 22.237 1.802 0.172 0.172 0.480 42 
DMOR 4.561 0.55 P 
BJES 4.591 0.69 P 
B045 5.499 0.85 P 
KCR 5.611 0.66 P 
89462 5.771 0.83 P 
KMPB 6.404 0.66 P 
89781 6.461 0.88 P 
1586 6.661 0.85 P 
1581 6.751 0.86 P 
B935 6.899 0.82 P 
RBOW 7.131 0.59 P 
1584B 7.271 0.81 P 
KCSB 7.574 0.86 P 
KHMB 7.574 0.68 P 
B049 7.779 0.72 P 
1023 7.871 0.88 P 
KCT 8.024 0.77 P 
KBU 8.061 0.71 P 
B047 8.419 0.85 P 
B046 8.439 0.81 P 
KPR 8.561 0.67 P 
KMR 9.094 0.68 P 
HAYF 10.404 0.64 P 
KHBB 10.484 0.55 P 
WEAV 13.061 0.59 P 
BJES 7.671 0.62 S 
KNEE 9.551 0.60 S 
DMOR 9.601 0.59 S 
B045 9.869 0.84 S 
KCR 10.391 0.63 S 
89462 10.691 0.84 S 
KMPB 11.674 0.62 S 
89781 11.871 0.79 S 
1586 12.501 0.76 S 
B935 12.559 0.82 S 
1581 12.601 0.80 S 
RBOW 12.761 0.54 S 
1584B 13.061 0.80 S 
1023 13.491 0.82 S 
KHMB 13.714 0.61 S 
KCT 13.914 0.63 S 
KCSB 13.914 0.81 S 
B049 14.229 0.74 S 
KBU 14.391 0.55 S 
B046 15.029 0.83 S 
KPR 15.111 0.73 S 
B047 15.209 0.83 S 
PETL 16.271 0.69 S 
KMR 16.364 0.59 S 
1591 18.811 0.80 S 
89688 19.071 0.65 S 
BRIC 19.121 0.76 S 
KHBB 19.654 0.73 S 
WEAV 24.391 0.75 S 
# 2022 12 20 10 50 19.521 40.5340 -124.3093 16.620 2.061 0.180 0.180 0.335 43 
1584B 3.469 0.84 P 
KCT 3.932 0.86 P 
1586 4.479 0.85 P 
KMPB 5.252 0.84 P 
89462 5.369 0.88 P 
B046 5.837 0.84 P 
B045 6.177 0.66 P 
RBOW 6.209 0.60 P 
KCO 6.902 0.83 P 
B047 7.117 0.82 P 
KPR 8.489 0.62 P 
KCR 8.549 0.65 P 
KBU 9.909 0.66 P 
PRDS 9.983 0.61 P 
B049 10.017 0.75 P 
89688 10.349 0.81 P 
KMR 11.642 0.64 P 
1584B 6.259 0.74 S 
1023 7.409 0.88 S 
1586 8.619 0.84 S 
89462 9.209 0.85 S 
KMPB 9.232 0.84 S 
B046 10.387 0.81 S 
RBOW 10.929 0.55 S 
B045 11.017 0.75 S 
KCO 12.272 0.82 S 
B047 12.577 0.80 S 
BJES 13.359 0.78 S 
KPR 14.999 0.66 S 
KCR 15.489 0.61 S 
B049 17.977 0.83 S 
PRDS 18.043 0.54 S 
KBU 18.049 0.60 S 
89688 18.209 0.82 S 
BRIC 20.149 0.80 S 
KMR 20.992 0.67 S 
79046 27.879 0.54 S 
# 2022 12 20 10 50 55.418 40.7466 -124.0310 24.484 1.880 0.196 0.196 0.774 44 
1586 5.032 0.80 P 
89781 5.152 0.88 P 
1580 5.382 0.89 P 
DMOR 5.552 0.55 P 
1581 5.852 0.87 P 
1584B 6.332 0.83 P 
KHMB 6.935 0.64 P 
BJES 6.992 0.86 P 
KCT 7.035 0.50 P 
KTD 7.362 0.88 P 
KCR 7.732 0.60 P 
B045 8.200 0.78 P 
KMPB 8.715 0.66 P 
KRP 8.805 0.86 P 
B935 9.720 0.79 P 
B049 10.230 0.81 P 
KBU 10.322 0.50 P 
99700 10.332 0.79 P 
PETL 10.772 0.64 P 
KCO 11.185 0.74 P 
KHBB 12.035 0.73 P 
KMR 12.155 0.79 P 
BRIC 12.172 0.77 P 
HAYF 12.455 0.68 P 
KOM 12.735 0.82 P 
PRDS 13.262 0.50 P 
WEAV 14.392 0.58 P 
LBK 18.772 0.89 P 
SCOT 18.945 0.84 P 
1580 9.082 0.85 S 
89781 9.122 0.83 S 
1586 9.462 0.81 S 
89462 10.102 0.70 S 
DMOR 10.992 0.78 S 
KHMB 12.195 0.66 S 
KMPB 12.535 0.51 S 
KCR 15.322 0.61 S 
KRP 15.475 0.81 S 
B046 16.030 0.81 S 
PETL 16.882 0.54 S 
KCO 17.955 0.80 S 
RBOW 18.102 0.50 S 
B047 18.670 0.78 S 
89688 22.222 0.50 S 
1591 22.812 0.65 S 
WEAV 24.972 0.61 S 
B934 29.200 0.65 S 
SCOT 32.755 0.61 S 
LBK 33.032 0.80 S 
# 2022 12 20 10 51 20.615 40.5363 -123.8749 23.000 2.073 0.240 0.240 1.020 45 
B045 4.993 0.54 P 
KMPB 5.798 0.63 P 
RBOW 6.585 0.56 P 
B935 6.973 0.74 P 
KCSB 7.838 0.81 P 
B047 8.193 0.75 P 
KCO 8.408 0.61 P 
89781 9.255 0.73 P 
KHBB 10.628 0.63 P 
HAYF 10.716 0.57 P 
KOM 13.328 0.63 P 
TRIN 18.058 0.80 P 
LBK 18.425 0.76 P 
B045 9.283 0.71 S 
89462 9.595 0.68 S 
KCR 10.445 0.69 S 
KMPB 10.988 0.56 S 
RBOW 11.695 0.55 S 
KHMB 13.018 0.56 S 
89781 13.545 0.62 S 
KCSB 13.578 0.81 S 
KPR 13.615 0.64 S 
KCO 14.408 0.66 S 
B047 14.923 0.80 S 
1580 15.115 0.65 S 
KHBB 16.528 0.57 S 
PETL 19.255 0.52 S 
HAYF 19.298 0.58 S 
KTD 20.155 0.60 S 
# 2022 12 20 10 51 33.663 40.5253 -124.3183 16.887 2.566 0.134 0.134 0.483 46 
1584B 3.387 0.87 P 
KCT 3.880 0.62 P 
1023 3.937 0.91 P 
1586 4.807 0.90 P 
RBOW 4.867 0.62 P 
89462 5.177 0.88 P 
KMPB 5.280 0.63 P 
B046 5.615 0.88 P 
B045 6.415 0.75 P 
89781 6.667 0.90 P 
KCO 6.790 0.89 P 
PETL 7.217 0.52 P 
B047 7.395 0.89 P 
BJES 7.927 0.64 P 
KNEE 8.187 0.58 P 
KPR 8.437 0.66 P 
KCR 8.787 0.55 P 
KBU 9.957 0.66 P 
B049 10.115 0.82 P 
89688 10.297 0.85 P 
PRDS 10.347 0.84 P 
KHMB 11.470 0.55 P 
B935 11.475 0.81 P 
BRIC 11.727 0.52 P 
1591 12.297 0.85 P 
KCSB 12.510 0.75 P 
1584B 6.107 0.83 S 
KCT 7.060 0.73 S 
1023 7.747 0.86 S 
1586 9.177 0.82 S 
KMPB 9.440 0.66 S 
89462 9.507 0.84 S 
B046 9.875 0.80 S 
PETL 10.747 0.59 S 
1581 11.027 0.70 S 
B045 11.295 0.73 S 
KCO 11.960 0.84 S 
89781 12.257 0.85 S 
B047 12.315 0.79 S 
BJES 13.867 0.76 S 
1580 14.667 0.80 S 
KNEE 14.907 0.59 S 
KPR 15.487 0.64 S 
KCR 15.747 0.80 S 
PRDS 17.587 0.50 S 
DMOR 17.647 0.80 S 
89688 17.697 0.73 S 
KBU 17.827 0.68 S 
B049 18.065 0.83 S 
KHMB 20.570 0.63 S 
KMR 20.580 0.54 S 
BRIC 20.617 0.69 S 
B935 21.065 0.82 S 
1591 21.997 0.82 S 
KCSB 22.690 0.81 S 
79046 26.947 0.62 S 
# 2022 12 20 10 52 3.808 40.5940 -124.1431 23.154 2.513 0.175 0.175 0.621 47 
1584B 4.102 0.75 P 
89462 4.892 0.90 P 
1586 5.102 0.88 P 
KMPB 5.365 0.65 P 
1581 5.482 0.89 P 
B045 5.500 0.81 P 
89781 5.552 0.87 P 
1023 5.702 0.87 P 
KNEE 5.802 0.61 P 
BJES 5.822 0.82 P 
KCT 6.105 0.61 P 
RBOW 6.442 0.60 P 
1580 6.752 0.88 P 
KCR 7.092 0.69 P 
B046 7.130 0.86 P 
PETL 7.802 0.81 P 
KCO 7.965 0.86 P 
KPR 8.342 0.69 P 
KBU 8.832 0.54 P 
KHMB 8.945 0.71 P 
B935 9.310 0.87 P 
KTD 9.482 0.89 P 
B049 9.750 0.87 P 
PRDS 10.022 0.63 P 
KCSB 10.365 0.86 P 
KMR 11.125 0.85 P 
KRP 11.155 0.89 P 
BRIC 12.262 0.52 P 
KHBB 12.955 0.63 P 
HAYF 13.325 0.65 P 
KOM 15.365 0.80 P 
WEAV 15.492 0.85 P 
LBK 20.642 0.86 P 
89462 8.842 0.86 S 
1586 9.362 0.77 S 
B045 9.720 0.81 S 
KMPB 9.765 0.64 S 
89781 9.842 0.80 S 
1581 9.852 0.82 S 
1584B 9.872 0.78 S 
1023 9.992 0.73 S 
BJES 10.172 0.60 S 
KNEE 10.282 0.57 S 
RBOW 11.302 0.55 S 
KCT 11.345 0.82 S 
1580 11.682 0.83 S 
B046 12.490 0.82 S 
KCR 13.322 0.59 S 
B047 13.570 0.76 S 
PETL 13.712 0.68 S 
KCO 14.125 0.83 S 
KPR 14.832 0.60 S 
B049 15.630 0.69 S 
KHMB 15.845 0.61 S 
KBU 16.012 0.65 S 
KTD 16.082 0.82 S 
B935 16.860 0.82 S 
89688 17.242 0.71 S 
PRDS 17.712 0.51 S 
KCSB 18.365 0.83 S 
BRIC 19.372 0.74 S 
KRP 19.435 0.82 S 
KMR 19.645 0.64 S 
1591 21.442 0.54 S 
KHBB 22.965 0.65 S 
HAYF 23.195 0.57 S 
KOM 26.075 0.65 S 
79046 27.722 0.71 S 
PETY 35.815 0.52 S 
LBK 36.482 0.65 S 
# 2022 12 20 10 52 39.345 40.5764 -124.3379 20.279 3.142 0.139 0.139 0.448 48 
1584B 4.405 0.86 P 
1023 4.435 0.85 P 
1586 4.665 0.86 P 
1581 5.315 0.87 P 
89462 5.775 0.86 P 
89781 6.005 0.83 P 
KMPB 6.228 0.64 P 
B046 6.753 0.84 P 
B045 6.983 0.65 P 
RBOW 7.185 0.55 P 
PETL 7.305 0.60 P 
1580 7.555 0.82 P 
KCO 7.838 0.81 P 
BJES 7.945 0.62 P 
KNEE 7.965 0.66 P 
B047 8.063 0.81 P 
KCR 9.045 0.68 P 
KPR 9.215 0.68 P 
KTD 9.605 0.81 P 
KBU 10.615 0.64 P 
PRDS 10.735 0.60 P 
B049 10.763 0.78 P 
KHMB 10.948 0.63 P 
89688 11.075 0.80 P 
B935 11.503 0.77 P 
KRP 11.688 0.78 P 
KMR 12.188 0.65 P 
KCSB 12.318 0.80 P 
BRIC 12.375 0.50 P 
99700 12.865 0.76 P 
1591 13.005 0.84 P 
KHBB 15.228 0.63 P 
B934 15.913 0.83 P 
79046 16.385 0.79 P 
KOM 16.828 0.57 P 
RVIT 18.185 0.82 P 
KFP 19.605 0.72 P 
DCMP 21.698 0.61 P 
KRK 22.265 0.81 P 
LBK 22.605 0.84 P 
GNR 23.485 0.57 P 
LRB 24.625 0.61 P 
GVA 24.725 0.89 P 
GUMB 24.929 0.64 P 
GWR 25.125 0.80 P 
GCWB 27.385 0.83 P 
GHGB 29.808 0.81 P 
1584B 7.785 0.80 S 
1023 8.345 0.59 S 
KCT 8.588 0.66 S 
1586 8.595 0.67 S 
1581 9.945 0.75 S 
89462 10.465 0.73 S 
KMPB 10.758 0.61 S 
89781 10.875 0.84 S 
B046 11.783 0.81 S 
B045 12.273 0.80 S 
RBOW 12.495 0.57 S 
PETL 12.785 0.52 S 
1580 13.375 0.81 S 
KCO 13.508 0.81 S 
B047 13.993 0.80 S 
KCR 16.145 0.52 S 
KPR 16.165 0.56 S 
KTD 17.625 0.82 S 
KBU 18.815 0.79 S 
89688 18.845 0.79 S 
KHMB 18.948 0.64 S 
B049 19.033 0.81 S 
B935 20.453 0.82 S 
KRP 20.648 0.81 S 
KMR 21.288 0.69 S 
BRIC 21.335 0.60 S 
KCSB 22.188 0.74 S 
1591 22.825 0.77 S 
KHBB 26.908 0.60 S 
B934 27.073 0.80 S 
HAYF 27.978 0.51 S 
79046 28.095 0.80 S 
KOM 28.708 0.81 S 
79298 34.065 0.61 S 
KFP 34.365 0.74 S 
MNDO 37.345 0.77 S 
DCMP 37.916 0.50 S 
LBK 39.625 0.78 S 
SCOT 39.698 0.57 S 
GNR 40.935 0.66 S 
GHO 45.055 0.55 S 
# 2022 12 20 10 52 52.962 39.7545 -123.2363 15.730 2.609 0.343 0.343 1.318 49 
KIP 4.328 0.60 P 
KFP 5.248 0.61 P 
KBN 6.038 0.61 P 
GROB 10.208 0.77 P 
GBL 15.068 0.55 P 
GTSB 15.962 0.51 P 
GSR 16.728 0.77 P 
KIP 9.228 0.74 S 
KFP 10.478 0.78 S 
GROB 16.428 0.69 S 
GWR 19.308 0.67 S 
GCWB 22.208 0.58 S 
GHO 24.368 0.68 S 
GSR 27.668 0.65 S 
GBL 28.138 0.54 S 
# 2022 12 20 10 53 16.414 40.5238 -124.3576 15.834 3.188 0.124 0.124 0.473 50 
1584B 3.506 0.88 P 
KCT 3.909 0.66 P 
1023 4.106 0.91 P 
1586 5.106 0.88 P 
89462 5.576 0.88 P 
KMPB 5.629 0.63 P 
B046 5.724 0.89 P 
1581 6.076 0.87 P 
PETL 6.216 0.77 P 
RBOW 6.556 0.51 P 
B045 6.874 0.86 P 
KCO 6.939 0.88 P 
89781 6.976 0.88 P 
B047 7.344 0.88 P 
BJES 8.276 0.82 P 
1580 8.546 0.66 P 
KNEE 8.636 0.60 P 
KPR 8.746 0.63 P 
KCR 9.276 0.64 P 
DMOR 9.606 0.64 P 
PRDS 10.270 0.66 P 
KBU 10.396 0.63 P 
89688 10.516 0.83 P 
B049 10.544 0.85 P 
KTD 10.696 0.80 P 
KHMB 11.829 0.57 P 
B935 12.064 0.85 P 
BRIC 12.166 0.51 P 
KMR 12.259 0.63 P 
1591 12.636 0.83 P 
KCSB 12.999 0.84 P 
HAYF 15.759 0.85 P 
79046 15.786 0.84 P 
KHBB 15.999 0.60 P 
KOM 17.719 0.75 P 
LBK 23.696 0.78 P 
SCOT 23.979 0.63 P 
1584B 6.296 0.78 S 
KCT 7.029 0.68 S 
1023 7.956 0.83 S 
1586 9.556 0.81 S 
B046 10.004 0.79 S 
KMPB 10.029 0.67 S 
89462 10.156 0.82 S 
PETL 10.796 0.55 S 
RBOW 11.426 0.58 S 
1581 11.486 0.83 S 
B045 11.994 0.74 S 
KCO 12.209 0.83 S 
89781 12.646 0.84 S 
B047 12.654 0.69 S 
BJES 14.796 0.59 S 
1580 15.156 0.73 S 
KPR 15.306 0.67 S 
KNEE 15.696 0.56 S 
KCR 16.146 0.64 S 
PRDS 18.006 0.52 S 
DMOR 18.156 0.56 S 
89688 18.176 0.73 S 
KBU 18.516 0.68 S 
B049 18.684 0.81 S 
BRIC 21.046 0.61 S 
KMR 21.299 0.66 S 
KHMB 21.449 0.82 S 
B935 21.884 0.83 S 
1591 22.676 0.79 S 
KCSB 23.399 0.82 S 
79046 27.376 0.71 S 
B934 27.484 0.71 S 
HAYF 29.039 0.77 S 
KHBB 29.879 0.64 S 
# 2022 12 20 10 53 55.352 40.6037 -124.0670 17.931 0.932 0.149 0.149 0.658 51 
89462 4.348 0.81 P 
1586 4.548 0.81 P 
BJES 4.658 0.85 P 
1581 4.918 0.86 P 
89781 5.008 0.85 P 
B045 5.086 0.86 P 
KCR 6.408 0.69 P 
RBOW 6.698 0.63 P 
PETL 6.818 0.66 P 
KCO 7.621 0.81 P 
KPR 8.778 0.68 P 
B935 8.886 0.82 P 
KBU 9.028 0.64 P 
B049 9.096 0.81 P 
KCSB 9.721 0.82 P 
KMR 10.501 0.63 P 
PRDS 10.798 0.60 P 
KHBB 11.201 0.55 P 
89688 11.208 0.73 P 
BRIC 11.838 0.50 P 
HAYF 12.981 0.80 P 
89462 7.988 0.74 S 
BJES 8.388 0.80 S 
1586 8.718 0.76 S 
KNEE 8.888 0.53 S 
89781 9.048 0.80 S 
B045 9.176 0.80 S 
1581 9.368 0.80 S 
KMPB 9.801 0.67 S 
1023 10.008 0.77 S 
1584B 10.328 0.79 S 
DMOR 11.378 0.68 S 
KCR 11.568 0.62 S 
RBOW 12.028 0.53 S 
KCO 12.981 0.65 S 
B047 13.426 0.78 S 
B046 13.866 0.80 S 
KPR 15.258 0.62 S 
PETL 15.538 0.58 S 
B935 15.856 0.82 S 
B049 16.146 0.76 S 
KBU 16.218 0.64 S 
KCSB 17.291 0.83 S 
PRDS 18.698 0.57 S 
KMR 18.731 0.69 S 
89688 19.168 0.62 S 
KRP 20.091 0.55 S 
BRIC 20.608 0.60 S 
KHBB 22.781 0.72 S 
B934 26.846 0.59 S 
# 2022 12 20 10 54 11.505 40.6259 -124.2587 29.566 1.737 0.268 0.268 0.955 52 
89781 5.045 0.51 P 
1584B 5.525 0.75 P 
KCT 5.768 0.84 P 
1586 6.715 0.85 P 
B046 6.973 0.86 P 
B045 7.073 0.72 P 
PETL 7.275 0.83 P 
KMPB 7.348 0.64 P 
KCO 7.948 0.82 P 
KCR 8.005 0.63 P 
RBOW 8.175 0.64 P 
B047 8.273 0.87 P 
B935 9.813 0.51 P 
KPR 10.055 0.65 P 
KBU 10.665 0.64 P 
B049 10.703 0.80 P 
PRDS 11.319 0.61 P 
89688 11.625 0.78 P 
BRIC 13.295 0.55 P 
KHBB 13.628 0.57 P 
1023 9.935 0.78 S 
89781 10.625 0.79 S 
89462 10.785 0.74 S 
1581 11.275 0.71 S 
B046 11.313 0.75 S 
KMPB 11.798 0.66 S 
KCO 13.378 0.73 S 
RBOW 13.505 0.57 S 
B047 14.003 0.58 S 
KPR 17.155 0.74 S 
B049 17.713 0.75 S 
KBU 17.825 0.63 S 
PRDS 19.265 0.58 S 
89688 19.715 0.77 S 
KMR 20.148 0.70 S 
BRIC 22.655 0.63 S 
1591 22.965 0.64 S 
KHBB 23.028 0.52 S 
B934 28.433 0.56 S 
# 2022 12 20 10 54 50.468 40.5386 -124.2967 18.500 1.968 0.145 0.145 0.589 53 
KCT 4.065 0.63 P 
1586 4.532 0.83 P 
89462 5.042 0.79 P 
KMPB 5.285 0.79 P 
1581 5.542 0.89 P 
B046 5.800 0.87 P 
RBOW 6.322 0.61 P 
PETL 6.342 0.63 P 
89781 6.352 0.87 P 
KCO 6.935 0.88 P 
B047 7.180 0.87 P 
KNEE 7.982 0.68 P 
1580 8.002 0.89 P 
KPR 8.452 0.62 P 
KCR 8.662 0.70 P 
DMOR 8.962 0.51 P 
KBU 9.922 0.67 P 
PRDS 9.936 0.59 P 
B049 10.080 0.83 P 
89688 10.372 0.87 P 
KHMB 11.185 0.55 P 
B935 11.410 0.83 P 
KMR 11.745 0.64 P 
BRIC 11.912 0.63 P 
KHBB 15.305 0.65 P 
WEAV 19.812 0.58 P 
LBK 23.022 0.70 P 
KCT 7.175 0.51 S 
1023 7.352 0.69 S 
1586 8.592 0.82 S 
89462 9.382 0.79 S 
KMPB 9.385 0.63 S 
B046 10.340 0.81 S 
1581 10.572 0.84 S 
RBOW 11.052 0.57 S 
B045 11.240 0.59 S 
PETL 11.262 0.57 S 
89781 11.742 0.84 S 
KCO 12.255 0.82 S 
B047 12.640 0.77 S 
BJES 13.532 0.54 S 
1580 13.942 0.82 S 
KNEE 14.662 0.58 S 
KPR 14.892 0.65 S 
KCR 15.862 0.65 S 
DMOR 16.222 0.52 S 
PRDS 17.872 0.59 S 
KBU 17.902 0.64 S 
B049 17.940 0.80 S 
89688 18.022 0.81 S 
B935 18.740 0.79 S 
KHMB 20.145 0.78 S 
KCSB 20.385 0.56 S 
BRIC 20.742 0.61 S 
KMR 20.865 0.66 S 
HAYF 25.763 0.57 S 
KHBB 26.105 0.62 S 
B934 26.510 0.66 S 
WEAV 31.072 0.56 S 
# 2022 12 20 10 55 0.995 40.5290 -124.3498 17.285 2.240 0.157 0.157 0.755 54 
1584B 3.575 0.60 P 
KCT 4.118 0.64 P 
1586 4.965 0.82 P 
KMPB 5.638 0.78 P 
PETL 6.415 0.82 P 
RBOW 6.615 0.68 P 
BJES 8.055 0.72 P 
KPR 8.805 0.65 P 
KNEE 8.989 0.62 P 
KCR 9.215 0.77 P 
DMOR 9.215 0.71 P 
BRIC 10.335 0.51 P 
KBU 10.375 0.65 P 
KMR 10.528 0.58 P 
1584B 6.245 0.79 S 
KCT 7.108 0.64 S 
1023 7.895 0.86 S 
1586 9.325 0.79 S 
KMPB 9.818 0.65 S 
89462 9.895 0.76 S 
B046 10.343 0.72 S 
B047 10.383 0.51 S 
RBOW 11.365 0.55 S 
B045 11.823 0.64 S 
KCO 12.098 0.80 S 
89781 12.555 0.72 S 
KNEE 13.935 0.54 S 
1580 15.155 0.75 S 
KPR 15.185 0.66 S 
KCR 16.435 0.68 S 
DMOR 18.095 0.65 S 
PRDS 18.119 0.51 S 
89688 18.375 0.52 S 
B049 18.663 0.69 S 
KBU 19.055 0.62 S 
BRIC 21.205 0.56 S 
KMR 21.518 0.73 S 
1591 22.685 0.71 S 
# 2022 12 20 10 55 25.753 40.5144 -124.3906 15.759 2.192 0.160 0.160 0.436 55 
1584B 3.687 0.68 P 
KCT 4.700 0.55 P 
1586 5.427 0.79 P 
B046 5.575 0.76 P 
89462 6.017 0.82 P 
KMPB 6.040 0.64 P 
1581 6.437 0.79 P 
PETL 6.597 0.56 P 
RBOW 6.717 0.56 P 
KCO 6.790 0.70 P 
B045 7.245 0.67 P 
B047 7.325 0.76 P 
89781 7.377 0.80 P 
KPR 8.857 0.65 P 
KCR 9.687 0.64 P 
PRDS 10.191 0.61 P 
89688 10.467 0.79 P 
KBU 10.617 0.65 P 
B049 10.755 0.68 P 
BRIC 12.277 0.54 P 
B935 12.445 0.72 P 
KMR 12.640 0.77 P 
1584B 6.737 0.70 S 
1023 8.557 0.70 S 
B046 9.855 0.80 S 
1586 10.297 0.79 S 
PETL 10.577 0.57 S 
KMPB 10.730 0.63 S 
89462 10.997 0.82 S 
RBOW 12.027 0.61 S 
1581 12.027 0.85 S 
KCO 12.030 0.72 S 
B047 12.745 0.74 S 
B045 12.805 0.81 S 
89781 13.337 0.83 S 
KPR 15.737 0.69 S 
KCR 17.097 0.81 S 
89688 18.297 0.80 S 
KBU 19.147 0.68 S 
B049 19.315 0.79 S 
BRIC 21.537 0.59 S 
KHMB 21.940 0.66 S 
1591 23.217 0.69 S 
B934 27.345 0.64 S 
# 2022 12 20 10 56 10.478 40.2527 -124.2542 2.734 0.957 0.283 0.283 0.948 56 
B047 2.310 0.72 P 
RBOW 3.532 0.73 P 
KPR 5.092 0.70 P 
89688 7.112 0.54 P 
1023 8.592 0.64 P 
KCO 0.655 0.61 S 
RBOW 5.392 0.76 S 
KMPB 7.555 0.78 S 
89688 8.372 0.51 S 
1023 15.172 0.55 S 
1586 16.492 0.50 S 
# 2022 12 20 10 56 51.066 40.5765 -124.1295 25.736 1.914 0.166 0.166 0.549 57 
89462 5.004 0.89 P 
1586 5.144 0.86 P 
KMPB 5.397 0.67 P 
1023 5.494 0.86 P 
BJES 5.644 0.84 P 
B045 5.672 0.82 P 
89781 5.714 0.84 P 
1584B 5.784 0.85 P 
RBOW 6.004 0.58 P 
KNEE 6.094 0.82 P 
KCT 6.387 0.54 P 
PETL 6.694 0.61 P 
KCR 6.954 0.67 P 
B046 7.542 0.82 P 
KPR 7.544 0.64 P 
PRDS 8.924 0.78 P 
KBU 8.934 0.57 P 
KHMB 8.957 0.65 P 
B049 9.022 0.84 P 
B935 9.122 0.84 P 
89688 9.694 0.79 P 
KCSB 10.067 0.83 P 
KMR 10.377 0.80 P 
BRIC 10.784 0.57 P 
KRP 11.097 0.75 P 
HAYF 12.747 0.57 P 
KHBB 12.847 0.56 P 
KOM 15.257 0.84 P 
WEAV 15.434 0.68 P 
TRIN 19.327 0.56 P 
LBK 20.544 0.88 P 
89462 9.064 0.82 S 
1586 9.554 0.78 S 
B045 9.902 0.79 S 
BJES 9.994 0.75 S 
KMPB 10.147 0.60 S 
1023 10.254 0.70 S 
89781 10.314 0.79 S 
1581 10.324 0.75 S 
KNEE 10.744 0.57 S 
RBOW 11.524 0.52 S 
B047 11.792 0.67 S 
1580 12.174 0.72 S 
KCR 12.354 0.60 S 
B046 13.232 0.70 S 
KPR 14.694 0.71 S 
KBU 15.824 0.80 S 
B049 16.032 0.81 S 
KHMB 16.057 0.65 S 
B935 16.192 0.81 S 
89688 16.384 0.72 S 
KCSB 17.947 0.82 S 
KMR 18.377 0.53 S 
PRDS 18.478 0.58 S 
BRIC 19.364 0.63 S 
KRP 19.757 0.78 S 
KHBB 22.557 0.78 S 
HAYF 22.595 0.63 S 
B934 25.232 0.72 S 
WEAV 28.174 0.55 S 
TRIN 34.495 0.79 S 
LBK 36.144 0.80 S 
LSF 36.414 0.63 S 
GUMB 41.264 0.71 S 
# 2022 12 20 10 57 19.914 40.6280 -124.0013 25.892 1.703 0.221 0.221 1.143 58 
1023 5.436 0.83 P 
1586 6.426 0.84 P 
RBOW 6.846 0.52 P 
KMPB 7.089 0.62 P 
1581 7.406 0.84 P 
KCO 7.769 0.82 P 
B047 8.324 0.85 P 
DMOR 9.076 0.54 P 
KPR 9.856 0.70 P 
KHBB 10.819 0.56 P 
HAYF 10.939 0.64 P 
PRDS 11.166 0.56 P 
89688 11.476 0.77 P 
WEAV 13.816 0.63 P 
GNR 24.206 0.72 P 
1023 9.576 0.80 S 
KCR 10.676 0.53 S 
1586 11.206 0.75 S 
KMPB 11.849 0.66 S 
RBOW 12.916 0.78 S 
KCO 13.179 0.74 S 
B935 13.384 0.58 S 
B047 13.794 0.72 S 
KCSB 14.979 0.74 S 
KPR 17.096 0.77 S 
PRDS 18.966 0.55 S 
89688 19.276 0.71 S 
KHBB 19.909 0.54 S 
WEAV 24.206 0.53 S 
B934 28.134 0.57 S 
79046 28.696 0.58 S 
79298 34.456 0.55 S 
GNR 41.416 0.57 S 
# 2022 12 20 10 57 45.341 40.5373 -124.3172 17.071 2.768 0.140 0.140 0.408 59 
1584B 3.569 0.84 P 
1023 3.959 0.85 P 
KCT 3.982 0.65 P 
1586 4.679 0.85 P 
89462 5.199 0.85 P 
KMPB 5.382 0.64 P 
B046 5.867 0.84 P 
RBOW 6.399 0.67 P 
PETL 6.439 0.67 P 
B045 6.457 0.84 P 
89781 6.489 0.86 P 
BJES 7.629 0.83 P 
KNEE 8.059 0.60 P 
1580 8.129 0.83 P 
KPR 8.529 0.64 P 
KCR 8.769 0.63 P 
DMOR 9.129 0.73 P 
PRDS 10.009 0.58 P 
KBU 10.039 0.57 P 
B049 10.207 0.83 P 
KTD 10.489 0.84 P 
KHMB 11.292 0.64 P 
B935 11.537 0.80 P 
KMR 11.892 0.61 P 
BRIC 12.019 0.51 P 
KRP 12.312 0.84 P 
KCSB 12.432 0.78 P 
HAYF 14.992 0.83 P 
KOM 17.312 0.74 P 
1584B 6.349 0.69 S 
KCT 7.272 0.61 S 
1023 7.599 0.76 S 
1586 8.839 0.81 S 
KMPB 9.222 0.62 S 
89462 9.559 0.81 S 
B046 10.387 0.74 S 
RBOW 11.179 0.63 S 
PETL 11.259 0.54 S 
B045 11.387 0.69 S 
89781 11.879 0.76 S 
BJES 13.799 0.68 S 
1580 14.349 0.80 S 
KNEE 14.869 0.56 S 
KPR 15.289 0.61 S 
KCR 15.919 0.63 S 
DMOR 17.509 0.67 S 
PRDS 17.749 0.57 S 
89688 17.969 0.61 S 
KBU 18.119 0.72 S 
B049 18.247 0.76 S 
KTD 18.389 0.79 S 
KHMB 20.192 0.67 S 
BRIC 20.869 0.51 S 
KMR 21.112 0.63 S 
KHBB 27.262 0.51 S 
