# 2022 12 20 10 55 25.792 40.5152 -124.3821 16.064 1.912 0.159 0.159 0.478 65 
1584B 3.648 0.71 P 
KCT 4.661 0.44 P 
1586 5.388 0.81 P 
B046 5.536 0.85 P 
89462 5.978 0.96 P 
KMPB 6.001 0.56 P 
1581 6.398 0.82 P 
PETL 6.558 0.50 P 
RBOW 6.678 0.63 P 
KCO 6.751 0.70 P 
B045 7.206 0.83 P 
B047 7.286 0.82 P 
89781 7.338 0.96 P 
KPR 8.818 0.67 P 
KCR 9.648 0.54 P 
PRDS 10.152 0.59 P 
89688 10.428 0.89 P 
KBU 10.578 0.55 P 
B049 10.716 0.93 P 
BRIC 12.238 0.40 P 
B935 12.406 0.70 P 
KMR 12.601 0.90 P 
1584B 6.698 0.67 S 
1023 8.518 0.76 S 
B046 9.816 0.89 S 
1586 10.258 0.92 S 
PETL 10.538 0.46 S 
KMPB 10.691 0.66 S 
89462 10.958 0.93 S 
1581 11.988 0.95 S 
KCO 11.991 0.79 S 
B047 12.706 0.82 S 
B045 12.766 0.77 S 
89781 13.298 0.95 S 
BJES 14.488 0.51 S 
KPR 15.698 0.52 S 
KCR 17.058 0.94 S 
PRDS 17.938 0.37 S 
89688 18.258 0.93 S 
KBU 19.108 0.58 S 
B049 19.276 0.93 S 
BRIC 21.498 0.52 S 
KHMB 21.901 0.67 S 
1591 23.178 0.79 S 
B934 27.306 0.52 S 
# 2022 12 20 10 56 10.638 40.2761 -124.2698 -1.816 0.132 0.409 0.409 0.970 66 
B046 -0.540 0.44 P 
B047 2.150 0.80 P 
KMPB 2.625 0.76 P 
RBOW 3.372 0.85 P 
KPR 4.932 0.50 P 
89688 6.952 0.50 P 
1023 8.432 0.54 P 
KCO 0.495 0.57 S 
RBOW 5.232 0.66 S 
KMPB 7.395 0.87 S 
1023 15.012 0.40 S 
# 2022 12 20 10 56 51.062 40.5765 -124.1302 25.794 2.250 0.166 0.166 0.544 67 
89462 5.008 1.02 P 
1586 5.148 1.02 P 
KMPB 5.401 0.64 P 
1023 5.498 1.05 P 
BJES 5.648 0.93 P 
B045 5.676 0.98 P 
89781 5.718 1.03 P 
1584B 5.788 1.00 P 
RBOW 6.008 0.53 P 
KNEE 6.098 0.92 P 
KCT 6.391 0.36 P 
PETL 6.698 0.56 P 
KCR 7.008 0.59 P 
B046 7.546 0.94 P 
KPR 7.548 0.65 P 
PRDS 8.928 0.94 P 
KBU 8.938 0.47 P 
KHMB 8.961 0.63 P 
B049 9.026 1.01 P 
B935 9.126 0.97 P 
89688 9.698 0.88 P 
KCSB 10.071 0.97 P 
KMR 10.381 0.92 P 
BRIC 10.788 0.59 P 
KRP 11.101 0.91 P 
HAYF 12.731 0.41 P 
KHBB 12.861 0.47 P 
KOM 15.261 0.88 P 
WEAV 15.438 0.61 P 
TRIN 19.331 0.56 P 
LBK 20.548 1.06 P 
GUMB 23.212 0.43 P 
89462 9.068 0.93 S 
1586 9.558 0.98 S 
B045 9.906 0.81 S 
BJES 9.998 0.64 S 
KMPB 10.151 0.52 S 
1023 10.258 0.90 S 
89781 10.318 0.97 S 
1581 10.328 0.91 S 
KNEE 10.748 0.39 S 
RBOW 11.568 0.33 S 
B047 11.796 0.68 S 
1580 12.178 0.80 S 
KCR 12.358 0.53 S 
B046 13.236 0.73 S 
KPR 14.698 0.49 S 
KBU 15.828 0.90 S 
B049 16.036 0.92 S 
KHMB 16.151 0.63 S 
B935 16.196 0.94 S 
89688 16.388 0.82 S 
KCSB 17.951 0.97 S 
KMR 18.381 0.43 S 
PRDS 18.482 0.43 S 
BRIC 19.368 0.55 S 
KRP 19.761 0.88 S 
KHBB 22.561 0.88 S 
HAYF 22.599 0.61 S 
B934 25.236 0.71 S 
WEAV 28.178 0.47 S 
TRIN 34.499 0.95 S 
LBK 36.148 0.95 S 
LSF 36.418 0.58 S 
GUMB 41.268 0.91 S 
# 2022 12 20 10 57 19.173 40.6729 -124.0489 26.810 2.440 0.296 0.296 1.286 68 
1023 6.177 0.99 P 
1586 7.167 0.95 P 
B046 7.405 0.97 P 
KMPB 7.830 0.59 P 
PETL 7.867 0.51 P 
RBOW 8.507 0.78 P 
KCO 8.510 0.95 P 
B047 9.065 0.98 P 
KMR 10.340 0.42 P 
KPR 10.557 0.40 P 
KHBB 11.560 0.54 P 
HAYF 11.680 0.60 P 
PRDS 11.877 0.50 P 
89688 12.217 0.95 P 
1591 14.317 0.68 P 
WEAV 14.557 0.45 P 
LBK 19.347 0.44 P 
GNR 24.947 0.84 P 
GHO 27.307 0.48 P 
1023 10.317 0.92 S 
KCR 11.417 0.42 S 
1586 11.947 0.85 S 
KMPB 12.590 0.61 S 
RBOW 13.657 0.84 S 
KCO 13.920 0.89 S 
B047 14.535 0.87 S 
KCSB 15.720 0.71 S 
KPR 17.837 0.68 S 
PRDS 19.701 0.42 S 
89688 20.017 0.89 S 
KHBB 20.650 0.37 S 
BRIC 23.307 0.36 S 
B934 28.875 0.64 S 
79046 29.437 0.70 S 
79298 35.197 0.63 S 
GNR 42.157 0.60 S 
# 2022 12 20 10 57 45.337 40.5371 -124.3178 17.084 2.811 0.140 0.140 0.409 69 
1584B 3.573 0.87 P 
1023 3.963 0.86 P 
KCT 3.986 0.56 P 
1586 4.683 0.86 P 
89462 5.203 0.89 P 
KMPB 5.386 0.53 P 
B046 5.871 0.89 P 
RBOW 6.403 0.58 P 
PETL 6.443 0.58 P 
B045 6.461 0.86 P 
89781 6.493 0.92 P 
BJES 7.633 0.80 P 
KNEE 8.007 0.49 P 
1580 8.133 0.88 P 
KPR 8.533 0.54 P 
KCR 8.773 0.52 P 
DMOR 9.133 0.64 P 
PRDS 10.013 0.44 P 
KBU 10.043 0.46 P 
B049 10.211 0.81 P 
KTD 10.493 0.86 P 
KHMB 11.296 0.50 P 
B935 11.541 0.84 P 
KMR 11.896 0.51 P 
BRIC 12.023 0.42 P 
KRP 12.316 0.81 P 
KCSB 12.436 0.82 P 
HAYF 14.996 0.86 P 
KOM 17.316 0.41 P 
1584B 6.353 0.80 S 
KCT 7.276 0.53 S 
1023 7.603 0.80 S 
1586 8.843 0.81 S 
KMPB 9.226 0.53 S 
89462 9.563 0.83 S 
B046 10.391 0.81 S 
RBOW 11.183 0.50 S 
PETL 11.263 0.42 S 
B045 11.391 0.70 S 
89781 11.883 0.81 S 
BJES 13.803 0.62 S 
1580 14.353 0.79 S 
KNEE 14.903 0.35 S 
KPR 15.243 0.52 S 
KCR 15.953 0.56 S 
DMOR 17.513 0.51 S 
PRDS 17.703 0.43 S 
89688 17.973 0.70 S 
KBU 18.123 0.77 S 
B049 18.251 0.79 S 
KTD 18.393 0.85 S 
KHMB 20.196 0.63 S 
BRIC 20.873 0.47 S 
KMR 21.116 0.56 S 
KHBB 27.266 0.38 S 
# 2022 12 20 10 57 56.247 40.5033 -124.4437 17.872 3.295 0.127 0.127 0.446 70 
1584B 4.243 0.99 P 
KCT 4.296 0.49 P 
1023 5.013 1.04 P 
B046 5.841 1.00 P 
1586 6.083 1.03 P 
PETL 6.173 0.41 P 
KMPB 6.516 0.61 P 
89462 6.663 1.00 P 
1581 6.703 1.01 P 
KCO 6.946 0.97 P 
RBOW 7.283 0.52 P 
B047 7.551 0.94 P 
89781 7.703 1.05 P 
B045 7.731 0.73 P 
1580 9.163 1.06 P 
KPR 9.193 0.67 P 
BJES 9.193 0.99 P 
KNEE 9.723 0.34 P 
KCR 10.143 0.56 P 
PRDS 10.163 0.51 P 
89688 10.463 0.89 P 
DMOR 10.563 0.87 P 
KBU 11.063 0.56 P 
B049 11.071 0.96 P 
KTD 11.243 1.01 P 
BRIC 12.303 0.58 P 
KHMB 12.806 0.93 P 
B935 12.811 0.93 P 
KCSB 13.766 0.91 P 
99700 14.843 0.95 P 
B934 15.731 0.98 P 
79046 15.933 0.95 P 
KIP 18.103 0.44 P 
KOM 18.576 0.52 P 
KFP 19.723 0.45 P 
KBN 20.353 0.77 P 
MNDO 21.343 1.00 P 
GNR 23.233 0.43 P 
TRIN 23.526 0.66 P 
GBL 23.903 0.54 P 
LBK 24.403 0.98 P 
SCOT 24.756 0.46 P 
LSF 25.083 0.36 P 
GWR 25.183 1.04 P 
GHO 25.533 0.50 P 
GCWB 27.383 1.08 P 
GTSB 30.243 0.52 P 
GHGB 30.286 0.90 P 
1584B 7.593 0.93 S 
KCT 7.916 0.71 S 
1023 9.523 0.79 S 
B046 10.261 0.92 S 
PETL 10.793 0.55 S 
1586 11.123 0.82 S 
KMPB 11.526 0.52 S 
89462 12.153 0.74 S 
KCO 12.336 0.91 S 
1581 12.713 0.93 S 
RBOW 12.793 0.41 S 
B047 13.311 0.89 S 
89781 13.883 0.94 S 
1580 16.043 0.95 S 
KPR 16.203 0.51 S 
BJES 16.723 0.85 S 
KNEE 17.623 0.53 S 
PRDS 18.123 0.35 S 
KCR 18.203 0.64 S 
89688 18.283 0.83 S 
KBU 19.643 0.65 S 
DMOR 19.663 0.88 S 
B049 19.711 0.92 S 
BRIC 21.633 0.50 S 
KHMB 22.126 0.90 S 
B935 22.881 0.97 S 
KMR 23.196 0.36 S 
1591 23.273 0.92 S 
KCSB 24.396 0.99 S 
B934 27.521 0.98 S 
79046 27.553 0.92 S 
KOM 31.756 0.85 S 
KIP 32.123 0.82 S 
79298 33.923 0.66 S 
KFP 34.743 0.62 S 
DCMP 38.144 0.42 S 
KRK 40.023 0.86 S 
79668 40.463 0.90 S 
GNR 40.523 0.86 S 
GBL 41.243 0.58 S 
SCOT 43.286 0.45 S 
LSF 44.003 0.44 S 
GHO 44.623 0.71 S 
GUMB 47.483 0.46 S 
GCWB 48.043 0.45 S 
# 2022 12 20 10 59 7.722 40.5243 -124.3689 16.710 2.068 0.145 0.145 0.440 71 
1584B 3.608 0.90 P 
KCT 3.961 0.55 P 
1023 4.258 0.98 P 
1586 5.208 0.98 P 
89462 5.648 0.97 P 
B046 5.806 0.99 P 
KMPB 5.831 0.55 P 
PETL 6.198 0.90 P 
1581 6.268 0.94 P 
RBOW 6.568 0.57 P 
KCO 7.131 0.98 P 
BJES 8.188 0.84 P 
1580 8.698 0.98 P 
KPR 8.838 0.59 P 
KNEE 8.878 0.49 P 
KCR 9.308 0.59 P 
DMOR 9.648 0.42 P 
KBU 10.428 0.59 P 
B049 10.536 0.89 P 
BRIC 11.108 0.71 P 
B935 11.886 0.79 P 
KHMB 11.921 0.54 P 
KMR 12.091 0.58 P 
1591 12.708 0.95 P 
KRP 13.331 0.90 P 
B934 14.176 0.39 P 
KHBB 15.981 0.37 P 
1584B 6.378 0.91 S 
KCT 7.101 0.70 S 
1023 8.048 0.96 S 
1586 9.678 0.93 S 
B046 10.056 0.93 S 
KMPB 10.121 0.59 S 
89462 10.208 0.93 S 
1581 11.558 0.94 S 
KCO 12.221 0.92 S 
89781 12.728 0.71 S 
B047 12.856 0.82 S 
1580 15.328 0.92 S 
KPR 15.368 0.59 S 
KNEE 15.972 0.52 S 
KCR 16.798 0.64 S 
KBU 18.478 0.64 S 
89688 18.568 0.78 S 
DMOR 18.688 0.96 S 
B049 18.696 0.93 S 
BRIC 21.168 0.37 S 
KHMB 21.491 0.71 S 
B935 21.866 0.86 S 
KMR 21.931 0.62 S 
1591 22.688 0.92 S 
B934 27.296 0.78 S 
# 2022 12 20 10 59 26.073 40.5494 -124.4025 27.081 1.784 0.316 0.316 0.774 72 
1023 4.207 0.38 P 
PETL 5.567 0.42 P 
KCO 6.360 0.65 P 
1584B 6.657 0.48 P 
89781 6.777 0.50 P 
RBOW 7.357 0.36 P 
1581 7.587 0.44 P 
KCR 9.137 0.55 P 
KPR 9.457 0.46 P 
KBU 10.577 0.52 P 
B049 10.745 0.87 P 
KMR 12.400 0.79 P 
1584B 8.957 0.49 S 
1023 9.327 0.63 S 
1581 11.577 0.68 S 
B046 12.075 0.81 S 
89781 12.437 0.56 S 
PETL 13.137 0.57 S 
KCO 13.880 0.75 S 
1580 14.957 0.64 S 
KPR 15.847 0.43 S 
PRDS 17.117 0.54 S 
89688 18.157 0.74 S 
B049 18.305 0.56 S 
KBU 18.537 0.48 S 
BRIC 21.887 0.40 S 
# 2022 12 20 10 59 42.695 40.5292 -124.3201 15.885 1.415 0.170 0.170 0.679 73 
1584B 3.385 0.57 P 
KCT 3.798 0.63 P 
1586 4.375 0.86 P 
KMPB 5.228 1.01 P 
B046 5.663 1.00 P 
RBOW 6.115 0.46 P 
KCO 6.838 0.94 P 
B047 7.043 0.98 P 
KPR 8.435 0.59 P 
KCR 8.755 0.85 P 
KBU 9.885 0.60 P 
B049 10.023 0.85 P 
PRDS 10.155 0.91 P 
89688 10.215 0.88 P 
BRIC 11.795 0.52 P 
HAYF 18.386 0.37 P 
1584B 6.235 0.88 S 
KCT 7.088 0.62 S 
1023 7.425 0.94 S 
1586 8.055 0.78 S 
KMPB 9.568 0.92 S 
89462 9.595 0.89 S 
B046 10.123 0.91 S 
PETL 10.905 0.38 S 
RBOW 11.035 0.42 S 
KCO 12.358 0.89 S 
B047 12.643 0.86 S 
KPR 15.225 0.60 S 
KCR 15.675 0.60 S 
B049 17.893 0.88 S 
KBU 18.025 0.61 S 
89688 18.435 0.79 S 
B935 19.983 0.47 S 
BRIC 20.685 0.56 S 
KMR 20.828 0.51 S 
# 2022 12 20 11 0 26.703 40.7260 -123.8186 27.054 1.384 0.252 0.252 0.620 74 
KNEE 4.927 0.55 P 
KHMB 5.930 0.67 P 
B935 7.475 0.97 P 
KCR 7.567 0.64 P 
KBU 8.557 0.89 P 
KMR 9.340 0.77 P 
KHBB 9.810 0.90 P 
B049 10.155 0.96 P 
HAYF 10.278 0.62 P 
BRIC 11.187 0.44 P 
DMOR 7.827 0.91 S 
KNEE 9.371 0.91 S 
KHMB 10.520 0.51 S 
BJES 11.687 0.70 S 
B935 13.355 0.92 S 
KCR 13.507 0.55 S 
KHBB 16.870 0.93 S 
B049 17.495 0.90 S 
HAYF 17.678 0.57 S 
KMR 19.470 0.38 S 
WEAV 21.217 0.40 S 
# 2022 12 20 11 0 50.829 40.4890 -124.4101 16.216 1.804 0.152 0.152 0.592 75 
KCT 3.584 0.94 P 
1584B 4.371 1.01 P 
B046 5.139 1.00 P 
PETL 5.431 0.43 P 
1023 5.541 1.02 P 
KMPB 5.934 0.65 P 
KCO 6.344 1.06 P 
1586 6.651 1.02 P 
RBOW 6.781 0.78 P 
1581 8.001 1.02 P 
KPR 8.251 0.63 P 
89781 8.941 0.96 P 
KNEE 9.335 0.63 P 
PRDS 9.601 0.63 P 
BJES 9.761 0.98 P 
KCR 9.931 0.81 P 
89688 9.961 0.79 P 
BRIC 11.611 0.92 P 
KBU 11.941 0.90 P 
B049 12.149 0.85 P 
B935 12.469 0.87 P 
KHMB 13.424 0.86 P 
KMR 13.744 0.92 P 
KHBB 16.394 0.70 P 
KCT 7.044 0.44 S 
1584B 7.621 0.97 S 
1023 9.071 0.92 S 
B046 9.309 0.90 S 
PETL 9.971 0.52 S 
KMPB 10.704 0.56 S 
1586 10.821 0.88 S 
KCO 11.464 0.96 S 
1581 12.571 0.47 S 
89781 13.861 0.60 S 
KPR 15.221 0.53 S 
BJES 16.211 0.92 S 
KNEE 17.195 0.95 S 
PRDS 17.695 0.45 S 
89688 17.861 0.84 S 
KCR 17.931 0.92 S 
DMOR 19.931 0.39 S 
KBU 19.981 0.84 S 
BRIC 21.031 0.39 S 
KMR 22.084 0.57 S 
B935 22.749 0.94 S 
1591 22.981 0.94 S 
# 2022 12 20 11 1 6.223 40.3996 -124.1856 21.997 1.683 0.302 0.302 0.872 76 
RBOW 3.457 0.63 P 
B046 3.615 0.67 P 
KCO 4.610 0.77 P 
KPR 5.647 0.59 P 
1584B 6.397 0.80 P 
1023 6.537 0.82 P 
KBU 6.847 0.83 P 
B049 6.895 0.84 P 
1586 7.857 0.60 P 
RBOW 7.947 0.40 S 
B046 8.205 0.82 S 
1584B 9.137 0.58 S 
KCO 9.990 0.85 S 
1023 10.847 0.71 S 
KPR 11.267 0.64 S 
1586 12.507 0.65 S 
KBU 14.487 0.46 S 
B049 14.705 0.61 S 
B935 16.475 0.72 S 
# 2022 12 20 11 1 42.703 40.4992 -124.4322 11.576 1.278 0.193 0.193 0.551 77 
1584B 3.967 1.00 P 
B046 5.705 0.97 P 
1023 5.727 0.98 P 
1586 5.817 0.96 P 
PETL 6.167 0.55 P 
KMPB 6.360 0.56 P 
RBOW 7.027 0.68 P 
KPR 9.087 0.58 P 
PRDS 10.421 0.55 P 
KBU 10.867 0.72 P 
B049 11.085 0.85 P 
BRIC 12.187 0.55 P 
KCT 4.980 0.33 S 
1584B 7.167 0.95 S 
B046 10.015 0.94 S 
PETL 10.677 0.37 S 
1586 10.787 0.87 S 
KMPB 11.100 0.90 S 
89462 11.547 0.80 S 
KCO 12.140 0.87 S 
KPR 16.267 0.89 S 
PRDS 18.237 0.37 S 
89688 18.717 0.82 S 
BRIC 21.787 0.61 S 
B049 22.075 0.41 S 
# 2022 12 20 11 2 13.169 40.5254 -124.3272 16.309 2.328 0.133 0.133 0.575 78 
1584B 3.541 0.87 P 
KCT 4.034 0.47 P 
1023 4.111 0.97 P 
1586 4.931 0.95 P 
89462 5.221 0.92 P 
KMPB 5.414 0.58 P 
B046 5.639 0.93 P 
1581 6.101 0.93 P 
RBOW 6.271 0.44 P 
89781 6.841 0.93 P 
KCO 7.044 0.95 P 
BJES 7.681 0.76 P 
KNEE 8.431 0.56 P 
1580 8.491 0.97 P 
KPR 8.541 0.57 P 
KCR 8.821 0.58 P 
DMOR 9.241 0.44 P 
KBU 9.991 0.57 P 
B049 10.109 0.86 P 
PRDS 10.161 0.50 P 
89688 10.421 0.82 P 
KHMB 11.564 0.58 P 
B935 11.629 0.86 P 
KMR 11.724 0.59 P 
BRIC 11.791 0.62 P 
KCSB 12.234 0.83 P 
1591 12.511 0.92 P 
HAYF 15.292 0.53 P 
KHBB 15.524 0.63 P 
B934 17.829 0.42 P 
WEAV 18.101 0.33 P 
LBK 23.231 0.78 P 
1584B 6.281 0.89 S 
KCT 7.194 0.72 S 
1023 8.031 0.77 S 
1586 9.271 0.79 S 
KMPB 9.534 0.51 S 
89462 9.611 0.90 S 
B046 9.889 0.90 S 
PETL 10.801 0.54 S 
RBOW 11.001 0.39 S 
1581 11.211 0.90 S 
KCO 12.034 0.87 S 
89781 12.361 0.91 S 
1580 15.001 0.91 S 
KNEE 15.035 0.33 S 
KPR 15.471 0.57 S 
KCR 15.911 0.59 S 
PRDS 17.551 0.42 S 
89688 17.851 0.88 S 
KBU 17.871 0.59 S 
DMOR 17.881 0.34 S 
B049 18.059 0.87 S 
KHMB 20.544 0.57 S 
BRIC 20.731 0.36 S 
KMR 20.994 0.55 S 
B935 21.169 0.87 S 
1591 22.031 0.85 S 
KCSB 22.784 0.84 S 
B934 27.049 0.42 S 
HAYF 28.114 0.50 S 
KHBB 29.054 0.47 S 
# 2022 12 20 11 2 38.489 40.6692 -123.9144 22.025 1.989 0.188 0.188 0.487 79 
BJES 5.041 0.94 P 
89781 5.441 0.95 P 
1581 6.071 0.92 P 
89462 6.301 0.90 P 
KHMB 6.454 0.79 P 
KCR 6.671 0.88 P 
KMPB 7.334 0.87 P 
B935 7.649 0.85 P 
KCSB 7.924 0.87 P 
1584B 8.071 0.87 P 
RBOW 8.221 0.78 P 
B049 9.339 0.81 P 
KBU 9.361 0.63 P 
KPR 9.421 0.53 P 
KMR 10.484 0.63 P 
KHBB 10.654 0.54 P 
89688 11.881 0.67 P 
KNEE 7.861 0.37 S 
DMOR 8.561 0.91 S 
BJES 9.181 0.39 S 
89781 10.081 0.88 S 
1580 10.621 0.90 S 
1581 11.441 0.82 S 
89462 11.611 0.90 S 
KHMB 11.804 0.55 S 
KCR 11.961 0.89 S 
KMPB 13.234 0.48 S 
B935 13.689 0.89 S 
1584B 14.231 0.84 S 
KCSB 14.564 0.90 S 
B049 16.679 0.83 S 
B046 16.769 0.86 S 
KBU 16.821 0.45 S 
KRP 17.844 0.72 S 
PETL 18.391 0.81 S 
KMR 18.934 0.42 S 
KHBB 19.224 0.88 S 
HAYF 19.302 0.64 S 
89688 19.391 0.57 S 
# 2022 12 20 11 3 9.561 40.5996 -124.0576 18.407 2.739 0.145 0.145 1.204 80 
89462 4.559 0.84 P 
1586 4.839 0.81 P 
1584B 5.359 0.58 P 
89781 5.399 0.76 P 
KNEE 5.459 0.45 P 
DMOR 6.019 0.53 P 
RBOW 6.239 0.43 P 
KCR 6.469 0.56 P 
1580 6.669 0.89 P 
B046 7.097 0.60 P 
PETL 7.739 0.49 P 
KCO 7.862 0.62 P 
KPR 8.129 0.50 P 
KBU 8.509 0.58 P 
B049 8.527 0.83 P 
KHMB 8.612 0.51 P 
B935 8.687 0.89 P 
KCSB 9.512 0.92 P 
KMR 9.872 0.56 P 
KRP 10.842 0.75 P 
HAYF 12.140 0.34 P 
KHBB 12.382 0.57 P 
KOM 14.892 0.74 P 
LBK 20.129 0.91 P 
GUMB 22.543 0.52 P 
89462 8.559 0.80 S 
1586 9.229 0.90 S 
BJES 9.439 0.91 S 
KMPB 9.612 0.53 S 
1023 9.939 0.86 S 
89781 10.019 0.86 S 
KNEE 10.049 0.39 S 
1584B 11.409 0.82 S 
KCT 11.832 0.46 S 
KCR 11.839 0.89 S 
1580 11.929 0.77 S 
DMOR 12.249 0.41 S 
B046 12.737 0.72 S 
KPR 13.289 0.58 S 
PETL 14.029 0.52 S 
KCO 14.302 0.64 S 
KBU 14.829 0.47 S 
B049 14.937 0.75 S 
KHMB 15.482 0.62 S 
B935 15.887 0.89 S 
KMR 16.992 0.48 S 
KCSB 17.372 0.82 S 
KRP 17.712 0.51 S 
KHBB 21.822 0.52 S 
89688 22.659 0.63 S 
HAYF 22.800 0.38 S 
KFP 31.129 0.45 S 
B934 31.377 0.51 S 
79046 32.279 0.70 S 
GUMB 40.363 0.36 S 
# 2022 12 20 11 4 6.236 40.5224 -124.3276 16.295 1.968 0.131 0.131 0.435 81 
1584B 3.384 0.90 P 
KCT 3.837 0.50 P 
1023 3.954 0.93 P 
1586 4.874 0.93 P 
89462 5.214 0.94 P 
KMPB 5.367 0.42 P 
B046 5.542 0.96 P 
PETL 6.154 0.54 P 
1581 6.254 0.94 P 
RBOW 6.274 0.52 P 
KCO 6.757 0.94 P 
89781 6.854 0.95 P 
BJES 7.684 0.89 P 
KNEE 8.368 0.53 P 
1580 8.514 0.99 P 
KPR 8.524 0.60 P 
KCR 8.874 0.55 P 
KBU 9.994 0.57 P 
B049 10.192 0.85 P 
PRDS 10.294 0.64 P 
89688 10.374 0.79 P 
KHMB 11.617 0.57 P 
B935 11.662 0.76 P 
KMR 11.937 0.43 P 
BRIC 11.954 0.42 P 
1591 12.454 0.92 P 
KCSB 12.737 0.78 P 
HAYF 14.385 0.77 P 
KHBB 15.547 0.33 P 
WEAV 17.654 0.95 P 
TRIN 22.237 0.91 P 
LBK 23.334 0.95 P 
SCOT 23.777 0.43 P 
1584B 6.064 0.88 S 
KCT 6.907 0.71 S 
1023 7.734 0.89 S 
1586 9.214 0.87 S 
KMPB 9.427 0.57 S 
89462 9.464 0.90 S 
B046 9.892 0.90 S 
PETL 10.854 0.37 S 
RBOW 11.054 0.33 S 
1581 11.254 0.89 S 
KCO 11.897 0.91 S 
89781 12.334 0.89 S 
BJES 13.984 0.75 S 
1580 14.894 0.90 S 
KPR 15.254 0.58 S 
KNEE 15.284 0.40 S 
KCR 15.894 0.59 S 
PRDS 17.654 0.35 S 
89688 17.974 0.79 S 
KBU 18.174 0.56 S 
B049 18.182 0.86 S 
KHMB 19.997 0.67 S 
BRIC 20.524 0.47 S 
KMR 20.747 0.84 S 
B935 21.082 0.88 S 
1591 22.454 0.82 S 
KRP 23.497 0.80 S 
B934 26.572 0.50 S 
HAYF 28.297 0.33 S 
LBK 40.674 0.67 S 
# 2022 12 20 11 4 24.737 40.5413 -124.2077 17.303 1.607 0.170 0.170 0.693 82 
1584B 3.423 0.96 P 
RBOW 4.793 0.63 P 
KCO 5.996 0.84 P 
1581 6.873 0.82 P 
KNEE 7.017 1.02 P 
PETL 7.523 0.39 P 
KCR 7.553 0.65 P 
KPR 7.793 0.50 P 
DMOR 7.943 0.87 P 
KBU 8.973 0.60 P 
B049 9.221 0.96 P 
PRDS 9.553 0.60 P 
KHMB 10.336 0.82 P 
B935 10.581 0.93 P 
KMR 10.876 0.96 P 
BRIC 11.223 0.94 P 
1584B 6.703 0.67 S 
1023 7.533 0.50 S 
89462 7.913 0.86 S 
1586 8.123 0.86 S 
KMPB 8.336 0.46 S 
1581 10.033 0.73 S 
B046 10.441 0.91 S 
89781 10.833 0.91 S 
PETL 11.593 0.35 S 
KCO 12.286 0.91 S 
KNEE 12.553 0.34 S 
KCR 13.423 0.55 S 
KPR 14.013 0.88 S 
DMOR 14.463 0.34 S 
KBU 16.773 0.63 S 
B049 16.911 0.99 S 
PRDS 17.177 0.39 S 
B935 17.721 0.96 S 
KMR 19.666 0.68 S 
BRIC 19.703 0.55 S 
KHBB 26.276 0.48 S 
# 2022 12 20 11 5 2.028 40.5335 -124.3437 17.192 2.558 0.124 0.124 0.486 83 
1584B 3.532 0.98 P 
1023 3.642 0.91 P 
KCT 4.195 0.36 P 
1586 4.922 0.97 P 
89462 5.402 0.95 P 
KMPB 5.595 0.50 P 
1581 5.952 0.94 P 
B046 5.990 0.98 P 
PETL 6.532 0.54 P 
RBOW 6.552 0.48 P 
89781 6.692 0.93 P 
KCO 7.125 0.97 P 
BJES 7.832 0.71 P 
1580 8.312 0.97 P 
KNEE 8.322 0.47 P 
KPR 8.782 0.62 P 
KCR 8.962 0.60 P 
DMOR 9.252 0.40 P 
PRDS 10.152 0.52 P 
KBU 10.202 0.51 P 
B049 10.350 0.86 P 
89688 10.492 0.79 P 
KTD 10.642 0.93 P 
KHMB 11.515 0.46 P 
B935 11.730 0.86 P 
KMR 11.855 0.39 P 
BRIC 12.172 0.39 P 
KRP 12.515 0.89 P 
KCSB 12.655 0.83 P 
1591 12.662 0.93 P 
HAYF 15.425 0.87 P 
KHBB 15.625 0.58 P 
79046 16.892 0.90 P 
KOM 17.515 0.99 P 
KFP 19.332 0.93 P 
KBN 19.782 0.85 P 
PETY 21.343 0.48 P 
TRIN 22.023 0.60 P 
KRK 22.722 0.78 P 
GNR 23.122 0.87 P 
LBK 23.312 0.95 P 
SCOT 23.635 0.54 P 
GROB 24.162 0.49 P 
GHO 25.442 0.92 P 
GUMB 25.812 0.44 P 
GCWB 27.802 0.52 P 
1584B 6.552 0.90 S 
KCT 7.545 0.66 S 
1023 7.922 0.66 S 
1586 9.092 0.83 S 
KMPB 9.825 0.58 S 
89462 9.842 0.91 S 
B046 10.460 0.91 S 
1581 10.992 0.91 S 
PETL 11.342 0.41 S 
RBOW 11.362 0.40 S 
89781 12.092 0.90 S 
KCO 12.395 0.91 S 
1580 14.712 0.90 S 
KNEE 15.136 0.41 S 
KPR 15.822 0.56 S 
KCR 15.982 0.51 S 
PRDS 17.892 0.35 S 
KBU 18.082 0.60 S 
89688 18.152 0.78 S 
B049 18.350 0.88 S 
KHMB 20.705 0.59 S 
BRIC 20.982 0.50 S 
B935 21.030 0.89 S 
KMR 21.605 0.83 S 
KRP 22.125 0.88 S 
1591 22.402 0.85 S 
KCSB 22.505 0.89 S 
B934 26.700 0.74 S 
KHBB 27.065 0.57 S 
79046 27.312 0.50 S 
HAYF 28.105 0.47 S 
KIP 31.142 0.86 S 
KOM 31.865 0.82 S 
KFP 33.942 0.67 S 
TRIN 39.105 0.40 S 
PETY 39.625 0.50 S 
GNR 40.422 0.42 S 
SCOT 40.905 0.56 S 
LBK 41.422 0.86 S 
GUMB 45.476 0.57 S 
# 2022 12 20 11 5 31.810 40.5246 -124.3913 17.008 1.691 0.180 0.180 0.472 84 
KCT 4.123 0.70 P 
1586 5.430 1.00 P 
B046 5.868 1.02 P 
KMPB 5.993 0.61 P 
RBOW 6.750 0.37 P 
KCO 6.923 0.98 P 
KPR 8.800 1.00 P 
1580 8.870 0.83 P 
KCR 9.660 0.64 P 
DMOR 9.850 0.34 P 
PRDS 10.190 0.81 P 
KBU 10.540 0.61 P 
89688 10.680 0.92 P 
B935 11.808 0.93 P 
1584B 6.690 0.95 S 
KCT 7.353 0.67 S 
1023 8.350 0.60 S 
1586 9.960 0.90 S 
B046 10.088 0.90 S 
KMPB 10.373 0.60 S 
89462 10.860 0.81 S 
1581 11.600 0.35 S 
BJES 15.110 0.68 S 
KPR 15.520 0.86 S 
1580 15.620 0.97 S 
KCR 17.330 0.60 S 
89688 18.640 0.73 S 
KBU 18.800 0.76 S 
B049 18.888 0.74 S 
BRIC 21.230 0.51 S 
B935 22.128 0.92 S 
1591 22.960 0.86 S 
