# 2022 12 20 10 29 22.426 40.4003 -124.2828 18.965 0.189 0.195 0.195 0.352 1 
B046 3.832 0.89 P 
PETL 4.264 0.66 P 
B932 4.302 0.88 P 
KCT 4.327 0.83 P 
B047 4.942 0.89 P 
B045 5.732 0.72 P 
KPR 6.304 0.67 P 
PRDS 7.438 0.66 P 
KBU 8.334 0.85 P 
B049 8.532 0.84 P 
BRIC 9.784 0.59 P 
B935 11.102 0.72 P 
B046 6.952 0.85 S 
PETL 7.684 0.62 S 
B932 7.872 0.86 S 
KCT 8.267 0.55 S 
KMPB 8.377 0.81 S 
RBOW 8.574 0.85 S 
B047 8.872 0.86 S 
B045 10.292 0.77 S 
1023 10.724 0.78 S 
KPR 11.424 0.63 S 
PRDS 13.388 0.66 S 
BJES 14.434 0.77 S 
KBU 15.184 0.84 S 
B049 15.322 0.83 S 
BRIC 16.944 0.73 S 
DMOR 19.114 0.65 S 
# 2022 12 20 10 34 24.636 40.5162 -124.4174 13.059 6.176 0.099 0.099 0.620 2 
1584B 3.884 0.86 P 
KCT 3.967 0.64 P 
1023 4.594 0.91 P 
1586 5.674 0.90 P 
B046 5.892 0.87 P 
89255 6.084 0.87 P 
KMPB 6.247 0.61 P 
89462 6.284 0.88 P 
1582 6.394 0.88 P 
1581 6.804 0.90 P 
B932 6.812 0.86 P 
RBOW 7.004 0.59 P 
KCO 7.127 0.89 P 
B045 7.502 0.87 P 
89781 7.624 0.91 P 
B047 7.652 0.88 P 
BJES 9.004 0.87 P 
KPR 9.084 0.65 P 
1580 9.154 0.89 P 
KNEE 9.568 0.51 P 
KCR 9.924 0.50 P 
PRDS 10.484 0.61 P 
DMOR 10.484 0.62 P 
89688 10.764 0.85 P 
KBU 10.954 0.60 P 
B049 11.092 0.84 P 
KTD 11.334 0.89 P 
BRIC 12.524 0.55 P 
KHMB 12.617 0.70 P 
KMR 12.637 0.55 P 
B935 12.892 0.88 P 
1591 13.254 0.85 P 
KRP 13.397 0.89 P 
KCSB 13.807 0.85 P 
99700 14.604 0.83 P 
B934 16.012 0.68 P 
79046 16.124 0.82 P 
HAYF 16.557 0.59 P 
KHBB 16.737 0.87 P 
KOM 18.487 0.56 P 
RVIT 18.694 0.89 P 
WEAV 19.154 0.52 P 
KBN 20.314 0.59 P 
79036 21.194 0.84 P 
MNDO 21.644 0.82 P 
DCMP 21.927 0.52 P 
PETY 22.177 0.86 P 
KRK 22.814 0.50 P 
79668 23.284 0.70 P 
LSF 24.074 0.93 P 
LBK 24.074 0.89 P 
LRB 24.734 0.57 P 
SCOT 24.897 0.62 P 
GHO 25.874 0.60 P 
1584B 6.884 0.78 S 
KCT 7.447 0.67 S 
1023 8.704 0.83 S 
KMPB 10.897 0.68 S 
PETL 11.114 0.67 S 
89255 11.174 0.78 S 
1586 11.174 0.77 S 
89462 11.574 0.82 S 
B932 11.942 0.70 S 
1582 12.294 0.81 S 
RBOW 13.074 0.57 S 
1581 13.214 0.83 S 
KCO 13.317 0.82 S 
B047 13.432 0.77 S 
B045 13.692 0.84 S 
89781 13.814 0.79 S 
BJES 16.514 0.80 S 
KPR 16.994 0.79 S 
KNEE 16.994 0.72 S 
1580 17.254 0.85 S 
KCR 18.094 0.79 S 
PRDS 18.864 0.55 S 
89688 19.294 0.83 S 
89464 19.414 0.82 S 
DMOR 19.594 0.83 S 
KBU 19.774 0.86 S 
B049 19.972 0.74 S 
KTD 21.284 0.80 S 
BRIC 21.934 0.63 S 
B935 22.242 0.85 S 
KHMB 22.997 0.72 S 
1591 23.474 0.81 S 
KMR 24.377 0.68 S 
KRP 24.907 0.82 S 
KCSB 24.917 0.82 S 
99700 26.994 0.81 S 
KHBB 29.497 0.61 S 
HAYF 29.665 0.59 S 
KOM 32.937 0.82 S 
WEAV 34.084 0.62 S 
RVIT 35.134 0.54 S 
79298 37.204 0.68 S 
KBN 38.404 0.55 S 
DCMP 38.845 0.52 S 
SCOT 43.067 0.53 S 
# 2022 12 20 10 35 59.191 40.5847 -124.1170 17.544 4.755 0.155 0.155 0.295 3 
89255 3.709 0.78 P 
89462 4.189 0.85 P 
1586 4.309 0.79 P 
1582 4.479 0.79 P 
1023 4.669 0.84 P 
KMPB 5.112 0.65 P 
B045 5.137 0.81 P 
89781 5.199 0.85 P 
BJES 5.219 0.82 P 
1580 6.599 0.83 P 
KCR 6.849 0.82 P 
B046 7.217 0.82 P 
B932 7.467 0.78 P 
B047 7.767 0.82 P 
PETL 7.939 0.82 P 
KCO 8.042 0.79 P 
KHMB 8.932 0.81 P 
KBU 9.009 0.79 P 
B049 9.177 0.79 P 
PRDS 10.303 0.52 P 
89688 10.889 0.76 P 
89255 7.149 0.78 S 
89462 7.779 0.83 S 
1586 8.139 0.79 S 
1582 8.299 0.80 S 
1023 8.969 0.79 S 
1584B 9.149 0.83 S 
B045 9.187 0.82 S 
1581 9.269 0.71 S 
KMPB 9.382 0.60 S 
BJES 9.409 0.79 S 
89781 9.489 0.79 S 
KCT 10.432 0.83 S 
RBOW 11.179 0.79 S 
KCR 12.209 0.79 S 
1580 12.219 0.80 S 
B046 12.657 0.79 S 
B932 13.107 0.76 S 
B047 13.787 0.76 S 
PETL 13.909 0.78 S 
KBU 15.819 0.78 S 
B049 16.157 0.78 S 
KHMB 16.592 0.79 S 
KTD 17.119 0.78 S 
PRDS 18.469 0.58 S 
KMR 19.582 0.51 S 
BRIC 20.039 0.66 S 
# 2022 12 20 10 36 14.802 40.5022 -124.3265 16.805 2.383 0.229 0.229 0.448 4 
KCT 3.801 0.68 P 
B046 4.336 0.70 P 
1586 4.798 0.85 P 
B045 6.966 0.63 P 
BJES 8.548 0.54 P 
89688 10.268 0.50 P 
1584B 6.078 0.82 S 
KCT 7.171 0.65 S 
KMPB 9.261 0.57 S 
1586 9.348 0.78 S 
89462 9.408 0.79 S 
B046 9.666 0.79 S 
B932 10.076 0.71 S 
PETL 10.558 0.80 S 
B045 11.186 0.65 S 
B049 17.906 0.50 S 
# 2022 12 20 10 36 38.936 40.6806 -123.8433 20.626 3.042 0.217 0.217 0.444 5 
KNEE 4.548 0.50 P 
89781 6.194 0.78 P 
KHMB 6.217 0.85 P 
1580 6.504 0.84 P 
1582 6.634 0.79 P 
1581 6.794 0.69 P 
B045 6.802 0.82 P 
89462 7.014 0.79 P 
B935 7.262 0.80 P 
1586 7.274 0.85 P 
KCSB 7.457 0.82 P 
KMPB 8.277 0.68 P 
1584B 8.614 0.60 P 
RBOW 8.814 0.54 P 
B049 9.462 0.72 P 
KHBB 10.147 0.63 P 
WEAV 12.594 0.81 P 
KNEE 8.094 0.70 S 
89781 11.114 0.78 S 
KHMB 11.247 0.76 S 
1580 11.354 0.80 S 
B045 12.322 0.74 S 
1582 12.724 0.81 S 
1581 12.824 0.77 S 
KMPB 14.327 0.58 S 
RBOW 15.594 0.70 S 
1584B 15.884 0.73 S 
B049 16.882 0.79 S 
KHBB 17.927 0.74 S 
B047 18.182 0.57 S 
HAYF 18.457 0.64 S 
B932 19.992 0.76 S 
KCO 20.967 0.76 S 
# 2022 12 20 10 36 47.305 40.5036 -124.4365 16.100 2.932 0.263 0.263 0.616 6 
1023 3.695 0.82 P 
KCT 4.258 0.66 P 
B046 5.743 0.79 P 
KMPB 5.888 0.70 P 
PETL 5.975 0.81 P 
1586 6.485 0.55 P 
KCO 6.818 0.79 P 
89688 10.335 0.82 P 
BRIC 12.815 0.76 P 
KCT 7.938 0.65 S 
1023 9.225 0.54 S 
B046 9.713 0.77 S 
PETL 10.775 0.79 S 
KMPB 11.458 0.56 S 
RBOW 12.585 0.57 S 
KPR 16.015 0.61 S 
PRDS 18.115 0.75 S 
89688 18.345 0.78 S 
B049 20.103 0.51 S 
BRIC 21.865 0.72 S 
# 2022 12 20 10 37 8.918 40.7611 -123.8938 26.569 3.526 0.237 0.237 0.352 7 
DMOR 4.592 0.74 P 
KNEE 5.022 0.60 P 
1580 5.542 0.82 P 
89781 5.672 0.83 P 
KHMB 6.045 0.64 P 
1582 6.372 0.82 P 
1581 6.402 0.84 P 
BJES 6.562 0.84 P 
KTD 7.672 0.85 P 
B935 8.320 0.84 P 
KRP 8.725 0.78 P 
99700 10.212 0.73 P 
KHBB 10.615 0.59 P 
KOM 11.895 0.65 P 
TRIN 16.715 0.71 P 
SCOT 17.715 0.64 P 
KNEE 9.046 0.55 S 
DMOR 9.392 0.81 S 
1580 9.932 0.77 S 
89781 10.322 0.79 S 
KHMB 10.855 0.65 S 
BJES 11.682 0.81 S 
1581 11.862 0.79 S 
KTD 13.692 0.77 S 
KCR 14.192 0.74 S 
B935 15.140 0.80 S 
KHBB 18.075 0.65 S 
# 2022 12 20 10 37 20.907 40.5307 -124.3233 16.393 3.966 0.124 0.124 0.506 8 
1584B 3.533 0.89 P 
1023 3.933 0.77 P 
1586 4.693 0.89 P 
89462 5.183 0.90 P 
1582 5.373 0.89 P 
KMPB 5.376 0.87 P 
1581 5.733 0.91 P 
B046 5.781 0.89 P 
PETL 6.213 0.58 P 
RBOW 6.353 0.51 P 
B045 6.441 0.77 P 
89781 6.453 0.90 P 
B932 6.501 0.83 P 
KCO 6.916 0.87 P 
B047 7.191 0.87 P 
BJES 7.643 0.81 P 
1580 8.013 0.91 P 
KNEE 8.203 0.59 P 
KPR 8.653 0.63 P 
KCR 8.773 0.66 P 
PRDS 10.027 0.59 P 
KBU 10.083 0.69 P 
B049 10.191 0.80 P 
89688 10.303 0.83 P 
KTD 10.363 0.91 P 
DMOR 10.453 0.56 P 
B935 11.571 0.82 P 
KMR 11.926 0.68 P 
1591 12.283 0.84 P 
99700 13.843 0.89 P 
HAYF 15.826 0.87 P 
79046 17.103 0.69 P 
TRIN 23.136 0.57 P 
1584B 6.393 0.82 S 
1023 7.673 0.82 S 
KCT 7.746 0.70 S 
1586 8.923 0.74 S 
89462 9.573 0.84 S 
KMPB 9.596 0.59 S 
1582 10.293 0.73 S 
B046 10.301 0.82 S 
RBOW 11.133 0.68 S 
PETL 11.223 0.56 S 
B045 11.401 0.80 S 
B932 11.411 0.65 S 
89781 11.943 0.83 S 
KCO 12.216 0.82 S 
B047 12.601 0.78 S 
BJES 13.823 0.71 S 
1580 14.623 0.82 S 
KNEE 14.873 0.59 S 
KPR 15.273 0.69 S 
KCR 15.853 0.74 S 
DMOR 17.533 0.80 S 
PRDS 17.647 0.55 S 
89688 17.973 0.81 S 
KBU 18.153 0.59 S 
B049 18.201 0.83 S 
KTD 18.743 0.83 S 
KHMB 20.616 0.76 S 
BRIC 20.933 0.52 S 
KMR 21.336 0.63 S 
1591 22.183 0.84 S 
99700 25.943 0.81 S 
B934 26.441 0.79 S 
79046 27.223 0.61 S 
HAYF 28.334 0.57 S 
RVIT 32.323 0.56 S 
# 2022 12 20 10 38 2.832 40.6264 -124.0017 19.941 3.766 0.125 0.125 0.527 9 
KNEE 4.738 0.59 P 
BJES 4.778 0.71 P 
1582 5.238 0.83 P 
89462 5.278 0.84 P 
89781 5.418 0.86 P 
B045 5.556 0.84 P 
1586 5.578 0.86 P 
1581 5.648 0.85 P 
KMPB 6.151 0.65 P 
1023 6.228 0.84 P 
1580 6.268 0.84 P 
KCR 6.308 0.66 P 
1584B 6.618 0.84 P 
RBOW 7.148 0.62 P 
KCT 7.371 0.66 P 
KHMB 7.661 0.69 P 
B935 8.016 0.88 P 
B046 8.326 0.86 P 
B932 8.396 0.85 P 
B047 8.696 0.85 P 
KCSB 8.711 0.84 P 
KBU 8.858 0.57 P 
B049 8.886 0.84 P 
KPR 8.978 0.62 P 
KCO 9.101 0.86 P 
KTD 9.128 0.83 P 
PETL 9.248 0.80 P 
KMR 10.111 0.62 P 
KRP 10.551 0.86 P 
PRDS 10.782 0.57 P 
1591 11.278 0.83 P 
BRIC 11.558 0.53 P 
89688 11.578 0.82 P 
KHBB 11.651 0.63 P 
HAYF 11.731 0.56 P 
99700 11.878 0.85 P 
KOM 14.171 0.60 P 
WEAV 14.198 0.55 P 
B934 14.806 0.85 P 
79046 15.458 0.81 P 
KBN 17.438 0.53 P 
KFP 18.618 0.54 P 
TRIN 19.001 0.51 P 
GUMB 22.328 0.85 P 
GROB 22.648 0.50 P 
KNEE 8.738 0.56 S 
89462 9.658 0.82 S 
1582 9.898 0.78 S 
B045 9.906 0.81 S 
89781 9.948 0.80 S 
1586 10.428 0.78 S 
1581 10.788 0.80 S 
KMPB 11.131 0.62 S 
KCR 11.248 0.58 S 
1580 11.478 0.78 S 
1023 11.788 0.68 S 
1584B 11.988 0.80 S 
RBOW 13.128 0.52 S 
KCT 13.471 0.57 S 
KHMB 14.001 0.59 S 
B935 14.396 0.81 S 
B932 14.786 0.77 S 
B046 14.796 0.79 S 
B047 15.216 0.76 S 
B049 15.706 0.77 S 
KBU 15.748 0.78 S 
KPR 15.838 0.64 S 
KCSB 15.971 0.81 S 
PETL 16.038 0.53 S 
KCO 16.221 0.80 S 
KTD 16.338 0.75 S 
KMR 18.051 0.61 S 
KRP 18.751 0.76 S 
PRDS 19.032 0.53 S 
89688 19.748 0.78 S 
1591 20.258 0.80 S 
BRIC 20.298 0.65 S 
KHBB 20.581 0.63 S 
HAYF 20.641 0.57 S 
99700 21.328 0.77 S 
KOM 24.901 0.62 S 
WEAV 25.128 0.58 S 
B934 27.046 0.81 S 
RVIT 29.658 0.81 S 
79046 29.688 0.75 S 
KIP 30.708 0.62 S 
KBN 32.858 0.76 S 
TRIN 33.861 0.52 S 
PETY 33.981 0.75 S 
SCOT 34.981 0.73 S 
GUMB 39.228 0.61 S 
# 2022 12 20 10 39 2.264 40.5200 -124.1809 27.597 5.127 0.133 0.133 0.465 10 
1584B 4.896 0.88 P 
89462 5.036 0.89 P 
KMPB 5.159 0.50 P 
1023 5.196 0.88 P 
1586 5.376 0.85 P 
B045 5.474 0.74 P 
1582 5.716 0.83 P 
RBOW 5.876 0.58 P 
1581 6.076 0.86 P 
B046 6.094 0.83 P 
B932 6.364 0.86 P 
BJES 6.376 0.67 P 
89781 6.436 0.79 P 
B047 6.804 0.81 P 
KCO 6.919 0.83 P 
PETL 7.006 0.62 P 
KNEE 7.126 0.64 P 
KCR 7.276 0.67 P 
KPR 7.626 0.69 P 
1580 7.656 0.82 P 
DMOR 7.776 0.51 P 
KBU 8.556 0.72 P 
B049 8.624 0.79 P 
PRDS 9.416 0.76 P 
89688 9.556 0.81 P 
B935 9.724 0.85 P 
KTD 10.036 0.86 P 
KMR 10.169 0.73 P 
KHMB 10.269 0.70 P 
KCSB 10.589 0.84 P 
1591 10.806 0.85 P 
KRP 12.009 0.80 P 
99700 13.336 0.69 P 
HAYF 13.379 0.63 P 
KHBB 13.749 0.63 P 
B934 14.054 0.84 P 
79046 14.496 0.83 P 
RVIT 16.206 0.82 P 
WEAV 16.336 0.59 P 
KOM 16.339 0.59 P 
KFP 18.146 0.66 P 
79036 18.346 0.89 P 
79298 18.466 0.86 P 
DCMP 20.019 0.53 P 
MNDO 20.056 0.88 P 
TRIN 20.329 0.51 P 
LSF 21.346 0.88 P 
79668 21.426 0.85 P 
LBK 21.596 0.88 P 
SCOT 22.129 0.53 P 
LRB 22.706 0.67 P 
GBL 22.736 0.67 P 
GVA 22.806 0.52 P 
GWR 23.626 0.56 P 
GHO 24.186 0.59 P 
GCWB 25.866 0.56 P 
1584B 8.826 0.81 S 
89462 9.186 0.74 S 
KMPB 9.199 0.70 S 
B045 9.754 0.84 S 
1023 9.866 0.63 S 
1586 10.036 0.79 S 
KCT 10.269 0.66 S 
RBOW 10.486 0.60 S 
1582 10.706 0.85 S 
B046 11.044 0.82 S 
1581 11.336 0.83 S 
89781 11.746 0.83 S 
PETL 12.086 0.53 S 
B047 12.114 0.81 S 
KCO 12.679 0.83 S 
KNEE 12.986 0.51 S 
KCR 13.026 0.52 S 
1580 13.806 0.81 S 
KPR 14.106 0.57 S 
DMOR 14.626 0.78 S 
B049 15.344 0.82 S 
KBU 15.466 0.55 S 
89688 16.936 0.81 S 
B935 17.424 0.82 S 
KHMB 17.909 0.56 S 
KTD 18.076 0.82 S 
KMR 18.109 0.52 S 
BRIC 18.436 0.56 S 
KCSB 18.939 0.83 S 
1591 19.036 0.80 S 
KRP 21.339 0.82 S 
99700 23.786 0.80 S 
KHBB 23.949 0.63 S 
B934 24.494 0.83 S 
79046 25.466 0.82 S 
KOM 28.389 0.82 S 
RVIT 28.546 0.56 S 
WEAV 28.646 0.53 S 
KFP 31.516 0.62 S 
79298 31.936 0.69 S 
PETY 32.689 0.66 S 
DCMP 35.017 0.66 S 
MNDO 35.386 0.84 S 
TRIN 35.389 0.57 S 
SCOT 37.999 0.57 S 
LSF 38.666 0.77 S 
GBL 40.406 0.57 S 
GWR 40.766 0.80 S 
GUMB 42.160 0.55 S 
GHO 42.506 0.60 S 
GCWB 44.296 0.70 S 
GTSB 47.706 0.62 S 
# 2022 12 20 10 39 46.214 40.5361 -124.3323 16.480 2.892 0.166 0.166 0.369 11 
KCT 4.049 0.66 P 
1586 4.806 0.87 P 
89462 5.306 0.84 P 
1582 5.506 0.78 P 
KMPB 5.509 0.64 P 
B046 5.864 0.84 P 
1581 5.896 0.81 P 
PETL 6.396 0.55 P 
RBOW 6.396 0.80 P 
B045 6.544 0.84 P 
89781 6.606 0.84 P 
KCO 6.999 0.82 P 
B047 7.204 0.84 P 
1580 8.186 0.83 P 
KPR 8.536 0.63 P 
KCR 9.016 0.74 P 
PRDS 10.056 0.66 P 
KBU 10.186 0.74 P 
B049 10.284 0.81 P 
89688 10.456 0.69 P 
KHMB 11.469 0.73 P 
BRIC 12.066 0.74 P 
1584B 6.406 0.81 S 
KCT 7.329 0.68 S 
1586 9.036 0.83 S 
89462 9.706 0.78 S 
KMPB 9.729 0.65 S 
B046 10.364 0.82 S 
PETL 11.226 0.60 S 
RBOW 11.266 0.60 S 
B045 11.514 0.74 S 
89781 12.236 0.79 S 
KCO 12.279 0.82 S 
B047 12.704 0.71 S 
1580 14.656 0.80 S 
KPR 15.356 0.68 S 
BJES 15.386 0.71 S 
DMOR 17.836 0.65 S 
PRDS 18.076 0.55 S 
B049 18.294 0.79 S 
KHMB 20.619 0.74 S 
BRIC 20.806 0.74 S 
# 2022 12 20 10 40 3.562 40.6176 -124.0972 19.483 3.195 0.180 0.180 0.433 12 
1586 4.458 0.83 P 
1581 4.668 0.82 P 
BJES 4.688 0.83 P 
89781 4.798 0.82 P 
89462 4.838 0.83 P 
B045 4.966 0.69 P 
KNEE 5.438 0.62 P 
1584B 5.468 0.84 P 
1580 5.988 0.84 P 
KCR 6.338 0.74 P 
KMPB 6.431 0.60 P 
RBOW 6.788 0.57 P 
B047 8.196 0.83 P 
KHMB 8.391 0.61 P 
KCO 8.441 0.80 P 
KPR 8.648 0.65 P 
B935 9.076 0.82 P 
KBU 9.238 0.63 P 
B049 9.306 0.79 P 
KCSB 10.011 0.81 P 
KMR 10.751 0.81 P 
BRIC 11.798 0.75 P 
KHBB 12.551 0.79 P 
1586 8.578 0.77 S 
89462 8.968 0.76 S 
1581 8.968 0.73 S 
89781 8.968 0.75 S 
1023 9.688 0.80 S 
KNEE 9.712 0.58 S 
BJES 9.928 0.83 S 
1584B 10.008 0.77 S 
B045 10.276 0.64 S 
KMPB 10.371 0.56 S 
1580 10.918 0.80 S 
RBOW 12.118 0.58 S 
KCR 12.658 0.76 S 
B046 13.466 0.75 S 
B047 14.546 0.80 S 
PETL 14.698 0.50 S 
KCO 15.051 0.77 S 
KHMB 15.291 0.66 S 
KPR 15.938 0.65 S 
KBU 16.328 0.68 S 
B935 16.656 0.83 S 
B049 16.696 0.77 S 
KMR 19.491 0.62 S 
BRIC 21.158 0.72 S 
# 2022 12 20 10 40 16.905 40.5166 -124.4009 16.437 3.296 0.148 0.148 0.466 13 
KCT 3.168 0.66 P 
1023 4.625 0.84 P 
B046 5.553 0.83 P 
89462 5.605 0.83 P 
1586 5.605 0.81 P 
PETL 6.055 0.56 P 
KMPB 6.168 0.60 P 
1581 6.635 0.83 P 
RBOW 6.915 0.57 P 
KCO 6.998 0.82 P 
B045 7.073 0.77 P 
B047 7.553 0.82 P 
KPR 8.865 0.55 P 
1580 8.925 0.82 P 
KCR 9.725 0.57 P 
DMOR 10.185 0.74 P 
PRDS 10.495 0.52 P 
89688 10.625 0.78 P 
KBU 10.765 0.71 P 
B049 10.913 0.82 P 
BRIC 12.265 0.53 P 
B935 12.493 0.79 P 
1591 12.695 0.81 P 
KMR 12.728 0.81 P 
KHMB 13.428 0.53 P 
1584B 6.935 0.82 S 
KCT 7.448 0.64 S 
1023 8.745 0.78 S 
B046 10.023 0.75 S 
1586 10.295 0.73 S 
PETL 10.815 0.56 S 
KMPB 10.878 0.61 S 
89462 11.185 0.73 S 
1581 12.115 0.78 S 
RBOW 12.135 0.64 S 
KCO 12.308 0.74 S 
B047 13.013 0.66 S 
89781 13.425 0.73 S 
KPR 15.915 0.70 S 
1580 15.935 0.81 S 
KNEE 16.655 0.51 S 
KCR 17.505 0.70 S 
PRDS 18.139 0.53 S 
89688 18.535 0.72 S 
KBU 18.545 0.52 S 
B049 19.263 0.76 S 
DMOR 19.345 0.81 S 
BRIC 21.675 0.54 S 
1591 22.985 0.78 S 
B934 27.393 0.68 S 
79046 27.665 0.68 S 
# 2022 12 20 10 40 29.915 40.5034 -124.4333 18.779 3.261 0.210 0.210 0.461 14 
1584B 4.535 0.74 P 
KCT 4.588 0.58 P 
89462 5.005 0.54 P 
B046 5.783 0.75 P 
PETL 5.955 0.60 P 
1586 5.995 0.64 P 
KMPB 6.488 0.60 P 
KCO 6.668 0.73 P 
RBOW 7.115 0.52 P 
B047 7.373 0.75 P 
KPR 8.775 0.57 P 
PRDS 9.855 0.59 P 
1584B 8.185 0.75 S 
KCT 8.598 0.56 S 
1023 9.575 0.72 S 
B046 10.293 0.74 S 
1586 11.225 0.73 S 
KMPB 11.468 0.60 S 
89462 12.085 0.65 S 
KCO 12.258 0.70 S 
1581 12.495 0.60 S 
RBOW 12.555 0.52 S 
B047 12.943 0.69 S 
B045 13.413 0.73 S 
KPR 15.645 0.56 S 
B049 19.483 0.69 S 
BRIC 21.475 0.51 S 
# 2022 12 20 10 40 44.814 40.5358 -124.1025 24.085 2.107 0.219 0.219 0.894 15 
B045 4.224 0.78 P 
89462 5.046 0.86 P 
KMPB 5.169 0.67 P 
1586 5.386 0.82 P 
89781 5.776 0.76 P 
RBOW 5.786 0.53 P 
1581 6.006 0.83 P 
B046 6.114 0.69 P 
PETL 6.796 0.68 P 
B047 6.824 0.74 P 
1584B 6.836 0.58 P 
KCO 6.959 0.72 P 
KNEE 7.076 0.54 P 
KBU 7.136 0.64 P 
KCR 7.166 0.58 P 
KPR 7.636 0.67 P 
B049 8.644 0.81 P 
DMOR 8.866 0.57 P 
PRDS 9.436 0.60 P 
89688 9.676 0.76 P 
B935 9.744 0.59 P 
KHBB 9.779 0.59 P 
KHMB 10.139 0.71 P 
BRIC 10.636 0.82 P 
KOM 16.239 0.56 P 
KNEE 8.986 0.55 S 
KMPB 9.199 0.59 S 
B045 9.204 0.66 S 
89462 9.266 0.77 S 
KCR 9.316 0.64 S 
1023 9.796 0.81 S 
1586 9.986 0.81 S 
RBOW 10.356 0.62 S 
B046 10.574 0.64 S 
1581 11.236 0.82 S 
89781 11.246 0.81 S 
BJES 11.346 0.57 S 
B047 11.994 0.77 S 
1580 12.216 0.76 S 
KCO 12.279 0.74 S 
KPR 13.766 0.62 S 
KBU 15.156 0.56 S 
PRDS 16.060 0.55 S 
89688 17.146 0.78 S 
BRIC 18.166 0.72 S 
B934 24.234 0.69 S 
79046 25.276 0.65 S 
# 2022 12 20 10 41 6.741 40.3829 -124.2055 9.168 1.920 0.244 0.244 0.602 16 
B045 3.387 0.51 P 
KCT 3.822 0.73 P 
PETL 4.479 0.52 P 
1584B 4.699 0.70 P 
1586 7.399 0.73 P 
KHBB 15.802 0.52 P 
B046 3.917 0.72 S 
RBOW 5.329 0.69 S 
KCO 5.952 0.63 S 
B047 6.547 0.72 S 
KCT 6.922 0.53 S 
KPR 8.609 0.53 S 
1023 10.419 0.65 S 
1586 11.479 0.67 S 
# 2022 12 20 10 41 12.613 40.5621 -123.8442 25.209 2.031 0.234 0.234 0.587 17 
BJES 3.597 0.57 P 
KCR 5.347 0.64 P 
B935 6.065 0.83 P 
KCSB 6.980 0.84 P 
RBOW 7.747 0.51 P 
89781 7.797 0.72 P 
HAYF 9.728 0.54 P 
KHBB 9.960 0.65 P 
1591 10.157 0.79 P 
89688 10.787 0.51 P 
BJES 8.647 0.60 S 
KCR 9.677 0.58 S 
KNEE 10.557 0.70 S 
B935 10.925 0.75 S 
1581 12.137 0.65 S 
KCSB 12.310 0.75 S 
B049 12.525 0.80 S 
89781 13.457 0.58 S 
RBOW 13.737 0.59 S 
KHMB 14.320 0.61 S 
KMR 15.440 0.79 S 
1591 16.687 0.77 S 
HAYF 17.120 0.57 S 
KHBB 17.650 0.61 S 
BRIC 18.257 0.70 S 
PRDS 18.271 0.50 S 
89688 18.827 0.73 S 
# 2022 12 20 10 41 33.148 40.6567 -124.0616 26.468 2.463 0.236 0.236 0.453 18 
1581 4.962 0.69 P 
89781 4.982 0.73 P 
1586 5.222 0.74 P 
1580 5.952 0.78 P 
DMOR 5.982 0.62 P 
B045 6.470 0.72 P 
KMPB 6.605 0.55 P 
KCR 7.612 0.62 P 
B935 8.040 0.63 P 
KCSB 9.775 0.72 P 
KRP 10.075 0.65 P 
KOM 14.215 0.66 P 
89781 9.092 0.73 S 
1581 9.542 0.71 S 
1586 9.712 0.71 S 
1580 10.462 0.73 S 
BJES 10.612 0.75 S 
1023 10.962 0.70 S 
1584B 11.362 0.69 S 
B045 11.450 0.68 S 
KMPB 11.695 0.57 S 
DMOR 11.962 0.74 S 
KCR 13.312 0.55 S 
KHMB 14.465 0.70 S 
B049 15.950 0.56 S 
B935 16.430 0.71 S 
# 2022 12 20 10 41 41.692 40.4794 -124.2854 27.592 2.629 0.195 0.195 1.044 19 
RBOW 5.378 0.58 P 
KCT 6.121 0.53 P 
1586 6.148 0.89 P 
B047 6.316 0.79 P 
PETL 6.328 0.69 P 
KCO 6.501 0.81 P 
KNEE 6.598 0.57 P 
89462 6.818 0.83 P 
1581 6.938 0.88 P 
KPR 7.108 0.62 P 
KMPB 7.111 0.70 P 
89781 7.518 0.88 P 
B045 7.866 0.81 P 
KBU 8.068 0.77 P 
BJES 8.828 0.77 P 
PRDS 8.958 0.71 P 
89688 9.158 0.84 P 
BRIC 10.238 0.61 P 
KMR 10.711 0.56 P 
1591 12.538 0.65 P 
79046 14.158 0.71 P 
HAYF 16.169 0.52 P 
KHBB 16.261 0.54 P 
1584B 8.888 0.79 S 
1023 9.478 0.79 S 
KCT 9.761 0.67 S 
RBOW 9.908 0.63 S 
1586 10.388 0.84 S 
89781 11.088 0.76 S 
PETL 11.378 0.59 S 
89462 11.438 0.81 S 
B047 11.486 0.78 S 
1581 11.778 0.82 S 
KNEE 12.312 0.69 S 
B045 13.006 0.74 S 
KPR 13.238 0.81 S 
B049 14.706 0.69 S 
KBU 14.758 0.76 S 
BJES 14.918 0.67 S 
PRDS 15.752 0.54 S 
89688 16.638 0.76 S 
KMR 17.601 0.54 S 
BRIC 17.648 0.57 S 
KHMB 20.411 0.65 S 
KCSB 22.901 0.71 S 
B934 23.806 0.68 S 
79046 24.358 0.72 S 
# 2022 12 20 10 42 25.647 40.5487 -124.1450 22.814 1.648 0.233 0.233 0.397 20 
89462 4.623 0.83 P 
KMPB 4.656 0.69 P 
B045 5.031 0.75 P 
1023 5.083 0.83 P 
1584B 5.213 0.84 P 
1581 5.593 0.82 P 
BJES 5.823 0.72 P 
89781 5.963 0.78 P 
RBOW 6.153 0.61 P 
KNEE 6.423 0.60 P 
B046 6.721 0.81 P 
KCR 7.133 0.65 P 
B047 7.361 0.83 P 
KBU 8.523 0.80 P 
B049 8.651 0.82 P 
B935 9.471 0.79 P 
BRIC 11.263 0.58 P 
KHBB 13.066 0.64 P 
KMPB 8.616 0.57 S 
89462 8.743 0.80 S 
1586 9.283 0.83 S 
1584B 9.343 0.82 S 
1023 9.603 0.78 S 
B045 9.631 0.81 S 
RBOW 10.753 0.55 S 
89781 10.753 0.76 S 
KNEE 11.643 0.50 S 
KCR 12.513 0.57 S 
KCO 12.546 0.75 S 
B047 12.941 0.80 S 
PETL 13.043 0.53 S 
PRDS 16.123 0.55 S 
B049 16.571 0.54 S 
B935 16.751 0.79 S 
# 2022 12 20 10 42 58.460 40.5615 -124.2184 22.810 1.533 0.255 0.255 0.404 21 
1584B 4.670 0.62 P 
1586 4.790 0.69 P 
1581 5.330 0.69 P 
89781 5.720 0.67 P 
B045 6.048 0.80 P 
BJES 6.560 0.76 P 
RBOW 6.620 0.61 P 
KNEE 6.780 0.58 P 
B047 7.578 0.69 P 
KCO 7.713 0.62 P 
KCR 7.790 0.62 P 
1580 8.140 0.77 P 
KBU 9.330 0.61 P 
B935 10.258 0.76 P 
89688 10.340 0.73 P 
KHMB 11.543 0.73 P 
KHBB 13.893 0.53 P 
1023 8.040 0.66 S 
1586 8.890 0.75 S 
89462 9.470 0.78 S 
KMPB 9.733 0.73 S 
1581 9.880 0.75 S 
89781 10.310 0.70 S 
B045 10.688 0.78 S 
RBOW 11.350 0.74 S 
BJES 11.850 0.59 S 
KNEE 12.070 0.56 S 
KCR 13.810 0.61 S 
KPR 15.030 0.71 S 
B049 16.558 0.75 S 
KBU 16.580 0.77 S 
89688 18.170 0.67 S 
