# 2022 12 20 11 6 9.074 40.5241 -124.3430 17.633 1.751 0.148 0.148 0.532 85 
1584B 3.716 1.03 P 
KCT 4.089 0.62 P 
1023 4.196 1.10 P 
1586 5.196 1.08 P 
89462 5.496 1.07 P 
KMPB 5.599 0.51 P 
B046 5.724 1.05 P 
PETL 6.256 0.99 P 
RBOW 6.326 0.75 P 
KCO 6.839 1.08 P 
KNEE 8.576 0.77 P 
KPR 8.636 0.68 P 
1580 8.676 1.06 P 
KCR 9.036 0.61 P 
DMOR 9.456 0.58 P 
KBU 10.186 0.98 P 
BRIC 10.326 0.80 P 
89688 10.616 0.96 P 
PRDS 10.810 0.98 P 
KHMB 11.699 0.61 P 
B935 11.884 0.90 P 
1584B 6.496 0.97 S 
KCT 7.329 0.75 S 
1023 8.046 0.93 S 
1586 9.626 0.94 S 
KMPB 9.739 0.64 S 
89462 9.816 0.95 S 
B046 9.944 0.94 S 
1581 11.506 0.73 S 
KCO 12.019 0.97 S 
89781 12.666 0.77 S 
BJES 14.136 0.52 S 
KNEE 15.246 0.39 S 
1580 15.266 0.98 S 
KPR 15.736 0.62 S 
KCR 16.096 0.69 S 
B049 18.154 0.99 S 
DMOR 18.176 0.46 S 
89688 18.336 0.99 S 
KBU 18.436 0.57 S 
KHMB 19.179 0.77 S 
BRIC 20.716 0.41 S 
KMR 21.059 0.92 S 
B935 21.324 0.96 S 
B934 26.684 0.47 S 
HAYF 28.639 0.35 S 
# 2022 12 20 11 6 38.238 40.5942 -124.0766 15.563 1.396 0.182 0.182 0.576 86 
KMPB 3.915 0.56 P 
1586 4.292 0.99 P 
89781 5.002 1.01 P 
KNEE 5.202 0.49 P 
KCT 5.855 0.95 P 
1581 5.992 0.87 P 
DMOR 6.082 0.63 P 
RBOW 6.412 0.42 P 
KCR 6.512 0.55 P 
B046 7.050 0.95 P 
KCO 8.215 0.96 P 
B049 8.280 0.84 P 
KPR 8.372 0.77 P 
KBU 8.452 0.97 P 
B935 9.120 1.02 P 
PRDS 9.336 0.64 P 
KMR 10.475 0.93 P 
KHBB 13.085 0.93 P 
89462 7.612 0.98 S 
1586 8.172 0.89 S 
1581 9.102 0.60 S 
89781 9.172 0.93 S 
KNEE 9.386 0.90 S 
1584B 9.642 0.89 S 
RBOW 11.682 0.56 S 
KCR 11.792 0.60 S 
DMOR 11.972 0.44 S 
KCT 12.085 0.56 S 
KPR 14.932 0.59 S 
KBU 15.812 0.48 S 
B049 16.140 0.94 S 
B935 16.580 0.91 S 
KMR 18.855 0.59 S 
PRDS 18.892 0.40 S 
BRIC 20.052 0.40 S 
KHBB 24.085 0.60 S 
# 2022 12 20 11 6 59.889 40.5042 -124.3612 17.326 1.232 0.234 0.234 0.438 87 
KCT 3.884 0.57 P 
KMPB 5.504 0.96 P 
RBOW 6.251 0.38 P 
KPR 8.341 0.96 P 
PRDS 9.641 0.93 P 
KBU 9.721 0.85 P 
BRIC 10.601 0.89 P 
1591 12.381 0.88 P 
KCT 7.284 0.54 S 
B046 9.699 0.83 S 
KMPB 9.714 0.78 S 
1586 9.781 0.60 S 
PETL 10.521 0.47 S 
KCO 11.124 0.84 S 
KPR 14.911 0.89 S 
KCR 16.361 0.81 S 
PRDS 17.035 0.50 S 
89688 17.421 0.86 S 
KBU 17.981 0.84 S 
B049 18.179 0.79 S 
BRIC 20.641 0.45 S 
KMR 21.284 0.73 S 
1591 21.941 0.86 S 
# 2022 12 20 11 7 41.096 40.5365 -123.9325 19.293 1.740 0.176 0.176 0.409 88 
BJES 3.934 0.94 P 
KCR 4.864 0.61 P 
KMPB 5.307 0.83 P 
KNEE 5.364 0.55 P 
RBOW 6.064 0.54 P 
1581 6.834 0.60 P 
B935 6.882 0.86 P 
KBU 7.174 0.60 P 
B046 7.582 0.84 P 
KPR 7.584 0.60 P 
KHMB 8.427 0.89 P 
KMR 8.827 0.88 P 
BRIC 10.064 0.57 P 
HAYF 10.997 0.46 P 
KHBB 11.237 0.50 P 
WEAV 13.814 0.58 P 
TRIN 18.885 0.86 P 
KCR 8.874 0.63 S 
KMPB 9.757 0.48 S 
KNEE 9.828 0.41 S 
1581 12.234 0.62 S 
B935 12.532 0.92 S 
B049 12.842 0.54 S 
KBU 12.874 0.78 S 
1023 13.524 0.60 S 
KPR 13.584 0.78 S 
B046 13.782 0.77 S 
KHMB 15.197 0.51 S 
KCO 15.337 0.84 S 
KMR 15.357 0.54 S 
PETL 15.404 0.37 S 
PRDS 17.618 0.38 S 
BRIC 17.704 0.52 S 
89688 18.344 0.71 S 
HAYF 19.637 0.47 S 
KHBB 20.197 0.88 S 
WEAV 24.844 0.50 S 
# 2022 12 20 11 8 6.035 40.5436 -124.2327 18.449 1.567 0.191 0.191 0.534 89 
1584B 3.775 1.04 P 
89462 4.295 1.07 P 
1023 5.355 0.83 P 
B046 6.003 1.02 P 
PETL 6.695 1.01 P 
KCO 7.038 0.98 P 
KNEE 7.045 0.69 P 
KCR 7.615 0.64 P 
KPR 8.015 0.68 P 
DMOR 8.045 0.40 P 
KBU 9.115 0.59 P 
B049 9.353 1.02 P 
PRDS 9.455 0.54 P 
KMR 10.968 0.98 P 
BRIC 11.445 0.52 P 
1584B 6.935 0.98 S 
1023 7.685 0.95 S 
89462 8.055 0.97 S 
1586 8.215 0.88 S 
1581 10.225 0.70 S 
B046 10.553 0.91 S 
89781 11.055 0.87 S 
PETL 11.735 0.84 S 
KCO 12.418 0.93 S 
KNEE 12.889 0.56 S 
KCR 13.765 0.56 S 
KPR 14.115 0.64 S 
B049 16.903 0.94 S 
KBU 16.975 0.61 S 
PRDS 17.295 0.45 S 
B935 18.983 0.92 S 
KMR 19.818 0.82 S 
BRIC 20.535 0.63 S 
# 2022 12 20 11 9 1.498 40.5354 -124.3271 16.903 3.373 0.133 0.133 0.435 90 
1584B 3.582 1.04 P 
KCT 4.045 0.53 P 
1586 4.732 1.05 P 
89462 5.242 1.03 P 
KMPB 5.445 0.65 P 
1581 5.802 1.05 P 
B046 5.890 1.06 P 
PETL 6.392 0.52 P 
RBOW 6.402 0.38 P 
89781 6.512 1.06 P 
KCO 7.015 1.00 P 
BJES 7.662 0.93 P 
1580 8.052 1.03 P 
KPR 8.732 0.68 P 
KCR 8.792 0.57 P 
PRDS 10.046 0.54 P 
KBU 10.052 0.64 P 
B049 10.220 0.98 P 
KTD 10.332 0.98 P 
89688 10.372 0.95 P 
B935 11.560 1.00 P 
KMR 11.915 0.54 P 
BRIC 11.952 0.40 P 
1591 12.392 0.92 P 
KRP 12.405 0.89 P 
99700 13.692 0.93 P 
79046 15.652 1.00 P 
B934 15.840 0.95 P 
KOM 17.355 0.76 P 
KIP 17.712 0.80 P 
KFP 19.452 0.82 P 
1584B 6.422 0.96 S 
KCT 7.305 0.73 S 
1023 7.552 0.59 S 
1586 8.882 0.95 S 
89462 9.592 0.89 S 
KMPB 9.625 0.56 S 
B046 10.370 0.93 S 
1581 10.772 0.94 S 
RBOW 11.232 0.47 S 
PETL 11.272 0.44 S 
89781 12.002 0.94 S 
KCO 12.315 0.90 S 
BJES 13.442 0.38 S 
1580 14.552 0.96 S 
KPR 15.492 0.54 S 
KCR 15.832 0.65 S 
PRDS 17.822 0.42 S 
KBU 17.892 0.65 S 
89688 18.062 0.85 S 
B049 18.280 0.93 S 
KTD 18.442 0.89 S 
KHMB 20.595 0.72 S 
B935 20.680 0.92 S 
BRIC 20.992 0.58 S 
KMR 21.015 0.68 S 
KRP 21.975 0.53 S 
1591 22.262 0.95 S 
B934 26.590 0.99 S 
79046 27.272 0.99 S 
KIP 30.972 0.82 S 
KOM 31.455 0.73 S 
RVIT 31.552 0.92 S 
KFP 33.912 0.76 S 
KBN 36.422 0.60 S 
# 2022 12 20 11 10 11.175 40.5251 -124.4069 16.343 2.671 0.124 0.124 0.559 91 
1584B 4.055 0.99 P 
KCT 4.268 0.57 P 
1586 5.695 1.01 P 
B046 5.963 0.99 P 
89462 6.255 0.97 P 
KMPB 6.318 0.59 P 
PETL 6.325 0.43 P 
1581 6.655 1.05 P 
RBOW 7.055 0.42 P 
KCO 7.158 0.99 P 
89781 7.445 1.07 P 
BJES 8.795 0.90 P 
KPR 9.075 0.56 P 
PRDS 9.385 0.44 P 
KCR 9.835 0.56 P 
89688 10.695 0.84 P 
KBU 10.855 0.54 P 
B049 11.003 0.93 P 
KTD 11.155 0.82 P 
BRIC 12.155 0.59 P 
B935 12.563 0.86 P 
KMR 12.748 0.90 P 
KRP 13.028 0.85 P 
1591 13.075 0.90 P 
KCSB 13.408 0.89 P 
HAYF 16.198 0.84 P 
79046 16.355 0.89 P 
KHBB 16.438 0.86 P 
KBN 20.335 0.82 P 
PETY 22.276 0.35 P 
DCMP 22.358 0.47 P 
TRIN 22.558 1.07 P 
LBK 24.225 1.03 P 
GBL 24.275 0.89 P 
SCOT 24.388 0.66 P 
GWR 25.335 0.50 P 
GHO 25.735 0.98 P 
GUMB 26.629 0.48 P 
1584B 7.085 0.87 S 
KCT 7.718 0.67 S 
1023 8.825 0.80 S 
1586 10.385 0.92 S 
B046 10.403 0.88 S 
KMPB 10.998 0.55 S 
PETL 11.085 0.51 S 
89462 11.225 0.91 S 
1581 12.115 0.94 S 
RBOW 12.285 0.41 S 
KCO 12.478 0.91 S 
89781 13.305 0.94 S 
1580 15.385 0.71 S 
BJES 16.025 0.76 S 
KPR 16.235 0.60 S 
KCR 17.755 0.61 S 
89688 18.755 0.49 S 
DMOR 19.315 0.64 S 
B049 19.483 0.84 S 
KBU 19.675 0.63 S 
KTD 19.915 0.87 S 
KHMB 21.558 0.38 S 
BRIC 21.695 0.46 S 
KMR 22.398 0.47 S 
B935 22.463 0.94 S 
1591 23.065 0.96 S 
KCSB 23.998 0.94 S 
B934 27.283 0.84 S 
79046 27.825 0.92 S 
KHBB 28.998 0.53 S 
KOM 31.078 0.76 S 
KIP 31.675 0.75 S 
RVIT 34.435 0.86 S 
KFP 34.665 0.35 S 
79298 37.515 0.56 S 
KBN 37.675 0.80 S 
MNDO 37.735 0.77 S 
GNR 40.635 0.73 S 
GBL 42.075 0.51 S 
SCOT 42.218 0.53 S 
LBK 42.755 0.90 S 
GHO 45.115 0.69 S 
GUMB 47.005 0.59 S 
# 2022 12 20 11 11 10.003 40.4887 -124.2427 15.151 1.243 0.232 0.232 1.080 92 
1584B 2.287 0.83 P 
89462 3.017 0.83 P 
KCT 4.520 0.55 P 
KMR 9.520 0.67 P 
1584B 6.807 0.86 S 
89462 6.957 0.82 S 
KCT 7.810 0.53 S 
B046 8.165 0.73 S 
PETL 9.847 0.37 S 
1586 9.887 0.35 S 
KMR 18.450 0.63 S 
B049 18.805 0.53 S 
BRIC 19.007 0.42 S 
# 2022 12 20 11 11 15.046 40.4399 -123.9837 32.535 1.571 0.484 0.484 0.526 93 
89462 5.954 0.57 P 
KCR 6.024 0.40 P 
KPR 6.044 0.48 P 
PRDS 8.058 0.35 P 
KHBB 11.887 0.56 P 
HAYF 11.975 0.39 P 
WEAV 15.194 0.37 P 
89462 10.244 0.50 S 
RBOW 11.884 0.42 S 
B935 13.622 0.34 S 
HAYF 19.977 0.33 S 
KHBB 21.217 0.55 S 
# 2022 12 20 11 11 32.131 40.3834 -124.1716 16.272 0.888 0.292 0.292 0.589 94 
KMPB 3.142 0.63 P 
B046 3.527 0.71 P 
RBOW 3.789 0.58 P 
PETL 4.119 0.44 P 
KBU 7.819 0.39 P 
B049 7.987 0.46 P 
B046 6.937 0.69 S 
89462 8.049 0.63 S 
KCO 9.202 0.64 S 
PRDS 11.659 0.52 S 
KBU 11.709 0.38 S 
# 2022 12 20 11 11 48.363 40.6384 -124.3246 12.116 1.625 0.295 0.295 1.021 95 
KCT 5.680 0.45 P 
B046 5.725 0.47 P 
PETL 6.597 0.34 P 
KMPB 7.120 0.48 P 
B935 13.255 0.53 P 
1586 5.047 0.34 S 
1584B 8.037 0.65 S 
KCT 8.890 0.45 S 
KMPB 11.210 0.36 S 
KCR 17.347 0.34 S 
# 2022 12 20 11 11 52.667 40.4649 -124.1944 -0.921 0.302 0.469 0.469 1.155 96 
B046 3.111 0.38 P 
RBOW 3.563 0.37 P 
KPR 6.003 0.50 P 
PRDS 8.823 0.67 P 
KBU 9.703 0.75 P 
B049 9.711 0.75 P 
89688 9.773 0.79 P 
KMR 12.426 0.65 P 
B046 7.221 0.74 S 
KCO 9.336 0.62 S 
KPR 12.223 0.43 S 
KCR 13.323 0.47 S 
B049 15.381 0.67 S 
KBU 15.503 0.49 S 
89688 15.693 0.61 S 
BRIC 18.023 0.45 S 
B935 18.171 0.59 S 
KMR 18.546 0.72 S 
1591 19.643 0.51 S 
B934 30.751 0.36 S 
# 2022 12 20 11 12 4.852 40.5116 -124.3244 14.629 1.378 0.228 0.228 0.392 97 
1584B 3.458 0.71 P 
KCT 3.491 0.61 P 
B046 5.226 0.95 P 
KMPB 5.271 0.61 P 
PETL 5.718 0.90 P 
RBOW 5.948 0.61 P 
KCO 6.361 0.90 P 
KPR 8.118 0.89 P 
KCR 8.598 0.74 P 
PRDS 9.638 0.51 P 
KBU 9.878 0.59 P 
B049 9.916 0.84 P 
BRIC 11.438 0.86 P 
B934 16.446 0.54 P 
1584B 5.868 0.71 S 
KCT 6.571 0.50 S 
KMPB 9.471 0.51 S 
B046 9.486 0.89 S 
PETL 10.298 0.51 S 
RBOW 10.788 0.47 S 
KCO 11.481 0.90 S 
KPR 14.798 0.54 S 
PRDS 17.438 0.50 S 
KBU 17.758 0.57 S 
89688 17.948 0.79 S 
B049 17.976 0.80 S 
1591 22.148 0.59 S 
# 2022 12 20 11 12 32.241 40.6087 -124.0578 16.667 2.035 0.123 0.123 0.400 98 
89462 4.399 0.95 P 
1586 4.609 0.78 P 
BJES 4.659 0.81 P 
1023 4.789 0.76 P 
KNEE 4.923 0.76 P 
1581 4.999 0.89 P 
89781 5.009 0.93 P 
KMPB 5.452 0.61 P 
DMOR 5.659 0.46 P 
1580 6.349 0.92 P 
KCR 6.469 0.63 P 
RBOW 6.659 0.43 P 
B046 7.697 0.86 P 
KHMB 8.322 0.60 P 
PETL 8.429 0.71 P 
KCO 8.582 0.89 P 
KPR 8.599 0.82 P 
B935 8.757 0.90 P 
KBU 8.939 0.55 P 
B049 9.037 0.89 P 
KTD 9.209 0.76 P 
KCSB 9.692 0.89 P 
KMR 10.472 0.47 P 
PRDS 10.569 0.50 P 
KRP 10.952 0.91 P 
BRIC 11.639 0.41 P 
99700 12.349 0.81 P 
KHBB 12.702 0.55 P 
HAYF 12.732 0.43 P 
B934 14.737 0.65 P 
WEAV 15.509 0.59 P 
TRIN 19.882 0.89 P 
89462 8.159 0.89 S 
BJES 8.489 0.51 S 
1586 8.739 0.82 S 
KNEE 9.089 0.42 S 
89781 9.099 0.86 S 
1581 9.299 0.83 S 
KMPB 9.852 0.53 S 
1023 9.889 0.86 S 
1584B 10.339 0.81 S 
DMOR 11.119 0.78 S 
1580 11.329 0.84 S 
KCR 11.539 0.56 S 
KCT 11.602 0.76 S 
RBOW 11.899 0.45 S 
B046 13.777 0.77 S 
PETL 14.989 0.42 S 
KHMB 15.052 0.53 S 
B935 15.437 0.78 S 
KCO 15.692 0.82 S 
KBU 15.769 0.61 S 
KPR 15.899 0.55 S 
B049 15.987 0.84 S 
KCSB 17.482 0.72 S 
KMR 18.692 0.58 S 
PRDS 19.009 0.46 S 
KRP 19.652 0.83 S 
BRIC 20.399 0.39 S 
89688 20.419 0.40 S 
HAYF 22.452 0.36 S 
KHBB 22.502 0.53 S 
B934 26.557 0.39 S 
WEAV 27.129 0.52 S 
KFP 33.759 0.55 S 
LBK 36.549 0.68 S 
SCOT 37.602 0.37 S 
GUMB 40.959 0.38 S 
# 2022 12 20 11 12 47.952 40.5074 -124.0123 27.165 2.297 0.291 0.291 0.878 99 
BJES 3.728 0.60 P 
89462 4.128 0.85 P 
KMPB 4.851 0.33 P 
KNEE 6.098 0.72 P 
KCR 6.468 0.35 P 
PETL 6.578 0.40 P 
1584B 6.718 0.89 P 
89781 7.128 0.94 P 
1581 7.488 0.98 P 
1580 7.958 0.97 P 
KHMB 8.561 0.42 P 
B935 8.826 0.67 P 
KCSB 9.571 0.93 P 
89688 9.618 0.57 P 
KHBB 12.301 0.57 P 
HAYF 12.609 0.42 P 
WEAV 15.138 0.35 P 
TRIN 20.201 0.54 P 
BJES 10.098 0.63 S 
89781 12.068 0.73 S 
1586 12.968 0.62 S 
1581 12.978 0.77 S 
1580 13.218 0.71 S 
KCSB 16.131 0.91 S 
HAYF 18.501 0.33 S 
KHBB 20.681 0.56 S 
LBK 33.878 0.41 S 
# 2022 12 20 11 13 5.121 40.5507 -124.2296 21.988 2.118 0.181 0.181 0.434 100 
1586 4.769 1.00 P 
KCT 4.952 0.69 P 
89462 4.999 1.07 P 
KMPB 5.362 0.67 P 
89781 5.979 1.03 P 
RBOW 6.189 0.49 P 
B046 6.207 1.00 P 
BJES 6.669 0.36 P 
PETL 6.809 0.49 P 
KCO 7.172 0.98 P 
KNEE 7.189 0.55 P 
KCR 7.809 0.66 P 
DMOR 7.919 0.51 P 
KPR 8.029 0.68 P 
KBU 9.009 0.63 P 
B049 9.317 0.84 P 
PRDS 9.819 0.92 P 
KRP 11.652 0.44 P 
BRIC 11.809 0.74 P 
KHBB 14.172 0.60 P 
LSF 20.569 0.36 P 
LBK 21.869 0.96 P 
SCOT 22.440 0.43 P 
1584B 7.819 0.96 S 
1023 8.659 0.93 S 
KCT 8.852 0.51 S 
1586 8.969 0.89 S 
89462 9.259 0.96 S 
KMPB 9.552 0.49 S 
1581 10.199 0.92 S 
89781 10.899 0.92 S 
B046 10.977 0.85 S 
RBOW 11.009 0.42 S 
PETL 12.009 0.46 S 
BJES 12.159 0.88 S 
KCO 12.702 0.92 S 
KNEE 13.009 0.41 S 
1580 13.609 0.34 S 
KCR 13.969 0.61 S 
KPR 14.289 0.58 S 
DMOR 15.269 0.77 S 
KBU 16.529 0.63 S 
B049 16.617 0.90 S 
PRDS 17.013 0.35 S 
89688 17.809 0.92 S 
KHMB 17.892 0.34 S 
KMR 19.252 0.45 S 
BRIC 19.329 0.46 S 
KRP 20.762 0.51 S 
KHBB 24.962 0.79 S 
79046 26.609 0.40 S 
LBK 38.629 0.81 S 
SCOT 39.172 0.35 S 
GUMB 42.879 0.33 S 
# 2022 12 20 11 13 16.709 40.6437 -123.8705 13.980 1.682 0.202 0.202 0.772 101 
BJES 3.491 0.87 P 
DMOR 3.661 0.84 P 
1581 5.761 0.82 P 
1586 5.781 0.76 P 
KHMB 6.264 0.49 P 
KCSB 6.424 0.87 P 
1023 8.051 0.76 P 
KPR 11.691 0.47 P 
PRDS 12.255 0.35 P 
BJES 7.341 0.84 S 
DMOR 8.061 0.51 S 
KCR 8.981 0.82 S 
89781 10.981 0.72 S 
B935 11.069 0.70 S 
1586 11.701 0.78 S 
1581 11.851 0.75 S 
KHMB 12.304 0.50 S 
KCSB 12.464 0.83 S 
KPR 18.761 0.39 S 
PRDS 20.845 0.35 S 
# 2022 12 20 11 13 43.216 40.5407 -124.2220 19.162 1.714 0.181 0.181 0.592 102 
RBOW 5.844 0.57 P 
B046 5.942 0.99 P 
89781 6.254 0.97 P 
PETL 6.614 0.47 P 
KCO 6.947 0.93 P 
KNEE 7.068 0.53 P 
KCR 7.544 0.71 P 
KPR 7.904 0.69 P 
DMOR 7.914 0.89 P 
KBU 9.074 0.60 P 
B049 9.342 0.98 P 
PRDS 9.664 0.45 P 
KHMB 10.417 0.39 P 
KMR 10.917 0.51 P 
BRIC 11.224 0.53 P 
1584B 7.424 0.74 S 
1023 7.994 0.82 S 
89462 8.434 0.74 S 
1586 8.434 0.65 S 
1581 10.234 0.81 S 
RBOW 10.374 0.35 S 
B046 10.562 0.91 S 
89781 11.064 0.91 S 
PETL 11.644 0.48 S 
BJES 11.904 0.97 S 
KCO 12.367 0.82 S 
KNEE 13.194 0.57 S 
KCR 13.474 0.61 S 
KPR 14.194 0.59 S 
DMOR 15.694 0.92 S 
B049 16.542 0.94 S 
KBU 16.914 0.60 S 
B935 17.082 0.85 S 
PRDS 17.204 0.50 S 
89688 17.674 0.94 S 
KMR 19.377 0.66 S 
BRIC 19.734 0.64 S 
1591 20.914 0.73 S 
HAYF 26.135 0.36 S 
# 2022 12 20 11 14 0.734 40.5161 -124.3419 16.742 1.718 0.149 0.149 0.610 103 
1584B 3.826 0.63 P 
KCT 3.989 0.53 P 
1586 5.096 0.76 P 
KMPB 5.499 0.60 P 
B046 5.634 0.93 P 
PETL 6.116 0.84 P 
RBOW 6.296 0.51 P 
KCO 6.689 0.75 P 
89781 6.916 0.81 P 
KCR 7.756 0.35 P 
KPR 8.346 0.48 P 
KNEE 8.436 0.55 P 
KBU 8.976 0.73 P 
PRDS 9.136 0.77 P 
DMOR 9.406 0.36 P 
89688 10.416 0.84 P 
KHMB 11.739 0.65 P 
BRIC 11.916 0.39 P 
KCT 6.189 0.49 S 
1584B 6.356 0.62 S 
1023 7.916 0.66 S 
1586 9.416 0.77 S 
KMPB 9.779 0.57 S 
B046 9.844 0.83 S 
89462 9.876 0.74 S 
PETL 10.666 0.39 S 
RBOW 11.226 0.38 S 
1581 11.396 0.82 S 
KCO 11.849 0.69 S 
BJES 14.156 0.52 S 
KPR 15.346 0.66 S 
KCR 15.716 0.64 S 
PRDS 16.846 0.49 S 
KBU 16.996 0.76 S 
DMOR 18.036 0.75 S 
B049 18.164 0.68 S 
89688 18.346 0.77 S 
B935 20.914 0.68 S 
KMR 21.199 0.69 S 
1591 21.896 0.77 S 
HAYF 28.439 0.42 S 
KHBB 29.399 0.76 S 
# 2022 12 20 11 14 11.314 40.4831 -124.5859 33.472 2.191 1.035 1.035 0.974 104 
KCT 6.759 0.37 P 
KPR 9.686 0.40 P 
KBU 9.846 0.40 P 
PRDS 11.510 0.33 P 
KCR 18.766 0.44 S 
KBU 21.206 0.38 S 
KMR 24.059 0.33 S 
HAYF 31.307 0.37 S 
KHBB 32.219 0.45 S 
# 2022 12 20 11 14 13.862 40.5350 -124.3666 16.945 1.928 0.155 0.155 0.571 105 
1584B 3.818 0.96 P 
KCT 4.201 0.62 P 
1586 5.218 1.02 P 
1581 5.608 0.94 P 
KMPB 5.741 0.60 P 
89781 5.788 0.79 P 
B046 5.886 0.99 P 
PETL 6.288 0.96 P 
KCO 6.831 1.01 P 
BJES 8.148 0.89 P 
KNEE 8.728 0.39 P 
KPR 8.808 0.48 P 
PRDS 9.008 0.46 P 
DMOR 9.588 0.83 P 
KCR 9.868 0.57 P 
KBU 10.388 0.81 P 
89688 10.608 0.87 P 
KHMB 11.911 0.47 P 
B935 12.026 0.91 P 
BRIC 12.218 0.51 P 
1591 12.808 0.95 P 
HAYF 15.151 0.53 P 
WEAV 19.228 0.42 P 
1584B 6.518 0.90 S 
KCT 7.341 0.65 S 
1023 8.078 0.90 S 
1586 9.588 0.96 S 
KMPB 9.951 0.55 S 
89462 10.108 0.73 S 
B046 10.156 0.89 S 
1581 11.148 0.97 S 
KCO 12.231 0.92 S 
89781 12.628 0.90 S 
BJES 14.388 0.91 S 
KNEE 15.548 0.69 S 
KPR 15.748 0.86 S 
KCR 16.328 0.67 S 
DMOR 18.348 0.94 S 
KBU 18.428 0.59 S 
B049 18.476 0.85 S 
89688 18.658 0.95 S 
BRIC 21.108 0.52 S 
KMR 21.501 0.44 S 
B935 21.626 0.91 S 
1591 22.588 0.95 S 
HAYF 28.751 0.54 S 
# 2022 12 20 11 14 38.017 40.5138 -124.4033 14.652 2.112 0.158 0.158 0.549 106 
1584B 3.763 0.88 P 
1023 5.183 0.85 P 
1586 5.633 0.82 P 
B046 5.891 0.88 P 
PETL 6.223 0.41 P 
89462 6.233 0.77 P 
KMPB 6.256 0.51 P 
1581 6.663 0.74 P 
RBOW 6.963 0.40 P 
KCO 7.046 0.83 P 
89781 7.513 0.75 P 
KPR 9.393 0.69 P 
KCR 9.863 0.42 P 
PRDS 10.183 0.39 P 
89688 10.503 0.77 P 
KBU 10.823 0.68 P 
BRIC 12.473 0.69 P 
KCT 4.636 0.45 S 
1584B 6.953 0.88 S 
1023 8.723 0.84 S 
B046 10.161 0.79 S 
1586 10.313 0.70 S 
PETL 10.883 0.48 S 
KMPB 10.956 0.56 S 
1581 12.153 0.63 S 
RBOW 12.193 0.42 S 
KCO 12.306 0.60 S 
89781 13.443 0.68 S 
KPR 16.973 0.75 S 
KCR 17.623 0.57 S 
PRDS 18.253 0.45 S 
89688 18.513 0.71 S 
KBU 19.183 0.41 S 
B049 19.391 0.42 S 
B934 27.401 0.36 S 
79046 27.873 0.33 S 
# 2022 12 20 11 14 51.269 40.5401 -124.2682 20.301 2.147 0.172 0.172 0.479 107 
KCT 4.494 0.91 P 
1586 4.641 0.84 P 
89462 4.891 0.92 P 
KMPB 5.224 0.73 P 
89781 6.071 0.97 P 
B046 6.079 1.01 P 
RBOW 6.151 0.61 P 
PETL 6.761 0.55 P 
BJES 6.841 0.90 P 
KCO 7.104 1.04 P 
KNEE 7.445 0.93 P 
KCR 7.981 0.67 P 
KPR 8.281 0.65 P 
KBU 9.411 0.54 P 
B049 9.619 1.00 P 
PRDS 9.655 0.57 P 
89688 10.221 0.93 P 
KMR 11.084 0.83 P 
KHBB 14.524 0.42 P 
79046 14.531 0.66 P 
1584B 7.241 0.41 S 
1023 8.351 0.55 S 
KCT 8.484 0.68 S 
1586 8.751 0.90 S 
89462 9.071 0.92 S 
KMPB 9.314 0.42 S 
1581 10.431 0.60 S 
B046 10.769 0.95 S 
RBOW 10.851 0.36 S 
89781 11.191 0.93 S 
PETL 11.831 0.38 S 
KCO 12.654 0.95 S 
KNEE 13.415 0.36 S 
KCR 14.491 0.61 S 
KPR 14.501 0.65 S 
DMOR 15.661 0.63 S 
KBU 16.921 0.67 S 
B049 17.039 0.89 S 
PRDS 17.335 0.44 S 
89688 17.851 0.92 S 
KHMB 19.024 0.45 S 
KMR 19.604 0.71 S 
B935 20.989 0.37 S 
KHBB 25.104 0.75 S 
HAYF 26.552 0.46 S 
# 2022 12 20 11 15 26.014 40.4762 -124.3903 19.256 1.217 0.279 0.279 0.680 108 
1584B 3.946 0.86 P 
1023 5.546 0.86 P 
KCO 6.229 0.86 P 
1586 7.156 0.83 P 
PRDS 8.636 0.40 P 
89688 9.116 0.46 P 
KCR 9.996 0.80 P 
1584B 7.146 0.84 S 
KCT 8.419 0.89 S 
B046 9.154 0.78 S 
1586 10.056 0.37 S 
KMPB 10.599 0.62 S 
KCO 11.859 0.66 S 
KCR 17.016 0.46 S 
# 2022 12 20 11 16 3.354 40.6173 -124.0449 21.496 1.908 0.204 0.204 0.671 109 
KNEE 4.870 0.93 P 
1586 5.016 0.56 P 
89462 5.046 0.98 P 
89781 5.046 1.01 P 
1584B 5.076 0.75 P 
1581 5.156 1.00 P 
KMPB 5.219 0.39 P 
KCT 5.979 0.40 P 
BJES 6.636 0.91 P 
1023 6.726 0.94 P 
KCR 6.766 0.61 P 
RBOW 6.976 0.47 P 
KHMB 7.909 0.48 P 
B046 7.964 0.98 P 
B935 8.524 0.96 P 
PETL 8.536 0.67 P 
KPR 8.846 0.96 P 
KBU 8.896 0.53 P 
BRIC 8.936 0.40 P 
B049 8.994 0.93 P 
KMR 10.359 0.59 P 
1591 10.516 0.81 P 
HAYF 12.529 0.69 P 
89688 12.916 0.35 P 
LBK 19.646 0.59 P 
89462 8.856 0.92 S 
BJES 9.226 0.52 S 
89781 9.386 0.91 S 
1586 9.536 0.92 S 
1581 9.786 0.90 S 
1023 10.836 0.88 S 
KMPB 10.859 0.50 S 
DMOR 11.016 0.67 S 
KCR 11.886 0.52 S 
RBOW 12.556 0.45 S 
B046 14.264 0.89 S 
KHMB 14.419 0.68 S 
B935 15.544 0.93 S 
KPR 15.686 0.47 S 
B049 16.034 0.78 S 
KBU 16.096 0.67 S 
PRDS 16.736 0.41 S 
KCSB 17.059 0.78 S 
KMR 18.619 0.54 S 
KRP 19.069 0.33 S 
1591 20.776 0.52 S 
KHBB 20.799 0.41 S 
HAYF 21.859 0.33 S 
# 2022 12 20 11 16 24.420 40.5763 -124.1278 20.328 1.698 0.195 0.195 0.333 110 
1586 4.460 1.03 P 
1023 4.630 1.03 P 
1581 5.040 1.00 P 
89781 5.380 1.01 P 
KMPB 5.613 0.73 P 
KNEE 5.954 0.69 P 
RBOW 6.070 0.55 P 
B046 6.698 1.02 P 
KCR 7.050 0.66 P 
KCO 7.633 0.93 P 
KPR 8.060 0.68 P 
KBU 8.700 0.65 P 
B049 8.778 0.89 P 
KHMB 9.173 0.69 P 
B935 9.188 0.91 P 
PRDS 9.824 0.74 P 
KMR 10.323 0.66 P 
BRIC 11.070 0.50 P 
WEAV 15.740 0.38 P 
89462 8.170 0.69 S 
1586 8.520 0.97 S 
1023 9.040 0.76 S 
KMPB 9.143 0.56 S 
BJES 9.340 0.76 S 
1581 9.620 0.80 S 
89781 10.040 0.90 S 
KNEE 10.870 0.37 S 
B046 12.008 0.94 S 
KCR 12.830 0.49 S 
KCO 13.623 0.90 S 
KPR 14.710 0.53 S 
B049 15.748 0.81 S 
KBU 15.780 0.52 S 
KHMB 16.593 0.60 S 
B935 16.998 0.93 S 
KMR 18.553 0.52 S 
BRIC 19.510 0.48 S 
KRP 19.703 0.73 S 
