# 2022 12 20 11 17 57.363 41.4082 -124.5564 6.639 1.393 2.487 2.487 0.508 114 
DMOR.BK 18.557 0.57 P 
KBU.NC 22.107 0.56 P 
KPR.NC 22.167 0.41 P 
B049.PB 22.245 0.55 P 
KMR.NC 23.130 0.37 P 
PRDS.BK 23.547 0.59 P 
BRIC.BK 24.847 0.60 P 
KMPB.NC 33.820 0.34 S 
KPR.NC 38.337 0.45 S 
BRIC.BK 43.237 0.44 S 
# 2022 12 20 11 18 22.450 40.5356 -124.0721 21.802 1.592 0.209 0.209 0.452 115 
89462.CE 4.470 1.04 P 
KMPB.NC 4.853 0.53 P 
1584B.NP 5.000 0.89 P 
BJES.BK 5.160 0.93 P 
1586.NP 5.310 1.03 P 
RBOW.BK 5.660 0.45 P 
KCT.NC 6.083 0.67 P 
KNEE.BK 6.100 0.53 P 
KCR.NC 6.130 0.61 P 
DMOR.BK 6.380 0.60 P 
B046.PB 6.618 1.01 P 
KCO.NC 7.383 1.00 P 
PETL.BK 7.400 0.90 P 
KPR.NC 7.480 0.65 P 
KBU.NC 7.900 0.58 P 
B049.PB 7.978 1.01 P 
BRIC.BK 8.320 0.52 P 
B935.PB 8.548 1.03 P 
PRDS.BK 9.180 0.49 P 
KCSB.NC 9.473 1.01 P 
KMR.NC 9.483 0.99 P 
KHBB.NC 12.603 0.97 P 
HAYF.BK 12.763 0.56 P 
WEAV.BK 14.980 1.06 P 
LBK.NC 20.980 0.64 P 
89462.CE 8.330 0.94 S 
KMPB.NC 8.753 0.62 S 
1584B.NP 9.960 0.92 S 
1586.NP 10.150 0.92 S 
1023.NP 10.470 0.53 S 
KCR.NC 11.050 0.55 S 
KNEE.BK 11.160 0.47 S 
KCT.NC 11.243 0.54 S 
1581.NP 11.330 0.69 S 
B046.PB 11.768 0.88 S 
DMOR.BK 12.800 0.89 S 
KCO.NC 13.203 0.90 S 
KPR.NC 13.630 0.57 S 
KBU.NC 14.130 0.74 S 
B049.PB 14.168 0.87 S 
B935.PB 15.348 0.92 S 
PRDS.BK 16.400 0.46 S 
KMR.NC 17.083 0.47 S 
KCSB.NC 17.263 0.92 S 
BRIC.BK 18.080 0.58 S 
HAYF.BK 21.823 0.59 S 
KHBB.NC 22.203 0.97 S 
WEAV.BK 27.200 0.53 S 
# 2022 12 20 11 18 56.524 40.5435 -123.9662 20.718 1.422 0.182 0.182 0.456 116 
89462.CE 4.796 0.98 P 
KCR.NC 5.236 0.54 P 
KMPB.NC 5.379 0.96 P 
KNEE.BK 5.400 0.89 P 
RBOW.BK 6.196 0.43 P 
KCT.NC 7.289 0.75 P 
KBU.NC 7.566 0.75 P 
B046.PB 7.604 0.85 P 
PRDS.BK 9.526 0.67 P 
KMR.NC 9.529 0.90 P 
BRIC.BK 10.666 0.57 P 
HAYF.BK 11.527 0.63 P 
KHBB.NC 11.639 0.52 P 
WEAV.BK 14.346 0.54 P 
89462.CE 9.126 0.91 S 
KCR.NC 9.496 0.57 S 
KMPB.NC 9.829 0.91 S 
RBOW.BK 10.946 0.54 S 
1586.NP 12.186 0.79 S 
KCT.NC 12.329 0.39 S 
B935.PB 12.854 0.87 S 
B049.PB 13.404 0.81 S 
KBU.NC 13.456 0.53 S 
B046.PB 13.584 0.75 S 
KPR.NC 13.826 0.86 S 
PETL.BK 15.006 0.67 S 
KCO.NC 15.049 0.85 S 
KMR.NC 15.879 0.85 S 
PRDS.BK 17.166 0.35 S 
BRIC.BK 18.196 0.63 S 
HAYF.BK 20.249 0.37 S 
KHBB.NC 20.679 0.84 S 
B934.PB 24.284 0.53 S 
WEAV.BK 25.206 0.43 S 
# 2022 12 20 11 19 16.460 40.7055 -123.9500 19.897 1.657 0.175 0.175 0.377 117 
KNEE.BK 4.050 0.49 P 
DMOR.BK 4.350 0.51 P 
1581.NP 5.250 0.96 P 
BJES.BK 5.410 0.90 P 
1586.NP 5.840 0.77 P 
KHMB.NC 6.413 0.53 P 
KCR.NC 7.390 0.62 P 
RBOW.BK 8.310 0.49 P 
B935.PB 8.378 0.95 P 
KCSB.NC 8.543 0.88 P 
KRP.NC 9.313 0.90 P 
B046.PB 9.558 0.34 P 
KMR.NC 11.193 0.83 P 
KHBB.NC 11.563 0.74 P 
HAYF.BK 11.863 0.34 P 
WEAV.BK 13.990 0.53 P 
KNEE.BK 7.624 0.44 S 
89781.CE 8.650 0.94 S 
DMOR.BK 9.080 0.43 S 
BJES.BK 9.990 0.36 S 
1581.NP 10.110 0.87 S 
1586.NP 11.040 0.75 S 
89462.CE 11.590 0.38 S 
KHMB.NC 11.743 0.60 S 
KCR.NC 13.070 0.53 S 
B935.PB 15.018 0.86 S 
KRP.NC 16.993 0.73 S 
B046.PB 17.098 0.51 S 
B049.PB 17.828 0.44 S 
KMR.NC 20.063 0.62 S 
KHBB.NC 20.263 0.73 S 
HAYF.BK 20.613 0.55 S 
KOM.NC 22.953 0.46 S 
WEAV.BK 24.120 0.47 S 
# 2022 12 20 11 19 28.801 40.5027 -124.4051 16.567 1.789 0.190 0.190 0.820 118 
1586.NP 5.289 0.86 P 
B046.PB 5.537 0.91 P 
PETL.BK 5.789 0.51 P 
KMPB.NC 5.922 0.95 P 
KCO.NC 6.682 0.95 P 
KPR.NC 8.649 0.58 P 
PRDS.BK 9.399 0.66 P 
B049.PB 9.877 0.65 P 
89688.CE 10.239 0.79 P 
BRIC.BK 12.029 0.38 P 
KHBB.NC 17.792 0.52 P 
WEAV.BK 20.259 0.50 P 
1584B.NP 6.729 0.72 S 
1023.NP 8.589 0.86 S 
B046.PB 9.877 0.89 S 
1586.NP 10.129 0.76 S 
PETL.BK 10.529 0.45 S 
KMPB.NC 10.642 0.45 S 
89462.CE 10.889 0.82 S 
KCO.NC 11.962 0.86 S 
RBOW.BK 12.149 0.41 S 
KPR.NC 15.699 0.59 S 
KCR.NC 17.409 0.62 S 
PRDS.BK 17.809 0.33 S 
B049.PB 18.057 0.59 S 
89688.CE 18.289 0.73 S 
BJES.BK 18.479 0.35 S 
KBU.NC 18.879 0.47 S 
BRIC.BK 21.079 0.66 S 
HAYF.BK 26.452 0.44 S 
B934.PB 26.997 0.34 S 
# 2022 12 20 11 19 36.511 40.7449 -123.8254 20.600 2.081 0.150 0.150 0.453 119 
DMOR.BK 3.449 0.55 P 
KHMB.NC 5.452 0.57 P 
89781.CE 6.089 0.97 P 
1581.NP 6.859 0.99 P 
BJES.BK 7.579 0.45 P 
1586.NP 7.649 0.90 P 
89462.CE 7.699 0.62 P 
KCSB.NC 7.822 0.98 P 
B935.PB 7.827 0.93 P 
KCR.NC 7.979 0.93 P 
KMPB.NC 8.882 0.65 P 
KRP.NC 9.302 0.74 P 
KHBB.NC 10.122 0.55 P 
HAYF.BK 10.692 0.52 P 
KMR.NC 11.012 0.66 P 
WEAV.BK 12.559 0.60 P 
TRIN.BK 16.362 0.62 P 
DMOR.BK 7.419 0.46 S 
KNEE.BK 8.479 0.59 S 
KHMB.NC 9.782 0.63 S 
BJES.BK 10.849 0.44 S 
89781.CE 10.849 0.68 S 
1581.NP 13.019 0.92 S 
B935.PB 13.917 0.91 S 
89462.CE 13.979 0.88 S 
KCR.NC 14.139 0.50 S 
KCSB.NC 14.212 0.96 S 
KTD.NC 15.159 0.78 S 
KMPB.NC 15.762 0.56 S 
KRP.NC 16.902 0.87 S 
KHBB.NC 17.502 0.67 S 
B049.PB 18.387 0.66 S 
HAYF.BK 18.680 0.45 S 
KCT.NC 18.992 0.47 S 
KMR.NC 20.302 0.44 S 
KOM.NC 20.822 0.55 S 
WEAV.BK 21.899 0.61 S 
TRIN.BK 28.762 0.45 S 
LBK.NC 31.099 0.77 S 
SCOT.BK 31.100 0.36 S 
GUMB.BK 35.329 0.51 S 
# 2022 12 20 11 19 47.972 40.5223 -124.4035 17.414 2.021 0.166 0.166 0.409 120 
1584B.NP 4.018 0.90 P 
KCT.NC 4.281 0.62 P 
1586.NP 5.678 0.97 P 
1581.NP 5.938 0.39 P 
B046.PB 5.946 0.98 P 
89462.CE 6.218 0.98 P 
KMPB.NC 6.291 0.63 P 
PETL.BK 6.368 0.54 P 
KCO.NC 7.141 0.86 P 
BJES.BK 8.878 0.76 P 
KPR.NC 9.078 0.66 P 
KCR.NC 9.818 0.62 P 
PRDS.BK 9.948 0.60 P 
89688.CE 10.748 0.78 P 
KBU.NC 10.878 0.61 P 
B049.PB 11.026 0.94 P 
BRIC.BK 11.878 0.85 P 
B935.PB 12.716 0.71 P 
1584B.NP 7.008 0.92 S 
KCT.NC 7.471 0.69 S 
1023.NP 8.808 0.98 S 
B046.PB 10.286 0.94 S 
1586.NP 10.408 0.92 S 
PETL.BK 10.918 0.41 S 
KMPB.NC 10.981 0.51 S 
89462.CE 11.178 0.93 S 
1581.NP 12.238 0.87 S 
KCO.NC 12.401 0.90 S 
BJES.BK 15.718 0.39 S 
KPR.NC 16.278 0.54 S 
KCR.NC 16.658 0.58 S 
89688.CE 18.508 0.91 S 
B049.PB 19.366 0.90 S 
DMOR.BK 19.438 0.79 S 
KBU.NC 19.468 0.62 S 
B935.PB 22.436 0.89 S 
KMR.NC 22.731 0.55 S 
1591.NP 23.088 0.79 S 
B934.PB 27.406 0.70 S 
79046.CE 27.838 0.40 S 
# 2022 12 20 11 20 25.317 40.5463 -124.4360 16.893 1.713 0.369 0.369 0.826 121 
1586.NP 4.533 0.97 P 
KMPB.NC 4.556 0.47 P 
KCT.NC 4.956 0.93 P 
RBOW.BK 6.493 0.65 P 
B046.PB 6.611 0.97 P 
KCO.NC 7.786 0.97 P 
KPR.NC 9.763 0.57 P 
PRDS.BK 11.213 0.90 P 
89688.CE 11.413 0.89 P 
B049.PB 11.751 0.91 P 
BRIC.BK 13.123 0.48 P 
B934.PB 15.691 0.83 P 
1023.NP 9.773 0.81 S 
KMPB.NC 11.746 0.45 S 
KCO.NC 13.056 0.70 S 
KPR.NC 16.473 0.52 S 
PRDS.BK 18.853 0.35 S 
89688.CE 19.283 0.84 S 
KBU.NC 20.363 0.41 S 
BRIC.BK 22.373 0.41 S 
B934.PB 27.941 0.78 S 
# 2022 12 20 11 20 50.513 40.5987 -124.0645 17.800 1.875 0.196 0.196 0.557 122 
89462.CE 4.287 0.58 P 
1586.NP 4.487 0.86 P 
BJES.BK 4.687 0.65 P 
1581.NP 4.917 0.99 P 
89781.CE 5.007 0.96 P 
KNEE.BK 5.011 0.75 P 
KCR.NC 6.357 0.60 P 
RBOW.BK 6.537 0.43 P 
KPR.NC 8.497 0.83 P 
B935.PB 8.685 0.94 P 
KBU.NC 8.737 0.61 P 
B049.PB 8.845 0.95 P 
KHMB.NC 9.180 0.68 P 
KMR.NC 10.100 0.59 P 
1591.NP 11.277 0.89 P 
HAYF.BK 12.560 0.50 P 
KHBB.NC 12.580 0.43 P 
WEAV.BK 15.497 0.94 P 
89462.CE 8.057 0.63 S 
BJES.BK 8.587 0.43 S 
1586.NP 8.617 0.83 S 
89781.CE 9.147 0.88 S 
1581.NP 9.357 0.89 S 
KCR.NC 11.497 0.47 S 
1584B.NP 12.087 0.65 S 
DMOR.BK 14.957 0.38 S 
KBU.NC 15.737 0.61 S 
B049.PB 15.795 0.86 S 
B935.PB 15.825 0.91 S 
KCSB.NC 17.380 0.88 S 
KMR.NC 18.470 0.57 S 
BRIC.BK 20.217 0.81 S 
KHBB.NC 22.260 0.59 S 
HAYF.BK 22.800 0.37 S 
# 2022 12 20 11 20 56.622 40.4905 -124.2665 16.015 1.874 0.203 0.203 0.525 123 
KCT.NC 3.491 0.65 P 
1023.NP 3.658 0.95 P 
1584B.NP 4.008 0.94 P 
B046.PB 5.056 0.91 P 
RBOW.BK 5.348 0.34 P 
PETL.BK 5.548 0.66 P 
KCO.NC 6.211 0.93 P 
89781.CE 7.568 0.77 P 
KNEE.BK 8.182 0.38 P 
89688.CE 9.628 0.82 P 
89462.CE 6.688 0.38 S 
KCT.NC 6.791 0.52 S 
1023.NP 7.588 0.91 S 
1586.NP 9.088 0.79 S 
B046.PB 9.276 0.87 S 
KCO.NC 9.541 0.64 S 
PETL.BK 10.138 0.39 S 
1581.NP 10.998 0.82 S 
89781.CE 12.028 0.45 S 
BJES.BK 13.858 0.54 S 
KNEE.BK 15.248 0.36 S 
89688.CE 17.708 0.66 S 
DMOR.BK 17.708 0.80 S 
KRP.NC 23.301 0.60 S 
# 2022 12 20 11 21 39.911 40.5898 -124.2800 20.747 2.826 0.160 0.160 0.384 124 
1023.NP 4.289 1.05 P 
1586.NP 4.349 1.04 P 
1584B.NP 4.359 1.03 P 
KCT.NC 4.852 0.60 P 
1581.NP 5.029 1.01 P 
89462.CE 5.359 1.06 P 
89781.CE 5.649 1.03 P 
KMPB.NC 5.992 0.64 P 
B046.PB 6.737 1.04 P 
RBOW.BK 6.869 0.49 P 
BJES.BK 7.209 0.55 P 
KNEE.BK 7.213 0.44 P 
PETL.BK 7.269 0.63 P 
KCO.NC 7.712 1.05 P 
DMOR.BK 8.119 0.53 P 
KCR.NC 8.549 0.71 P 
KPR.NC 8.759 0.64 P 
KTD.NC 9.319 1.03 P 
KBU.NC 9.879 0.50 P 
PRDS.BK 10.169 0.59 P 
KHMB.NC 10.192 0.59 P 
B049.PB 10.327 0.98 P 
89688.CE 10.659 0.91 P 
B935.PB 10.877 0.97 P 
KRP.NC 11.322 0.99 P 
KCSB.NC 11.682 0.84 P 
BRIC.BK 11.899 0.40 P 
1591.NP 12.329 0.78 P 
KHBB.NC 14.582 0.58 P 
B934.PB 15.097 0.86 P 
79046.CE 15.819 0.98 P 
KOM.NC 16.212 0.90 P 
KFP.NC 19.169 0.54 P 
TRIN.BK 20.850 0.36 P 
LBK.NC 21.929 1.07 P 
GUMB.BK 24.689 0.41 P 
1584B.NP 7.829 0.90 S 
1586.NP 8.229 0.97 S 
1023.NP 8.249 0.89 S 
KCT.NC 8.782 0.62 S 
1581.NP 9.409 0.91 S 
89462.CE 9.929 0.89 S 
89781.CE 10.229 0.93 S 
KMPB.NC 10.382 0.55 S 
B046.PB 11.827 0.89 S 
RBOW.BK 12.179 0.47 S 
PETL.BK 12.819 0.46 S 
BJES.BK 13.079 0.46 S 
KNEE.BK 13.533 0.47 S 
KCO.NC 13.782 0.94 S 
KCR.NC 15.209 0.56 S 
DMOR.BK 15.689 0.96 S 
KPR.NC 15.859 0.58 S 
KTD.NC 16.999 0.96 S 
KBU.NC 17.819 0.94 S 
KHMB.NC 18.002 0.63 S 
B049.PB 18.447 0.95 S 
PRDS.BK 18.513 0.41 S 
89688.CE 19.139 0.91 S 
B935.PB 19.187 0.98 S 
KRP.NC 20.102 0.95 S 
BRIC.BK 21.149 0.64 S 
KHBB.NC 25.452 0.67 S 
HAYF.BK 25.612 0.79 S 
79046.CE 27.519 0.89 S 
TRIN.BK 36.750 0.59 S 
GUMB.BK 43.533 0.52 S 
# 2022 12 20 11 22 39.662 40.5387 -124.3182 17.355 1.696 0.146 0.146 0.672 125 
KCT.NC 4.011 0.57 P 
1586.NP 4.658 1.05 P 
KMPB.NC 4.811 0.84 P 
89462.CE 5.148 1.05 P 
1582.NP 5.338 1.02 P 
1023.NP 5.388 0.77 P 
1581.NP 5.728 1.02 P 
B046.PB 5.906 1.03 P 
RBOW.BK 6.238 0.43 P 
89781.CE 6.448 1.04 P 
PETL.BK 6.458 0.53 P 
KCO.NC 7.041 1.00 P 
KPR.NC 8.568 0.58 P 
DMOR.BK 8.688 0.44 P 
KCR.NC 8.778 0.90 P 
KBU.NC 10.048 0.62 P 
PRDS.BK 10.058 0.55 P 
B049.PB 10.196 0.95 P 
89688.CE 10.508 0.96 P 
KHMB.NC 11.251 0.94 P 
B935.PB 11.496 0.97 P 
KMR.NC 11.811 0.93 P 
BRIC.BK 11.978 0.63 P 
KRP.NC 12.301 0.91 P 
KHBB.NC 15.351 0.89 P 
1584B.NP 6.458 0.98 S 
KCT.NC 7.321 0.69 S 
1023.NP 7.598 0.91 S 
1586.NP 8.748 0.95 S 
89462.CE 9.478 0.95 S 
KMPB.NC 9.971 0.35 S 
B046.PB 10.476 0.94 S 
RBOW.BK 11.158 0.49 S 
PETL.BK 11.358 0.47 S 
89781.CE 11.698 0.97 S 
KCO.NC 12.381 0.92 S 
BJES.BK 12.468 0.41 S 
KPR.NC 15.248 0.58 S 
KCR.NC 15.988 0.45 S 
DMOR.BK 17.468 0.94 S 
PRDS.BK 17.802 0.41 S 
KBU.NC 18.108 0.61 S 
B049.PB 18.176 0.90 S 
89688.CE 18.208 0.88 S 
KHMB.NC 19.691 0.86 S 
KMR.NC 20.071 0.53 S 
B935.PB 20.596 0.94 S 
BRIC.BK 20.948 0.45 S 
HAYF.BK 27.751 0.41 S 
WEAV.BK 34.208 0.42 S 
# 2022 12 20 11 23 43.746 40.5311 -124.4104 18.164 2.742 0.135 0.135 0.714 126 
1584B.NP 4.364 1.05 P 
KCT.NC 4.467 0.54 P 
1023.NP 5.004 1.02 P 
B046.PB 5.822 1.01 P 
1586.NP 5.844 1.03 P 
PETL.BK 6.034 0.54 P 
KMPB.NC 6.327 0.54 P 
89462.CE 6.404 1.05 P 
1582.NP 6.414 1.01 P 
1581.NP 6.654 1.06 P 
KCO.NC 6.757 1.03 P 
RBOW.BK 6.984 0.44 P 
89781.CE 7.404 1.04 P 
KPR.NC 8.754 0.59 P 
BJES.BK 8.764 1.00 P 
KNEE.BK 9.208 0.49 P 
KCR.NC 9.654 0.61 P 
PRDS.BK 9.994 0.41 P 
DMOR.BK 10.014 0.46 P 
89688.CE 10.254 0.95 P 
KBU.NC 10.484 0.59 P 
B049.PB 10.542 0.93 P 
KTD.NC 10.624 0.90 P 
KHMB.NC 12.067 0.98 P 
BRIC.BK 12.194 0.47 P 
B935.PB 12.242 0.95 P 
KMR.NC 12.507 0.61 P 
KRP.NC 12.767 0.89 P 
KCSB.NC 13.107 0.95 P 
1591.NP 13.184 0.96 P 
99700.CE 13.984 0.67 P 
HAYF.BK 16.077 0.92 P 
KHBB.NC 16.227 0.50 P 
79046.CE 16.604 1.03 P 
B934.PB 17.092 0.75 P 
KBN.NC 20.024 0.85 P 
TRIN.BK 22.097 1.01 P 
GNR.NC 22.974 0.33 P 
LBK.NC 23.894 1.02 P 
SCOT.BK 24.227 0.48 P 
GUMB.BK 26.538 0.67 P 
1584B.NP 7.904 0.90 S 
KCT.NC 8.357 0.66 S 
1023.NP 9.594 0.92 S 
B046.PB 10.242 0.74 S 
1586.NP 10.884 0.91 S 
PETL.BK 10.894 0.42 S 
KMPB.NC 11.277 0.62 S 
89462.CE 11.784 0.87 S 
1582.NP 12.014 0.92 S 
KCO.NC 12.237 0.96 S 
1581.NP 12.334 0.98 S 
RBOW.BK 12.504 0.50 S 
89781.CE 13.574 0.98 S 
KPR.NC 15.664 0.55 S 
KNEE.BK 16.444 0.49 S 
KCR.NC 17.494 0.60 S 
PRDS.BK 17.534 0.46 S 
89688.CE 17.814 0.45 S 
DMOR.BK 18.704 0.95 S 
KBU.NC 19.144 0.58 S 
B049.PB 19.512 0.96 S 
BRIC.BK 21.224 0.50 S 
KHMB.NC 21.227 0.54 S 
B935.PB 22.072 0.98 S 
KRP.NC 22.617 0.67 S 
KMR.NC 22.827 0.92 S 
1591.NP 23.194 0.88 S 
KCSB.NC 23.697 0.93 S 
KHBB.NC 28.687 0.81 S 
B934.PB 28.872 1.00 S 
79046.CE 29.784 0.97 S 
KOM.NC 31.127 0.67 S 
79298.CE 39.054 0.41 S 
LBK.NC 41.424 0.99 S 
SCOT.BK 41.755 0.52 S 
GUMB.BK 46.698 0.58 S 
# 2022 12 20 11 24 49.583 40.5948 -124.0936 16.252 1.643 0.156 0.156 0.453 127 
1586.NP 4.357 0.83 P 
1582.NP 4.437 0.90 P 
BJES.BK 4.897 0.71 P 
KNEE.BK 5.021 0.53 P 
89781.CE 5.097 1.01 P 
DMOR.BK 6.057 0.57 P 
RBOW.BK 6.487 0.57 P 
KCR.NC 6.537 0.72 P 
B046.PB 7.475 0.83 P 
KPR.NC 8.387 0.60 P 
KCO.NC 8.410 0.85 P 
KHMB.NC 8.730 0.41 P 
KBU.NC 9.047 0.57 P 
B935.PB 9.055 0.97 P 
B049.PB 9.105 0.94 P 
KCSB.NC 9.940 0.94 P 
KMR.NC 10.390 0.56 P 
PRDS.BK 10.507 0.53 P 
89688.CE 11.147 0.83 P 
BRIC.BK 11.747 0.62 P 
KHBB.NC 13.110 0.60 P 
WEAV.BK 15.937 0.50 P 
89462.CE 7.667 0.67 S 
1582.NP 8.157 0.91 S 
1586.NP 8.297 0.93 S 
BJES.BK 8.697 0.53 S 
1581.NP 9.157 0.79 S 
89781.CE 9.207 0.93 S 
KNEE.BK 9.347 0.52 S 
KMPB.NC 9.410 0.33 S 
B046.PB 11.765 0.50 S 
KCR.NC 11.787 0.40 S 
KCO.NC 14.110 0.73 S 
KPR.NC 15.037 0.62 S 
KHMB.NC 15.710 0.63 S 
KBU.NC 15.867 0.61 S 
B049.PB 16.165 0.86 S 
B935.PB 16.505 0.87 S 
KCSB.NC 17.990 0.58 S 
KMR.NC 18.830 0.60 S 
PRDS.BK 18.877 0.39 S 
BRIC.BK 20.447 0.41 S 
1591.NP 20.727 0.64 S 
B934.PB 26.685 0.39 S 
WEAV.BK 28.227 0.54 S 
# 2022 12 20 11 25 32.345 40.5483 -124.2371 19.420 1.607 0.171 0.171 0.402 128 
KCT.NC 4.708 0.90 P 
1581.NP 4.845 0.89 P 
KMPB.NC 5.028 0.94 P 
1582.NP 5.045 1.02 P 
89781.CE 5.805 1.00 P 
RBOW.BK 6.075 0.54 P 
B046.PB 6.213 0.96 P 
PETL.BK 6.555 0.48 P 
KNEE.BK 6.939 0.69 P 
KCO.NC 7.208 0.94 P 
KCR.NC 7.815 0.67 P 
KPR.NC 8.195 0.54 P 
KBU.NC 9.185 0.56 P 
B049.PB 9.433 0.93 P 
PRDS.BK 9.575 0.49 P 
KHMB.NC 10.428 0.54 P 
KMR.NC 11.068 0.48 P 
BRIC.BK 11.525 0.50 P 
89255.CE 8.235 0.77 S 
1586.NP 8.495 0.77 S 
KCT.NC 8.508 0.50 S 
89462.CE 8.625 0.82 S 
KMPB.NC 9.088 0.44 S 
1582.NP 9.425 0.91 S 
1581.NP 10.155 0.97 S 
RBOW.BK 10.675 0.41 S 
B046.PB 10.873 0.81 S 
89781.CE 10.985 0.95 S 
BJES.BK 11.955 0.78 S 
PETL.BK 11.995 0.48 S 
KCO.NC 12.678 0.72 S 
KNEE.BK 13.049 0.57 S 
KCR.NC 13.985 0.59 S 
KPR.NC 14.375 0.81 S 
KBU.NC 16.825 0.59 S 
B049.PB 16.833 0.88 S 
PRDS.BK 17.495 0.45 S 
89688.CE 17.945 0.75 S 
KHMB.NC 18.108 0.92 S 
B935.PB 18.813 0.58 S 
KMR.NC 19.868 0.74 S 
BRIC.BK 20.615 0.64 S 
# 2022 12 20 11 25 47.130 40.5485 -123.9533 20.029 1.652 0.143 0.143 0.445 129 
KCR.NC 5.140 0.59 P 
DMOR.BK 5.190 0.58 P 
KMPB.NC 5.443 0.57 P 
RBOW.BK 6.210 0.54 P 
1586.NP 6.230 0.99 P 
1582.NP 6.510 1.02 P 
1581.NP 6.860 1.00 P 
B935.PB 7.188 0.93 P 
KCT.NC 7.353 0.99 P 
KBU.NC 7.480 0.60 P 
B049.PB 7.488 0.94 P 
B046.PB 7.638 0.98 P 
KPR.NC 7.760 0.66 P 
KHMB.NC 8.363 0.37 P 
KCO.NC 8.403 0.67 P 
PETL.BK 8.440 0.91 P 
KMR.NC 8.723 0.61 P 
PRDS.BK 9.640 0.72 P 
HAYF.BK 11.161 0.50 P 
KHBB.NC 11.453 0.56 P 
WEAV.BK 13.960 0.64 P 
PETY.BK 18.091 0.43 P 
BJES.BK 7.640 0.97 S 
89462.CE 9.180 0.95 S 
KCR.NC 9.310 0.62 S 
89255.CE 9.840 0.90 S 
KNEE.BK 9.840 0.47 S 
KMPB.NC 9.923 0.44 S 
RBOW.BK 11.040 0.37 S 
1582.NP 11.400 0.92 S 
1586.NP 11.630 0.94 S 
89781.CE 12.020 0.89 S 
1581.NP 12.280 0.88 S 
B935.PB 12.968 0.92 S 
B049.PB 13.258 0.77 S 
B046.PB 13.598 0.85 S 
KBU.NC 13.710 0.58 S 
KPR.NC 13.720 0.53 S 
KCT.NC 13.963 0.36 S 
KCO.NC 15.073 0.89 S 
PETL.BK 15.490 0.46 S 
KMR.NC 15.723 0.92 S 
PRDS.BK 16.850 0.36 S 
BRIC.BK 18.190 0.53 S 
1591.NP 18.560 0.87 S 
HAYF.BK 19.993 0.47 S 
KHBB.NC 20.413 0.87 S 
B934.PB 24.188 0.33 S 
WEAV.BK 25.160 0.58 S 
PETY.BK 32.051 0.43 S 
# 2022 12 20 11 26 15.397 40.7404 -123.8816 24.326 1.692 0.313 0.313 1.126 130 
89255.CE 6.093 0.41 P 
DMOR.BK 6.433 0.56 P 
1586.NP 6.733 0.68 P 
1582.NP 6.923 0.70 P 
B935.PB 8.261 0.78 P 
KCSB.NC 8.326 0.79 P 
KCT.NC 9.706 0.43 P 
B046.PB 9.771 0.48 P 
KHBB.NC 10.466 0.55 P 
HAYF.BK 10.614 0.56 P 
PETL.BK 10.803 0.50 P 
KBU.NC 11.553 0.57 P 
B049.PB 11.721 0.96 P 
KCO.NC 11.846 0.87 P 
KMR.NC 12.076 0.91 P 
WEAV.BK 13.013 0.40 P 
BRIC.BK 14.203 0.65 P 
DMOR.BK 8.973 0.54 S 
1586.NP 10.373 0.73 S 
1582.NP 10.893 0.73 S 
1581.NP 11.693 0.83 S 
BJES.BK 11.743 0.39 S 
89781.CE 11.983 0.90 S 
B935.PB 12.621 0.81 S 
1584B.NP 13.833 0.78 S 
KCR.NC 14.823 0.59 S 
HAYF.BK 16.336 0.35 S 
KPR.NC 17.713 0.69 S 
B049.PB 18.501 0.85 S 
KBU.NC 18.703 0.60 S 
PRDS.BK 21.207 0.73 S 
BRIC.BK 22.243 0.48 S 
# 2022 12 20 11 26 42.927 40.5396 -124.3539 18.456 1.542 0.171 0.171 0.829 131 
KCT.NC 4.196 0.63 P 
B046.PB 5.051 1.02 P 
1586.NP 5.113 0.98 P 
89255.CE 5.383 0.76 P 
1582.NP 5.803 0.99 P 
KPR.NC 8.933 0.66 P 
KCR.NC 9.163 0.69 P 
B935.PB 9.891 0.75 P 
PRDS.BK 10.397 0.46 P 
KBU.NC 10.423 0.56 P 
B049.PB 10.501 0.94 P 
89688.CE 10.763 0.89 P 
KHMB.NC 11.906 0.59 P 
KMR.NC 11.916 0.96 P 
BRIC.BK 12.313 0.53 P 
HAYF.BK 12.674 0.34 P 
1584B.NP 6.483 0.94 S 
KCT.NC 7.286 0.67 S 
1023.NP 8.033 0.76 S 
1586.NP 9.403 0.90 S 
89255.CE 9.733 0.60 S 
B046.PB 10.381 0.94 S 
1582.NP 10.673 0.86 S 
PETL.BK 11.203 0.34 S 
1581.NP 11.403 0.91 S 
BJES.BK 14.403 0.42 S 
KCR.NC 15.703 0.39 S 
KPR.NC 16.123 0.58 S 
PRDS.BK 18.203 0.49 S 
B049.PB 18.541 0.92 S 
89688.CE 18.553 0.56 S 
KBU.NC 18.563 0.69 S 
B935.PB 19.631 0.33 S 
BRIC.BK 21.223 0.64 S 
KMR.NC 21.376 0.93 S 
1591.NP 22.883 0.56 S 
B934.PB 27.011 0.54 S 
# 2022 12 20 11 27 11.585 40.5722 -124.2220 18.148 1.426 0.213 0.213 0.583 132 
1584B.NP 4.295 0.79 P 
1582.NP 4.685 0.95 P 
PETL.BK 6.325 0.74 P 
B046.PB 6.453 0.95 P 
KCR.NC 7.545 0.62 P 
DMOR.BK 7.575 0.40 P 
KPR.NC 8.335 0.89 P 
KBU.NC 9.325 0.91 P 
B049.PB 9.333 0.93 P 
B935.PB 10.463 0.88 P 
KMR.NC 10.938 0.88 P 
89255.CE 7.305 0.73 S 
1584B.NP 7.675 0.91 S 
1586.NP 7.895 0.72 S 
1582.NP 8.745 0.91 S 
KCT.NC 8.868 0.89 S 
1581.NP 9.585 0.82 S 
B046.PB 11.473 0.91 S 
PETL.BK 12.705 0.38 S 
RBOW.BK 13.095 0.38 S 
KCR.NC 13.415 0.40 S 
KCO.NC 13.678 0.71 S 
KPR.NC 15.125 0.50 S 
KBU.NC 16.335 0.53 S 
KMR.NC 19.878 0.84 S 
BRIC.BK 20.135 0.52 S 
1591.NP 20.965 0.74 S 
KHBB.NC 25.858 0.40 S 
B934.PB 27.433 0.47 S 
# 2022 12 20 11 27 28.805 40.5153 -124.3317 15.234 1.128 0.204 0.204 0.427 133 
1584B.NP 3.465 0.77 P 
KCT.NC 3.468 0.52 P 
1586.NP 4.675 0.66 P 
KPR.NC 8.405 0.72 P 
KCR.NC 9.055 0.74 P 
1584B.NP 5.955 0.74 S 
KCT.NC 6.718 0.53 S 
1586.NP 9.235 0.73 S 
89255.CE 9.545 0.64 S 
B046.PB 9.603 0.56 S 
KMPB.NC 9.658 0.58 S 
PETL.BK 10.335 0.40 S 
RBOW.BK 10.995 0.34 S 
KCR.NC 15.205 0.62 S 
KBU.NC 17.675 0.65 S 
B049.PB 18.333 0.63 S 
BRIC.BK 20.675 0.34 S 
# 2022 12 20 11 27 45.403 40.7104 -123.8581 22.650 1.705 0.183 0.183 0.817 134 
DMOR.BK 3.777 0.68 P 
KNEE.BK 3.901 0.44 P 
KHMB.NC 5.490 0.62 P 
89781.CE 6.357 1.03 P 
1586.NP 6.727 0.89 P 
B935.PB 7.495 0.99 P 
1584B.NP 8.007 0.49 P 
KCSB.NC 8.080 0.88 P 
KCR.NC 8.147 0.80 P 
RBOW.BK 9.887 0.98 P 
KPR.NC 10.267 0.59 P 
KHBB.NC 10.330 0.61 P 
B049.PB 10.575 0.75 P 
HAYF.BK 10.890 0.55 P 
B046.PB 11.675 0.74 P 
PRDS.BK 11.727 0.44 P 
WEAV.BK 12.267 0.62 P 
TRIN.BK 16.410 0.62 P 
LBK.NC 17.487 1.05 P 
KNEE.BK 8.407 0.58 S 
KHMB.NC 10.210 0.60 S 
KCR.NC 10.647 0.34 S 
1586.NP 11.007 0.60 S 
89781.CE 11.267 0.92 S 
1582.NP 12.317 0.90 S 
1581.NP 12.697 0.90 S 
B935.PB 13.575 0.94 S 
KMPB.NC 15.610 0.58 S 
RBOW.BK 16.747 0.49 S 
KRP.NC 17.170 0.55 S 
KPR.NC 17.177 0.50 S 
KHBB.NC 17.590 0.64 S 
KBU.NC 18.247 0.49 S 
HAYF.BK 18.498 0.49 S 
B049.PB 18.655 0.66 S 
PRDS.BK 20.137 0.42 S 
WEAV.BK 21.737 0.63 S 
TRIN.BK 28.768 0.60 S 
LBK.NC 30.807 0.92 S 
PETY.BK 32.490 0.34 S 
GUMB.BK 35.841 0.36 S 
