# 2022 12 20 11 35 45.963 40.5301 -124.1445 17.356 1.331 0.263 0.263 0.807 154 
KMPB 4.090 0.89 P 
B046 5.015 0.60 P 
KCR 5.247 0.48 P 
RBOW 5.387 0.51 P 
1582 7.007 0.38 P 
KPR 7.547 0.87 P 
B049 7.955 0.89 P 
PRDS 9.407 0.35 P 
89462 6.677 0.50 S 
KCT 7.900 0.37 S 
KMPB 8.470 0.34 S 
RBOW 9.827 0.86 S 
B046 10.955 0.74 S 
KPR 13.877 0.62 S 
KBU 14.887 0.46 S 
B049 14.935 0.82 S 
KMR 17.650 0.34 S 
PRDS 17.687 0.45 S 
# 2022 12 20 11 36 25.767 40.5690 -124.1217 31.773 1.264 0.312 0.312 0.779 155 
1584B 4.483 0.63 P 
RBOW 7.123 0.36 P 
KNEE 7.357 0.79 P 
KCR 8.003 0.75 P 
PETL 8.233 0.42 P 
KPR 9.563 0.36 P 
B935 10.291 0.73 P 
HAYF 11.966 0.40 P 
89462 9.683 0.67 S 
1586 9.903 0.63 S 
BJES 11.673 0.36 S 
RBOW 11.873 0.36 S 
KNEE 12.557 0.62 S 
B046 12.611 0.46 S 
KCR 13.653 0.72 S 
PETL 13.783 0.47 S 
B049 15.321 0.53 S 
B935 15.591 0.52 S 
HAYF 20.854 0.33 S 
# 2022 12 20 11 36 36.853 40.5429 -124.2427 19.049 1.082 0.319 0.319 0.353 156 
89462 4.537 0.63 P 
RBOW 5.827 0.43 P 
B046 6.005 0.67 P 
KCO 7.320 0.61 P 
KCR 7.637 0.63 P 
KPR 7.837 0.39 P 
KBU 9.157 0.37 P 
B049 9.325 0.69 P 
PRDS 9.657 0.65 P 
KMR 10.920 0.70 P 
1586 8.407 0.53 S 
89462 8.437 0.62 S 
1582 9.327 0.37 S 
PETL 11.717 0.49 S 
B049 16.705 0.42 S 
KBU 16.827 0.45 S 
BRIC 19.857 0.58 S 
# 2022 12 20 11 36 58.352 40.5382 -124.2506 18.736 1.547 0.173 0.173 0.724 157 
KCT 3.411 0.83 P 
89462 4.518 0.98 P 
1582 5.098 0.97 P 
1581 5.498 0.99 P 
RBOW 5.918 0.48 P 
B046 6.136 0.92 P 
KCO 7.101 0.97 P 
KNEE 7.212 0.67 P 
KCR 7.818 0.67 P 
DMOR 7.998 0.70 P 
KPR 8.118 0.66 P 
KBU 9.278 0.57 P 
B049 9.466 0.94 P 
PRDS 9.848 0.52 P 
KHMB 10.611 0.57 P 
KMR 11.111 0.93 P 
BRIC 11.548 0.55 P 
KCT 7.001 0.46 S 
1584B 7.468 0.91 S 
1023 7.898 0.61 S 
89462 8.298 0.83 S 
1586 8.418 0.44 S 
B046 9.396 0.53 S 
1582 9.438 0.89 S 
1581 10.308 0.93 S 
RBOW 10.318 0.37 S 
KCO 11.491 0.50 S 
PETL 11.838 0.71 S 
KNEE 13.158 0.58 S 
KCR 13.868 0.58 S 
KPR 14.228 0.57 S 
DMOR 15.808 0.44 S 
KBU 16.968 0.67 S 
B049 17.116 0.93 S 
B935 17.146 0.40 S 
PRDS 17.328 0.45 S 
89688 17.758 0.63 S 
KMR 19.901 0.80 S 
BRIC 20.538 0.53 S 
HAYF 26.151 0.33 S 
# 2022 12 20 11 37 13.733 40.5146 -124.4383 15.553 1.918 0.146 0.146 0.437 158 
KCT 4.240 0.61 P 
B046 5.965 0.99 P 
1586 5.997 1.01 P 
PETL 6.417 0.47 P 
KMPB 6.610 0.62 P 
89462 6.617 0.97 P 
1582 6.707 1.04 P 
1581 7.047 1.01 P 
KCO 7.200 1.01 P 
RBOW 7.267 0.49 P 
89781 7.927 1.05 P 
KPR 9.287 0.63 P 
BJES 9.427 0.93 P 
KNEE 9.797 0.65 P 
KCR 10.197 0.59 P 
PRDS 10.427 0.56 P 
DMOR 10.617 0.36 P 
89688 10.627 0.69 P 
KBU 11.157 0.49 P 
B049 11.285 0.83 P 
BRIC 12.657 0.43 P 
KMR 12.840 0.86 P 
B935 12.975 0.78 P 
HAYF 16.600 0.43 P 
WEAV 19.487 0.46 P 
PETY 22.428 0.50 P 
1584B 7.377 0.95 S 
KCT 7.600 0.62 S 
1023 9.227 0.70 S 
B046 10.245 0.87 S 
1586 10.877 0.91 S 
PETL 10.917 0.44 S 
KMPB 11.350 0.54 S 
89255 11.517 0.64 S 
89462 11.757 0.94 S 
1582 12.317 0.95 S 
KCO 12.430 0.92 S 
1581 12.727 0.95 S 
RBOW 12.757 0.38 S 
89781 13.957 0.95 S 
KPR 16.427 0.55 S 
KNEE 17.431 0.46 S 
KCR 18.217 0.58 S 
PRDS 18.511 0.38 S 
89688 19.007 0.82 S 
KBU 19.627 0.87 S 
B049 19.855 0.84 S 
BRIC 22.067 0.53 S 
KMR 22.880 0.92 S 
B935 23.135 0.93 S 
1591 23.797 0.81 S 
79046 28.357 0.75 S 
HAYF 30.748 0.62 S 
WEAV 33.667 0.60 S 
# 2022 12 20 11 38 1.798 40.5283 -124.4106 15.724 2.000 0.141 0.141 0.557 159 
KCT 3.205 0.35 P 
1584B 3.992 1.03 P 
1023 4.642 0.71 P 
1586 5.632 1.01 P 
B046 5.640 0.99 P 
89255 5.912 0.98 P 
89462 6.182 1.01 P 
1582 6.332 1.02 P 
PETL 6.622 0.50 P 
KCO 6.935 1.04 P 
89781 7.372 1.03 P 
BJES 8.722 0.97 P 
KPR 9.162 0.82 P 
KNEE 9.252 0.46 P 
KCR 9.682 0.60 P 
DMOR 10.102 0.36 P 
PRDS 10.746 0.40 P 
KBU 10.872 0.75 P 
89688 10.982 0.91 P 
KMR 12.335 0.57 P 
KHMB 12.365 0.43 P 
B935 12.580 0.99 P 
BRIC 12.612 0.44 P 
1591 13.272 0.96 P 
KCSB 13.645 0.83 P 
HAYF 15.695 0.82 P 
B934 16.040 0.80 P 
KBN 20.362 0.64 P 
LBK 24.142 0.47 P 
1584B 6.822 0.86 S 
KCT 7.485 0.73 S 
1023 8.502 0.87 S 
1586 10.172 0.87 S 
B046 10.460 0.95 S 
89255 10.612 0.86 S 
89462 10.802 0.95 S 
PETL 11.212 0.45 S 
1582 11.502 0.82 S 
1581 12.012 0.54 S 
KCO 12.815 0.94 S 
89781 13.202 0.96 S 
KPR 16.172 0.54 S 
KNEE 16.472 0.54 S 
KCR 17.582 0.64 S 
PRDS 18.446 0.39 S 
89688 18.762 0.49 S 
DMOR 19.052 0.93 S 
KBU 19.132 0.49 S 
B049 19.280 0.69 S 
BRIC 21.652 0.54 S 
KHMB 22.055 0.62 S 
KMR 22.155 0.94 S 
B935 22.420 0.93 S 
1591 23.372 0.86 S 
B934 27.320 0.85 S 
HAYF 29.695 0.59 S 
PETY 41.015 0.35 S 
# 2022 12 20 11 38 28.046 40.5134 -124.3565 16.581 1.261 0.195 0.195 0.429 160 
KCT 3.977 0.61 P 
1586 5.204 0.87 P 
KMPB 5.477 0.87 P 
B046 5.542 0.98 P 
1582 5.754 0.77 P 
RBOW 6.274 0.46 P 
KCO 6.677 0.90 P 
KPR 8.394 0.63 P 
KCR 9.284 0.84 P 
PRDS 9.844 0.55 P 
KBU 10.054 0.81 P 
89688 10.174 0.85 P 
BRIC 11.534 0.54 P 
KCT 7.337 0.62 S 
1586 9.474 0.93 S 
KMPB 9.717 0.87 S 
B046 9.772 0.92 S 
1582 10.844 0.88 S 
1581 11.424 0.51 S 
KCO 11.777 0.92 S 
KPR 14.994 0.57 S 
KCR 16.274 0.35 S 
KNEE 16.828 0.66 S 
PRDS 17.684 0.39 S 
89688 18.154 0.92 S 
B049 18.202 0.74 S 
KBU 18.204 0.82 S 
BRIC 20.814 0.56 S 
KMR 21.197 0.63 S 
B935 21.292 0.71 S 
1591 22.464 0.68 S 
# 2022 12 20 11 38 50.644 40.5215 -124.3508 17.514 0.980 0.276 0.276 0.330 161 
KCT 4.079 0.84 P 
1586 5.086 0.41 P 
KPR 7.906 0.68 P 
PRDS 9.460 0.51 P 
KBU 10.246 0.66 P 
B049 10.304 0.72 P 
89688 10.676 0.70 P 
KCT 7.229 0.38 S 
1586 9.336 0.54 S 
KMPB 9.679 0.33 S 
B046 10.064 0.81 S 
PETL 10.996 0.40 S 
KPR 15.116 0.49 S 
PRDS 17.306 0.48 S 
B049 18.304 0.72 S 
KBU 18.686 0.43 S 
# 2022 12 20 11 39 13.733 40.4673 -124.5150 16.793 1.517 0.226 0.226 0.468 162 
KCT 5.150 0.60 P 
PETL 6.047 0.54 P 
B046 6.145 0.95 P 
KCO 7.010 0.93 P 
KMPB 7.180 0.90 P 
1586 7.187 0.90 P 
RBOW 7.777 0.49 P 
KPR 9.237 0.56 P 
PRDS 10.377 0.40 P 
89688 10.517 0.88 P 
KBU 11.567 0.47 P 
BRIC 11.747 0.37 P 
B049 11.785 0.91 P 
KCT 9.230 0.58 S 
B046 10.525 0.77 S 
PETL 10.527 0.44 S 
KCO 12.190 0.84 S 
1586 13.007 0.85 S 
RBOW 13.477 0.45 S 
89255 13.767 0.81 S 
1582 14.157 0.77 S 
1581 14.437 0.72 S 
KPR 16.177 0.62 S 
PRDS 18.081 0.50 S 
89688 18.267 0.68 S 
KBU 20.447 0.75 S 
B049 20.605 0.86 S 
BRIC 22.117 0.51 S 
B934 29.705 0.36 S 
# 2022 12 20 11 39 46.687 40.4361 -124.3771 27.940 1.968 0.188 0.188 0.527 163 
KCO 5.156 0.58 P 
KCT 5.166 1.04 P 
B046 5.561 1.08 P 
PETL 5.603 0.92 P 
RBOW 5.773 0.46 P 
1023 7.143 0.97 P 
KPR 8.563 0.44 P 
PRDS 9.143 0.56 P 
KCR 9.193 0.67 P 
89688 9.203 0.78 P 
KNEE 9.507 0.93 P 
KBU 9.563 1.02 P 
B049 9.651 0.87 P 
BJES 9.993 0.73 P 
BRIC 10.973 0.40 P 
KMR 11.526 0.96 P 
1591 11.623 1.01 P 
KHMB 12.536 0.89 P 
KRP 13.816 1.04 P 
99700 15.163 0.47 P 
HAYF 15.436 0.66 P 
KFP 18.223 0.59 P 
KBN 18.683 1.01 P 
DCMP 20.254 0.53 P 
B046 9.531 0.96 S 
1584B 9.583 0.95 S 
KCT 9.766 0.56 S 
PETL 9.953 0.44 S 
KCO 10.846 0.89 S 
RBOW 11.193 0.51 S 
1023 11.393 0.96 S 
89462 11.683 0.69 S 
1586 12.433 0.92 S 
89255 12.483 0.53 S 
1582 13.413 0.73 S 
1581 13.813 0.59 S 
KPR 14.083 0.69 S 
PRDS 15.553 0.40 S 
89688 15.783 0.53 S 
KCR 16.133 0.54 S 
KNEE 16.873 0.77 S 
KBU 17.263 0.42 S 
BRIC 18.803 0.57 S 
KMR 19.886 0.96 S 
1591 20.643 0.95 S 
B935 21.121 0.85 S 
KHMB 21.626 0.76 S 
KRP 24.006 0.93 S 
B934 24.321 0.69 S 
79046 24.563 0.76 S 
99700 25.603 0.36 S 
HAYF 27.174 0.48 S 
KHBB 27.836 0.65 S 
KFP 31.553 0.56 S 
WEAV 32.513 0.34 S 
DCMP 35.214 0.51 S 
# 2022 12 20 11 40 5.567 41.4966 -123.1810 24.324 2.044 2.284 2.284 0.794 164 
89781 16.763 0.52 P 
1582 19.673 0.73 P 
1586 19.893 0.71 P 
89255 20.793 0.53 P 
RBOW 21.953 0.38 P 
KPR 23.753 0.38 P 
KBU 23.863 0.41 P 
B049 23.941 0.64 P 
BRIC 26.633 0.37 P 
KRP 25.596 0.37 S 
KBU 41.363 0.49 S 
BRIC 44.073 0.37 S 
# 2022 12 20 11 40 20.547 40.6365 -123.9411 9.127 1.092 0.700 0.700 0.679 165 
B935 8.331 0.50 P 
KPR 8.783 0.41 P 
KBU 8.903 0.47 P 
KCO 9.066 0.44 P 
BRIC 11.643 0.46 P 
KHBB 12.086 0.47 P 
1581 9.543 0.72 S 
RBOW 14.513 0.68 S 
KCT 15.616 0.36 S 
B049 15.961 0.58 S 
KPR 16.303 0.54 S 
B046 18.021 0.71 S 
KMR 18.436 0.64 S 
PETL 18.913 0.36 S 
# 2022 12 20 11 40 28.482 40.5175 -124.3856 15.166 1.496 0.157 0.157 0.598 166 
KCT 2.771 0.55 P 
B046 4.446 0.75 P 
89255 4.938 0.83 P 
KMPB 5.041 0.52 P 
PETL 5.358 0.47 P 
1586 5.548 0.85 P 
1582 6.228 0.90 P 
KPR 8.888 0.51 P 
KNEE 9.122 0.93 P 
KCR 9.488 0.86 P 
KBU 10.488 0.86 P 
PRDS 10.678 0.57 P 
89688 11.568 0.89 P 
BRIC 12.168 0.49 P 
B935 12.246 0.62 P 
1591 12.848 0.91 P 
1584B 6.888 0.83 S 
KCT 7.651 0.63 S 
1586 10.048 0.80 S 
KMPB 10.161 0.87 S 
89255 10.258 0.88 S 
89462 10.538 0.76 S 
PETL 10.928 0.42 S 
1582 11.378 0.87 S 
1581 11.958 0.78 S 
KCO 12.051 0.61 S 
KPR 15.518 0.64 S 
KNEE 16.092 0.86 S 
KCR 16.768 0.56 S 
PRDS 17.838 0.56 S 
89688 18.558 0.58 S 
B049 18.616 0.86 S 
KBU 20.128 0.40 S 
BRIC 21.128 0.57 S 
B935 21.776 0.86 S 
KMR 21.811 0.75 S 
1591 22.768 0.88 S 
HAYF 29.099 0.35 S 
# 2022 12 20 11 40 43.593 40.4157 -124.3321 23.986 1.403 0.327 0.327 0.818 167 
B046 3.895 0.78 P 
KMPB 4.260 0.50 P 
PETL 5.097 0.44 P 
KCO 5.100 0.87 P 
1584B 5.117 0.54 P 
KPR 7.057 0.43 P 
KCR 7.897 0.45 P 
PRDS 8.191 0.40 P 
89688 8.727 0.83 P 
B049 8.955 0.80 P 
BRIC 10.367 0.58 P 
B046 8.305 0.81 S 
KMPB 8.920 0.74 S 
PETL 9.057 0.41 S 
KCO 10.460 0.61 S 
89688 12.977 0.71 S 
KCR 15.607 0.43 S 
BRIC 15.877 0.52 S 
B049 17.515 0.62 S 
# 2022 12 20 11 41 4.489 40.5374 -124.3667 20.216 1.278 0.278 0.278 0.878 168 
KCT 3.804 0.93 P 
1586 5.081 0.88 P 
1582 5.821 0.84 P 
B046 6.199 0.86 P 
KCO 6.354 0.88 P 
RBOW 7.651 0.75 P 
KPR 8.261 0.42 P 
KCR 10.381 0.52 P 
B935 10.599 0.77 P 
KCT 8.044 0.85 S 
1586 9.761 0.72 S 
1582 11.171 0.66 S 
KCO 11.684 0.75 S 
KCR 16.321 0.42 S 
B049 18.689 0.68 S 
B935 18.819 0.54 S 
KBU 19.041 0.81 S 
89688 19.151 0.50 S 
BRIC 21.181 0.43 S 
KMR 21.414 0.77 S 
# 2022 12 20 11 41 24.088 40.5169 -124.4006 17.134 1.726 0.153 0.153 0.493 169 
KCT 4.115 0.88 P 
B046 5.680 1.01 P 
89462 6.072 0.97 P 
KMPB 6.095 0.72 P 
PETL 6.112 0.58 P 
KCO 6.855 1.03 P 
RBOW 7.202 0.56 P 
BJES 8.642 0.96 P 
89781 8.792 0.75 P 
KPR 8.862 0.65 P 
KNEE 9.122 0.71 P 
KCR 9.632 0.64 P 
DMOR 9.962 0.40 P 
PRDS 10.022 0.54 P 
89688 10.442 0.91 P 
KBU 10.642 0.61 P 
B049 10.780 0.93 P 
BRIC 12.242 0.61 P 
KMR 12.365 0.92 P 
B935 12.380 0.95 P 
1584B 6.812 0.68 S 
KCT 7.385 0.38 S 
1023 8.612 0.72 S 
B046 10.010 0.91 S 
1586 10.172 0.66 S 
KMPB 10.745 0.50 S 
PETL 10.802 0.41 S 
89255 10.812 0.48 S 
89462 10.972 0.95 S 
1582 11.432 0.73 S 
1581 11.962 0.91 S 
RBOW 12.092 0.46 S 
KCO 12.175 0.94 S 
89781 13.272 0.77 S 
KPR 15.622 0.59 S 
KNEE 16.416 0.53 S 
KCR 17.612 0.63 S 
PRDS 17.932 0.43 S 
89688 18.262 0.90 S 
DMOR 19.162 0.92 S 
B049 19.220 0.94 S 
KBU 19.422 0.63 S 
BRIC 21.472 0.46 S 
B935 22.210 0.93 S 
KMR 22.215 0.96 S 
1591 22.842 0.95 S 
# 2022 12 20 11 41 59.402 40.5516 -124.3706 18.495 1.963 0.141 0.141 0.961 170 
1023 2.988 0.76 P 
1584B 4.098 1.02 P 
KCT 4.471 0.58 P 
1586 5.268 1.01 P 
89255 5.348 1.01 P 
B046 5.786 1.01 P 
89462 5.848 1.01 P 
89781 5.978 0.93 P 
1581 6.048 1.00 P 
KMPB 6.201 0.63 P 
1582 6.398 0.60 P 
PETL 6.728 0.69 P 
RBOW 6.958 0.41 P 
KCO 7.271 1.00 P 
KPR 9.118 0.66 P 
BJES 9.368 0.89 P 
KCR 9.798 0.79 P 
KBU 9.948 0.39 P 
DMOR 10.108 0.33 P 
PRDS 10.588 0.54 P 
B049 11.006 0.94 P 
89688 11.088 0.93 P 
KMR 11.341 0.88 P 
KHMB 12.361 0.74 P 
B935 12.536 0.87 P 
BRIC 12.618 0.43 P 
1591 13.248 0.88 P 
KHBB 16.451 0.35 P 
1584B 6.888 0.94 S 
KCT 7.591 0.64 S 
1023 8.498 0.69 S 
1582 9.758 0.60 S 
89462 10.038 0.94 S 
1586 10.078 0.91 S 
89781 10.288 0.66 S 
89255 10.488 0.76 S 
1581 10.568 0.86 S 
B046 10.576 0.95 S 
KMPB 10.581 0.56 S 
PETL 11.368 0.45 S 
RBOW 11.958 0.49 S 
KCO 12.681 0.92 S 
BJES 14.988 0.59 S 
KPR 15.888 0.54 S 
KNEE 16.282 0.39 S 
KCR 16.808 0.64 S 
PRDS 18.438 0.40 S 
DMOR 19.048 0.67 S 
89688 19.088 0.89 S 
KBU 19.108 0.64 S 
B049 19.176 0.93 S 
KMR 19.701 0.90 S 
KRP 20.161 0.61 S 
BRIC 21.568 0.48 S 
KHMB 21.891 0.60 S 
B935 22.336 0.61 S 
KHBB 22.971 0.35 S 
1591 23.128 0.90 S 
# 2022 12 20 11 42 54.537 40.5201 -124.3506 17.830 3.258 0.122 0.122 0.489 171 
1584B 3.653 0.93 P 
KCT 4.176 0.38 P 
1023 4.233 1.03 P 
1586 5.023 1.00 P 
89255 5.193 1.01 P 
89462 5.383 0.98 P 
KMPB 5.566 0.51 P 
1582 5.803 1.00 P 
B046 5.841 1.00 P 
1581 6.173 0.99 P 
PETL 6.373 0.62 P 
RBOW 6.523 0.48 P 
89781 6.953 1.02 P 
KCO 7.006 0.97 P 
BJES 7.903 0.86 P 
KNEE 8.407 0.44 P 
KPR 8.543 0.63 P 
KCR 8.983 0.63 P 
DMOR 9.343 0.48 P 
PRDS 10.143 0.52 P 
KBU 10.173 0.38 P 
B049 10.321 0.92 P 
89688 10.423 0.78 P 
KTD 10.633 0.94 P 
KHMB 11.676 0.53 P 
B935 11.741 0.88 P 
KMR 11.906 0.51 P 
BRIC 11.983 0.39 P 
1591 12.453 0.96 P 
KCSB 12.696 0.91 P 
KRP 12.796 0.97 P 
B934 15.441 0.94 P 
KHBB 15.626 0.39 P 
79046 15.673 0.94 P 
KOM 17.676 0.92 P 
RVIT 18.033 0.35 P 
PETY 21.004 0.34 P 
DCMP 21.354 0.55 P 
KRK 22.023 0.91 P 
GNR 23.053 0.90 P 
LBK 23.273 0.88 P 
GWR 24.823 0.90 P 
1584B 6.433 0.90 S 
KCT 7.356 0.76 S 
1023 8.083 0.85 S 
1586 9.393 0.89 S 
89255 9.563 0.91 S 
KMPB 9.746 0.59 S 
89462 9.803 0.92 S 
B046 10.071 0.92 S 
1582 10.723 0.82 S 
PETL 10.983 0.52 S 
RBOW 11.203 0.41 S 
1581 11.433 0.90 S 
KCO 12.156 0.91 S 
89781 12.423 0.90 S 
KNEE 15.093 0.46 S 
KPR 15.573 0.56 S 
KCR 16.053 0.55 S 
PRDS 17.863 0.36 S 
DMOR 17.943 0.93 S 
KBU 18.023 0.83 S 
89688 18.043 0.80 S 
B049 18.281 0.90 S 
BRIC 20.823 0.51 S 
KHMB 20.826 0.67 S 
KMR 20.936 0.61 S 
B935 21.181 0.91 S 
1591 22.153 0.82 S 
KRP 22.426 0.89 S 
KCSB 22.906 0.95 S 
B934 26.561 0.89 S 
79046 27.163 0.89 S 
KHBB 29.276 0.57 S 
RVIT 32.633 0.87 S 
KFP 33.443 0.67 S 
79298 33.873 0.42 S 
MNDO 36.833 0.73 S 
GNR 40.273 0.47 S 
GHO 44.413 0.64 S 
# 2022 12 20 11 43 7.009 39.8604 -123.4279 31.216 2.471 0.433 0.433 0.961 172 
KIP 5.291 0.33 P 
RVIT 5.606 0.34 P 
KFP 6.791 0.46 P 
DCMP 8.994 0.43 P 
GROB 11.501 0.80 P 
GTSB 16.801 0.38 P 
GHGB 17.324 0.53 P 
GSR 17.641 0.68 P 
KFP 10.631 0.68 S 
KBN 13.391 0.42 S 
KRK 15.441 0.74 S 
GROB 18.281 0.71 S 
GVA 18.671 0.58 S 
# 2022 12 20 11 43 45.162 40.5300 -124.3684 27.207 1.986 0.227 0.227 0.587 173 
1584B 3.838 0.82 P 
1582 5.468 0.66 P 
1586 5.698 0.83 P 
1581 5.708 0.72 P 
B046 6.166 1.01 P 
89462 6.368 0.97 P 
PETL 6.398 0.70 P 
KMPB 6.591 0.96 P 
KCO 6.971 0.88 P 
RBOW 7.118 0.72 P 
KPR 8.638 0.63 P 
KNEE 8.722 1.02 P 
KCR 9.378 0.43 P 
DMOR 9.408 0.35 P 
B049 9.676 0.87 P 
PRDS 9.958 0.55 P 
89688 10.238 0.93 P 
KMR 11.111 0.91 P 
BRIC 12.158 0.46 P 
79046 15.408 0.99 P 
B934 15.876 0.90 P 
1584B 8.498 0.92 S 
KCT 9.361 0.48 S 
1023 9.748 0.56 S 
89255 10.458 0.42 S 
1586 10.458 0.93 S 
B046 10.856 0.93 S 
1582 11.298 0.86 S 
KMPB 11.391 0.44 S 
PETL 11.408 0.33 S 
1581 11.618 0.89 S 
89462 11.648 0.81 S 
RBOW 12.538 0.37 S 
BJES 14.218 0.38 S 
KPR 15.388 0.61 S 
KNEE 15.748 0.56 S 
KBU 15.848 0.75 S 
KCR 16.648 0.91 S 
B049 17.376 0.94 S 
PRDS 17.568 0.42 S 
89688 17.848 0.91 S 
KHMB 20.391 0.56 S 
B934 26.656 0.82 S 
79046 27.078 0.94 S 
# 2022 12 20 11 44 15.851 40.5892 -124.0776 14.679 1.235 0.176 0.176 0.501 174 
89462 2.179 0.86 P 
89255 2.879 0.95 P 
KMPB 4.192 0.73 P 
1586 4.309 0.97 P 
1582 4.369 0.99 P 
KNEE 4.899 0.37 P 
89781 5.089 1.00 P 
RBOW 6.389 0.39 P 
KCR 6.439 0.67 P 
B046 7.447 0.92 P 
KBU 7.939 0.87 P 
PETL 7.949 0.78 P 
KCO 8.362 0.95 P 
B049 8.407 0.94 P 
KPR 8.539 0.92 P 
B935 9.167 0.56 P 
PRDS 10.459 0.61 P 
HAYF 13.142 0.59 P 
89255 6.979 0.89 S 
1582 8.129 0.94 S 
1586 8.149 0.90 S 
1581 9.119 0.91 S 
89781 9.199 0.94 S 
KMPB 9.342 0.88 S 
KNEE 9.503 0.61 S 
1584B 9.539 0.48 S 
KCT 10.172 0.63 S 
KCR 10.919 0.57 S 
RBOW 11.279 0.58 S 
DMOR 11.959 0.47 S 
B046 13.037 0.74 S 
KPR 15.429 0.60 S 
KBU 15.909 0.52 S 
B049 16.167 0.90 S 
PRDS 18.839 0.33 S 
KMR 18.892 0.80 S 
B934 27.327 0.36 S 
# 2022 12 20 11 44 58.570 40.5100 -124.3563 17.136 2.020 0.132 0.132 0.528 175 
1584B 3.690 1.03 P 
KCT 4.063 0.59 P 
1586 5.250 1.06 P 
89255 5.390 1.08 P 
89462 5.490 1.05 P 
KMPB 5.583 0.62 P 
B046 5.628 1.08 P 
1582 5.970 1.04 P 
PETL 6.140 0.54 P 
1581 6.340 1.04 P 
RBOW 6.400 0.50 P 
KCO 6.753 1.08 P 
BJES 8.060 0.96 P 
KPR 8.560 0.65 P 
KCR 9.030 0.60 P 
DMOR 9.490 0.45 P 
PRDS 9.944 0.54 P 
KBU 10.160 0.57 P 
B049 10.288 0.98 P 
89688 10.380 1.01 P 
KHMB 11.813 0.49 P 
KMR 11.833 0.89 P 
B935 11.848 0.97 P 
BRIC 11.930 0.60 P 
KCSB 12.883 0.94 P 
B934 13.438 0.34 P 
KRP 13.583 0.74 P 
HAYF 15.411 0.55 P 
KFP 19.230 0.43 P 
LBK 23.540 0.86 P 
1584B 6.520 0.94 S 
KCT 7.323 0.72 S 
1023 8.170 1.05 S 
1586 9.660 0.96 S 
KMPB 9.733 0.59 S 
B046 9.778 0.91 S 
89255 9.890 0.99 S 
89462 9.920 0.95 S 
PETL 10.660 0.48 S 
1582 11.010 0.97 S 
RBOW 11.090 0.45 S 
1581 11.650 0.95 S 
KCO 11.813 0.98 S 
89781 12.770 0.87 S 
BJES 14.470 0.38 S 
KPR 15.120 0.59 S 
KCR 16.160 0.64 S 
PRDS 17.394 0.43 S 
89688 17.880 0.94 S 
B049 18.208 0.95 S 
KBU 18.300 0.69 S 
DMOR 18.710 0.89 S 
BRIC 20.690 0.47 S 
KMR 21.013 0.42 S 
KHMB 21.033 0.68 S 
B935 21.378 0.95 S 
1591 22.200 0.80 S 
B934 26.368 0.82 S 
HAYF 28.691 0.50 S 
KHBB 29.523 0.35 S 
# 2022 12 20 11 46 7.459 40.5993 -124.0486 24.826 2.272 0.187 0.187 0.333 176 
BJES 4.691 0.54 P 
89255 4.801 0.90 P 
1582 5.201 0.77 P 
KNEE 5.315 0.47 P 
1586 5.341 0.80 P 
89781 5.541 0.96 P 
1581 5.561 0.94 P 
KCT 5.674 0.38 P 
KMPB 5.824 0.57 P 
1023 5.831 0.92 P 
1584B 6.111 0.84 P 
KCR 6.481 0.65 P 
RBOW 6.751 0.50 P 
B046 7.649 0.93 P 
KHMB 8.244 0.55 P 
PETL 8.351 0.96 P 
KCO 8.404 0.95 P 
B935 8.429 0.98 P 
KPR 8.511 0.61 P 
KBU 8.631 0.58 P 
B049 8.659 0.99 P 
PRDS 8.671 0.52 P 
KCSB 9.254 0.96 P 
KMR 9.874 0.89 P 
KRP 10.574 0.96 P 
HAYF 11.952 0.43 P 
KHBB 12.034 0.62 P 
KOM 14.554 0.88 P 
WEAV 14.641 0.59 P 
TRIN 18.522 0.64 P 
LBK 19.731 1.01 P 
SCOT 20.324 0.35 P 
GUMB 22.575 0.37 P 
89255 9.051 0.92 S 
BJES 9.221 0.48 S 
89462 9.291 0.79 S 
KNEE 9.791 0.45 S 
1582 9.901 0.83 S 
1586 10.031 0.85 S 
89781 10.151 0.89 S 
KMPB 10.504 0.57 S 
1581 10.521 0.88 S 
1023 11.001 0.93 S 
KCR 11.591 0.54 S 
RBOW 11.921 0.47 S 
B046 13.769 0.87 S 
KCO 14.794 0.90 S 
PETL 14.921 0.46 S 
KHMB 14.994 0.58 S 
KPR 15.001 0.57 S 
B935 15.189 0.93 S 
KBU 15.391 0.69 S 
B049 15.579 0.89 S 
KCSB 16.624 0.79 S 
KMR 17.844 0.53 S 
KRP 19.154 0.90 S 
89688 19.251 0.47 S 
KHBB 21.234 0.46 S 
HAYF 21.314 0.43 S 
B934 25.559 0.40 S 
WEAV 25.631 0.55 S 
TRIN 32.474 0.57 S 
LBK 34.191 0.84 S 
# 2022 12 20 11 46 19.575 40.5397 -124.2349 18.915 2.259 0.163 0.163 0.409 177 
1584B 4.565 0.61 P 
KCT 4.868 0.94 P 
1586 4.915 0.89 P 
RBOW 5.785 0.63 P 
B046 5.943 1.01 P 
KCO 6.918 1.02 P 
KNEE 7.035 0.64 P 
KCR 7.555 0.69 P 
KPR 7.955 0.67 P 
KBU 9.115 0.64 P 
B049 9.253 0.92 P 
KHMB 10.268 0.60 P 
KMR 10.788 0.60 P 
BRIC 11.345 0.56 P 
1591 11.575 0.99 P 
1584B 7.475 0.77 S 
1023 7.795 0.83 S 
89255 7.895 0.79 S 
89462 8.275 0.83 S 
1586 8.295 0.72 S 
KCT 8.638 0.44 S 
1582 9.195 0.77 S 
1581 10.045 0.80 S 
B046 10.563 0.93 S 
89781 10.825 0.92 S 
BJES 11.645 0.68 S 
KCO 12.348 0.93 S 
KCR 13.755 0.45 S 
KPR 14.075 0.54 S 
KBU 16.675 0.66 S 
B049 16.723 0.86 S 
89688 17.675 0.78 S 
KHMB 18.648 0.59 S 
B935 18.763 0.89 S 
KMR 19.608 0.69 S 
BRIC 20.205 0.42 S 
KCSB 20.548 0.82 S 
1591 20.835 0.87 S 
KRP 21.148 0.79 S 
B934 25.843 0.82 S 
KHBB 26.368 0.43 S 
79046 26.955 0.48 S 
