# 2022 12 20 0 57 25.182 40.6496 -124.3072 8.318 0.522 0.169 0.169 0.442 1 
KCT.NC 4.991 0.84 P 
KNEE.BK 7.742 0.59 P 
B046.PB 7.936 0.94 P 
B932.PB 8.756 0.94 P 
PETL.BK 9.228 0.53 P 
B047.PB 9.346 0.88 P 
DMOR.BK 9.578 0.61 P 
KCR.NC 10.348 0.83 P 
B049.PB 12.256 0.87 P
B935.PB 12.946 0.61 P 
KMR.NC 13.901 0.90 P 
1582.NP 5.718 0.38 S 
1023.NP 5.968 0.48 S 
KCT.NC 9.151 0.71 S 
KMPB.NC 12.011 0.64 S 
KNEE.BK 13.548 0.57 S 
B045.PB 13.666 0.54 S 
B046.PB 14.476 0.89 S 
PETL.BK 15.978 0.57 S 
B932.PB 16.376 0.85 S 
DMOR.BK 17.428 0.49 S 
B047.PB 17.556 0.77 S 
KHMB.NC 19.931 0.58 S 
B049.PB 21.786 0.73 S 
KMR.NC 25.111 0.71 S 
KHBB.NC 29.671 0.48 S 
# 2022 12 20 2 44 52.399 40.4183 -124.2347 23.307 0.107 0.378 0.378 0.313 2 
B047.PB 4.289 0.84 P 
B046.PB 4.709 0.98 P 
B932.PB 4.859 0.98 P 
KCT.NC 5.434 0.77 P 
B045.PB 5.469 0.75 P 
KPR.NC 6.421 0.98 P 
KCR.NC 7.551 0.43 P 
BRIC.BK 8.651 0.85 P 
B046.PB 8.369 0.94 S 
B932.PB 8.659 0.93 S 
RBOW.BK 9.081 0.45 S 
PETL.BK 9.261 0.41 S 
B047.PB 9.699 0.73 S 
B045.PB 9.849 0.58 S 
KPR.NC 11.551 0.92 S 
B049.PB 14.539 0.78 S 
# 2022 12 20 3 7 0.032 40.3180 -124.3518 19.398 0.962 0.190 0.190 0.358 3 
PETL.BK 3.568 0.37 P 
B046.PB 3.646 0.90 P 
B932.PB 3.946 0.94 P 
KCO.NC 4.021 0.99 P 
B047.PB 4.646 1.00 P 
KCT.NC 5.211 0.70 P 
RBOW.BK 5.298 0.65 P 
KMPB.NC 5.571 0.95 P 
KPR.NC 6.368 0.61 P 
PRDS.BK 6.928 0.53 P 
B045.PB 6.946 0.90 P 
89688.CE 7.008 0.69 P 
1586.NP 8.018 0.89 P 
KBU.NC 8.618 0.96 P 
KCR.NC 9.308 0.96 P 
BRIC.BK 9.408 0.55 P 
KMR.NC 10.701 0.89 P 
79298.CE 17.518 0.36 P 
PETL.BK 6.568 0.60 S 
B046.PB 6.716 0.92 S 
B932.PB 7.286 0.93 S 
KCO.NC 7.431 0.88 S 
B047.PB 8.466 0.91 S 
RBOW.BK 9.658 0.52 S 
KCT.NC 9.771 0.55 S 
KMPB.NC 10.321 0.58 S 
KPR.NC 11.088 0.63 S 
B045.PB 12.356 0.83 S 
89688.CE 12.388 0.79 S 
1586.NP 15.098 0.72 S 
B049.PB 15.746 0.84 S 
KCR.NC 16.278 0.94 S 
BRIC.BK 16.498 0.65 S 
KMR.NC 19.021 0.85 S 
DMOR.BK 21.608 0.48 S 
# 2022 12 20 3 18 27.546 40.3719 -124.2795 29.193 0.945 0.215 0.215 0.508 4 
B046.PB 4.912 1.01 P 
B932.PB 5.052 0.97 P 
B047.PB 5.502 1.00 P 
RBOW.BK 5.614 0.55 P 
KMPB.NC 5.667 0.67 P 
KCT.NC 5.907 1.03 P 
B045.PB 6.502 1.04 P 
KPR.NC 6.554 0.69 P 
PETL.BK 6.594 0.49 P 
PRDS.BK 7.618 0.67 P 
89688.CE 7.654 1.01 P 
KCR.NC 8.314 1.05 P 
KBU.NC 8.374 1.03 P 
B049.PB 8.552 1.04 P 
BRIC.BK 9.574 0.57 P 
KMR.NC 10.037 0.97 P 
DMOR.BK 11.944 0.84 P 
B046.PB 8.852 0.96 S 
B932.PB 9.042 0.94 S 
PETL.BK 9.174 0.48 S 
B047.PB 9.832 0.95 S 
KCO.NC 10.027 0.94 S 
KMPB.NC 10.267 0.56 S 
RBOW.BK 10.344 0.87 S 
KCT.NC 10.807 0.90 S 
B045.PB 11.482 0.94 S 
KPR.NC 11.784 0.52 S 
89688.CE 13.274 0.89 S 
PRDS.BK 13.538 0.43 S 
KCR.NC 15.064 0.99 S 
B049.PB 15.072 0.89 S 
KBU.NC 15.344 0.97 S 
BRIC.BK 16.644 0.50 S 
KMR.NC 17.747 0.95 S 
DMOR.BK 18.604 0.39 S 
B935.PB 19.672 0.89 S 
B934.PB 21.712 0.56 S 
KHMB.NC 22.457 0.63 S 
# 2022 12 20 4 45 40.518 40.2521 -123.6912 33.875 0.884 0.249 0.249 0.350 5 
B049.PB 5.680 0.97 P 
KMR.NC 5.685 0.96 P 
KBU.NC 6.052 0.62 P 
KCR.NC 6.702 0.98 P 
B935.PB 7.420 0.96 P 
BRIC.BK 7.562 0.61 P 
KPR.NC 7.592 0.57 P 
B045.PB 7.800 1.00 P 
PRDS.BK 7.842 0.62 P 
RBOW.BK 8.222 0.90 P 
B047.PB 8.660 0.91 P 
KMPB.NC 8.715 0.95 P 
B934.PB 8.800 0.89 P 
B932.PB 8.950 0.89 P 
DMOR.BK 9.122 0.58 P 
HAYF.BK 9.803 0.61 P 
B046.PB 9.840 0.86 P 
KHBB.NC 11.205 0.94 P 
KFP.NC 12.192 0.38 P 
B049.PB 9.990 0.92 S 
KMR.NC 10.125 0.80 S 
KBU.NC 10.892 0.55 S 
KCR.NC 11.932 0.87 S 
BRIC.BK 12.932 0.51 S 
B935.PB 13.360 0.76 S 
B045.PB 13.740 0.89 S 
KPR.NC 13.892 0.87 S 
PRDS.BK 13.976 0.39 S 
RBOW.BK 14.662 0.90 S 
B934.PB 15.490 0.77 S 
KMPB.NC 15.695 0.88 S 
B047.PB 15.780 0.87 S 
B932.PB 16.450 0.90 S 
DMOR.BK 17.232 0.50 S 
B046.PB 17.440 0.90 S 
HAYF.BK 17.463 0.54 S 
KHBB.NC 19.485 0.90 S 
# 2022 12 20 4 56 46.080 40.2449 -123.6937 33.969 1.142 0.227 0.227 0.349 6 
B049.PB 5.658 1.00 P 
KMR.NC 5.693 0.97 P 
KBU.NC 6.040 0.58 P 
KCR.NC 6.810 1.01 P 
B935.PB 7.388 0.99 P 
KPR.NC 7.570 0.70 P 
B045.PB 7.758 1.01 P 
PRDS.BK 7.800 0.49 P 
B047.PB 8.628 0.97 P 
B934.PB 8.798 0.93 P 
B932.PB 8.958 0.98 P 
DMOR.BK 9.150 0.53 P 
B046.PB 9.798 0.96 P 
HAYF.BK 9.821 0.61 P 
KHBB.NC 11.263 0.97 P 
KFP.NC 12.210 0.75 P 
PETY.BK 13.173 0.34 P 
TRIN.BK 18.381 0.79 P 
B049.PB 9.928 0.95 S 
KMR.NC 10.133 0.83 S 
KBU.NC 10.890 0.66 S 
KCR.NC 11.930 0.94 S 
BRIC.BK 12.840 0.46 S 
B935.PB 13.368 0.78 S 
B045.PB 13.768 0.92 S 
PRDS.BK 13.890 0.40 S 
KPR.NC 14.090 0.47 S 
BJES.BK 15.240 0.39 S 
B934.PB 15.628 0.87 S 
B932.PB 16.328 0.88 S 
DMOR.BK 17.070 0.42 S 
HAYF.BK 17.503 0.61 S 
B046.PB 17.558 0.91 S 
KHBB.NC 19.693 0.92 S 
KFP.NC 21.140 0.80 S 
PETY.BK 23.321 0.45 S 
TRIN.BK 32.373 0.35 S 
# 2022 12 20 5 38 3.736 39.3177 -123.2359 8.342 1.178 0.300 0.300 0.187 7 
GVA.NC 2.684 0.59 P 
GWR.NC 3.024 0.62 P 
DCMP.BK 3.575 0.50 P 
GCWB.NC 4.774 0.81 P 
KRK.NC 5.654 0.92 P 
KFP.NC 7.474 0.96 P 
GHO.NC 7.754 0.96 P 
GHGB.NC 7.837 0.98 P 
GSR.NC 9.984 0.98 P 
GVA.NC 4.884 0.63 S 
GWR.NC 5.454 0.62 S 
DCMP.BK 6.447 0.50 S 
GCWB.NC 8.234 0.81 S 
KFP.NC 12.864 0.77 S 
GHO.NC 13.394 0.74 S 
GHGB.NC 13.847 0.79 S 
GSR.NC 18.164 0.65 S 
# 2022 12 20 6 31 58.031 39.6541 -123.8577 3.292 0.581 0.173 0.173 0.451 8 
79046.CE 2.249 0.91 P 
B934.PB 4.977 0.99 P 
KFP.NC 7.319 0.93 P 
DCMP.BK 9.322 0.65 P 
GNR.NC 10.319 0.72 P 
GVA.NC 12.819 0.59 P 
B047.PB 13.257 0.95 P 
B049.PB 13.267 0.54 P 
B932.PB 13.527 0.91 P 
B046.PB 15.077 0.91 P 
79046.CE 4.129 0.87 S 
B934.PB 8.797 0.88 S 
KIP.NC 12.999 0.70 S 
KFP.NC 13.179 0.82 S 
DCMP.BK 16.390 0.41 S 
PRDS.BK 18.049 0.43 S 
BRIC.BK 18.819 0.74 S 
GNR.NC 19.399 0.62 S 
GBL.NC 20.719 0.42 S 
B049.PB 22.987 0.37 S 
GVA.NC 23.079 0.54 S 
B047.PB 23.157 0.87 S 
GHO.NC 24.289 0.41 S 
B932.PB 24.327 0.87 S 
B046.PB 26.467 0.86 S 
# 2022 12 20 7 19 15.117 40.4906 -124.2616 19.969 0.271 0.302 0.302 0.677 9 
B046.PB 4.821 1.00 P 
B932.PB 5.401 0.93 P 
B045.PB 5.921 0.93 P 
B047.PB 6.081 0.96 P 
KCR.NC 6.633 0.40 P 
KPR.NC 7.733 0.91 P 
KBU.NC 9.203 0.90 P 
PRDS.BK 9.317 0.60 P 
B049.PB 9.321 0.97 P 
B046.PB 8.671 0.91 S 
89462.CE 9.413 0.77 S 
B932.PB 9.731 0.92 S 
B045.PB 10.581 0.92 S 
B047.PB 10.901 0.90 S 
KCR.NC 12.323 0.70 S 
PRDS.BK 16.063 0.58 S 
B049.PB 16.821 0.87 S 
# 2022 12 20 9 0 21.638 39.4927 -122.8192 9.750 2.202 0.400 0.400 0.584 10 
GVA.NC 5.492 0.62 P 
GTSB.BK 5.826 0.50 P 
KRK.NC 6.492 0.50 P 
GSR.NC 7.422 0.63 P 
GHGB.NC 7.925 0.63 P 
DCMP.BK 8.163 0.47 P 
GCWB.NC 8.812 0.65 P 
GWR.NC 9.792 0.95 P 
KFP.NC 10.172 0.53 P 
KBN.NC 10.492 0.92 P 
KIP.NC 12.572 0.78 P 
GNR.NC 14.032 0.65 P 
PETY.BK 14.243 0.58 P 
GHO.NC 14.952 0.92 P 
LRB.NC 15.352 0.55 P 
B934.PB 15.550 0.83 P 
GBL.NC 16.102 0.93 P 
GVA.NC 9.852 0.54 S 
GTSB.BK 10.246 0.50 S 
KRK.NC 11.112 0.75 S 
GSR.NC 13.052 0.60 S 
DCMP.BK 14.005 0.46 S 
GHGB.NC 14.105 0.59 S 
GCWB.NC 15.892 0.60 S 
GROB.NC 16.012 0.60 S 
KFP.NC 17.992 0.57 S 
KBN.NC 18.852 0.92 S 
GWR.NC 19.582 0.80 S 
RVIT.BK 23.592 0.41 S 
PETY.BK 24.285 0.56 S 
GNR.NC 24.652 0.54 S 
GHO.NC 25.482 0.59 S 
B934.PB 27.540 0.71 S 
# 2022 12 20 10 29 22.338 40.3965 -124.2901 19.757 0.784 0.185 0.185 0.441 11 
B046.PB 3.920 1.09 P 
PETL.BK 4.352 0.58 P 
B932.PB 4.390 0.99 P 
KCT.NC 4.415 0.96 P 
B047.PB 5.030 1.04 P 
B045.PB 5.820 0.94 P 
KMPB.NC 6.295 0.86 P 
KPR.NC 6.382 0.66 P 
PRDS.BK 7.542 0.68 P 
KBU.NC 8.422 1.00 P 
B049.PB 8.620 1.05 P 
BRIC.BK 9.872 0.50 P 
B935.PB 11.190 0.94 P 
B046.PB 7.040 1.01 S 
PETL.BK 7.772 0.62 S 
B932.PB 7.960 0.98 S 
KCT.NC 8.355 0.43 S 
KMPB.NC 8.465 0.85 S 
RBOW.BK 8.662 0.93 S 
B047.PB 8.960 0.98 S 
B045.PB 10.380 0.72 S 
1023.NP 10.812 0.89 S 
KPR.NC 11.512 0.57 S 
PRDS.BK 13.476 0.55 S 
BJES.BK 14.522 0.87 S 
KBU.NC 15.272 1.00 S 
B049.PB 15.410 0.98 S 
KNEE.BK 16.536 0.39 S 
BRIC.BK 17.032 0.59 S 
DMOR.BK 19.202 0.58 S 
B934.PB 23.010 0.36 S 
# 2022 12 20 10 34 24.714 40.5178 -124.4164 13.088 6.143 0.100 0.100 0.615 12 
1584B.NP 3.806 0.96 P 
KCT.NC 3.889 0.59 P 
1023.NP 4.516 1.01 P 
1586.NP 5.596 1.02 P 
B046.PB 5.814 0.97 P 
89255.CE 6.006 0.97 P 
KMPB.NC 6.169 0.54 P 
89462.CE 6.206 0.94 P 
1582.NP 6.316 0.99 P 
1581.NP 6.726 0.98 P 
B932.PB 6.734 0.95 P 
RBOW.BK 6.916 0.38 P 
KCO.NC 7.049 0.98 P 
B045.PB 7.424 0.97 P 
89781.CE 7.546 1.03 P 
B047.PB 7.574 0.97 P 
BJES.BK 8.926 0.96 P 
KPR.NC 9.006 0.60 P 
1580.NP 9.076 0.95 P 
KNEE.BK 9.656 0.43 P 
KCR.NC 9.846 0.45 P 
PRDS.BK 10.400 0.47 P 
DMOR.BK 10.406 0.39 P 
89688.CE 10.686 0.92 P 
KBU.NC 10.876 0.42 P 
B049.PB 11.014 0.92 P 
KTD.NC 11.256 0.94 P 
BRIC.BK 12.446 0.39 P 
KHMB.NC 12.519 0.52 P 
KMR.NC 12.559 0.50 P 
B935.PB 12.814 0.91 P 
1591.NP 13.176 0.90 P 
KRP.NC 13.319 0.92 P 
KCSB.NC 13.729 0.92 P 
99700.CE 14.526 0.98 P 
B934.PB 15.934 0.91 P 
79046.CE 16.046 0.94 P 
HAYF.BK 16.519 0.37 P 
KHBB.NC 16.659 0.94 P 
KOM.NC 18.449 0.37 P 
RVIT.BK 18.616 0.96 P 
WEAV.BK 19.216 0.33 P 
KFP.NC 19.856 0.34 P 
KBN.NC 20.236 0.46 P 
79036.CE 21.116 0.95 P 
MNDO.BK 21.566 0.62 P 
PETY.BK 22.099 0.82 P 
79668.CE 23.206 0.62 P 
LSF.NC 23.996 0.85 P 
LBK.NC 23.996 1.02 P 
SCOT.BK 24.519 0.39 P 
LRB.NC 24.656 0.35 P 
79666.CE 26.206 0.48 P 
1584B.NP 6.806 0.89 S 
KCT.NC 7.369 0.62 S 
1023.NP 8.626 0.93 S 
KMPB.NC 10.979 0.57 S 
PETL.BK 11.036 0.61 S 
89255.CE 11.096 0.73 S 
1586.NP 11.096 0.86 S 
89462.CE 11.496 0.79 S 
B932.PB 11.864 0.66 S 
1582.NP 12.216 0.86 S 
RBOW.BK 12.996 0.51 S 
1581.NP 13.136 0.90 S 
KCO.NC 13.239 0.78 S 
B047.PB 13.354 0.80 S 
B045.PB 13.614 0.91 S 
89781.CE 13.736 0.89 S 
KPR.NC 16.436 0.60 S 
BJES.BK 16.436 0.89 S 
KNEE.BK 16.916 0.68 S 
1580.NP 17.176 0.95 S 
KCR.NC 18.016 0.92 S 
PRDS.BK 18.786 0.41 S 
89688.CE 19.216 0.88 S 
89464.CE 19.336 0.78 S 
DMOR.BK 19.516 0.91 S 
KBU.NC 19.696 0.87 S 
B049.PB 19.894 0.90 S 
KTD.NC 21.206 0.82 S 
BRIC.BK 21.856 0.50 S 
B935.PB 22.164 0.90 S 
KHMB.NC 22.919 0.68 S 
1591.NP 23.396 0.90 S 
KMR.NC 24.299 0.62 S 
KRP.NC 24.829 0.83 S 
KCSB.NC 24.839 0.91 S 
99700.CE 26.916 0.91 S 
KHBB.NC 29.419 0.49 S 
HAYF.BK 29.709 0.59 S 
KOM.NC 32.859 0.79 S 
WEAV.BK 33.686 0.48 S 
RVIT.BK 35.056 0.39 S 
79298.CE 37.126 0.44 S 
KBN.NC 38.326 0.63 S 
SCOT.BK 42.997 0.42 S 
# 2022 12 20 10 35 59.181 40.5847 -124.1172 17.640 3.739 0.155 0.155 0.294 13 
89255.CE 3.719 0.80 P 
89462.CE 4.199 1.00 P 
1586.NP 4.319 0.86 P 
1582.NP 4.489 0.93 P 
1023.NP 4.679 0.91 P 
KMPB.NC 5.122 0.65 P 
B045.PB 5.147 0.96 P 
89781.CE 5.209 0.98 P 
BJES.BK 5.229 0.91 P 
1580.NP 6.609 0.94 P 
KCR.NC 6.859 0.94 P 
B046.PB 7.227 0.99 P 
B932.PB 7.477 0.91 P 
B047.PB 7.777 0.96 P 
PETL.BK 7.949 0.99 P 
KCO.NC 8.052 0.88 P 
KHMB.NC 8.942 0.92 P 
KBU.NC 9.019 0.96 P 
B049.PB 9.187 0.97 P 
PRDS.BK 10.313 0.37 P 
89688.CE 10.899 0.90 P 
89255.CE 7.159 0.85 S 
89462.CE 7.789 0.91 S 
1586.NP 8.149 0.86 S 
1582.NP 8.309 0.89 S 
1023.NP 8.979 0.90 S 
1584B.NP 9.159 0.89 S 
B045.PB 9.197 0.90 S 
1581.NP 9.279 0.59 S 
KMPB.NC 9.392 0.53 S 
BJES.BK 9.419 0.90 S 
89781.CE 9.499 0.91 S 
KCT.NC 10.442 0.92 S 
RBOW.BK 11.189 0.84 S 
KCR.NC 12.219 0.89 S 
1580.NP 12.229 0.90 S 
B046.PB 12.667 0.92 S 
B932.PB 13.117 0.85 S 
B047.PB 13.797 0.87 S 
PETL.BK 13.919 0.88 S 
KBU.NC 15.829 0.87 S 
B049.PB 16.167 0.89 S 
KHMB.NC 16.602 0.76 S 
KTD.NC 17.129 0.81 S 
PRDS.BK 18.399 0.48 S 
KMR.NC 19.592 0.45 S 
BRIC.BK 20.049 0.49 S 
# 2022 12 20 10 36 14.829 40.4997 -124.3274 16.867 3.113 0.233 0.233 0.452 14 
KCT.NC 3.774 0.66 P 
B046.PB 4.309 0.86 P 
1586.NP 4.771 0.93 P 
89255.CE 5.531 0.68 P 
B045.PB 6.939 0.62 P 
BJES.BK 8.521 0.41 P 
B049.PB 9.909 0.54 P 
1584B.NP 6.051 0.86 S 
KCT.NC 7.144 0.58 S 
89255.CE 9.131 0.61 S 
KMPB.NC 9.234 0.34 S 
1586.NP 9.321 0.88 S 
89462.CE 9.381 0.89 S 
B046.PB 9.639 0.88 S 
B932.PB 10.049 0.77 S 
PETL.BK 10.531 0.85 S 
B045.PB 11.159 0.50 S 
# 2022 12 20 10 36 38.960 40.6796 -123.8457 20.886 3.131 0.228 0.228 0.389 15 
KNEE.BK 4.524 0.36 P 
89781.CE 6.170 0.78 P 
KHMB.NC 6.193 0.94 P 
1580.NP 6.480 0.93 P 
1582.NP 6.610 0.69 P 
1581.NP 6.770 0.82 P 
B045.PB 6.778 0.80 P 
89462.CE 6.990 0.78 P 
B935.PB 7.238 0.73 P 
1586.NP 7.250 0.85 P 
KCSB.NC 7.433 0.83 P 
1584B.NP 8.590 0.45 P 
RBOW.BK 8.790 0.33 P 
KMPB.NC 8.883 0.61 P 
B049.PB 9.438 0.54 P 
KHBB.NC 10.153 0.55 P 
HAYF.BK 10.531 0.38 P 
WEAV.BK 12.570 0.44 P 
KNEE.BK 8.070 0.72 S 
89781.CE 11.090 0.66 S 
KHMB.NC 11.223 0.77 S 
1580.NP 11.330 0.85 S 
B045.PB 12.298 0.80 S 
1582.NP 12.700 0.86 S 
1581.NP 12.800 0.88 S 
KMPB.NC 14.303 0.50 S 
RBOW.BK 15.570 0.59 S 
1584B.NP 15.860 0.71 S 
B049.PB 16.858 0.73 S 
KHBB.NC 17.903 0.71 S 
HAYF.BK 18.433 0.59 S 
B932.PB 19.968 0.82 S 
# 2022 12 20 10 36 46.854 40.5090 -124.4763 16.191 2.974 0.249 0.249 0.696 16 
1023.NP 4.146 0.89 P 
KCT.NC 4.709 0.62 P 
B046.PB 6.194 0.69 P 
B047.PB 6.304 0.76 P 
KMPB.NC 6.339 0.48 P 
PETL.BK 6.426 0.82 P 
1586.NP 6.936 0.45 P 
KCO.NC 7.269 0.79 P 
89688.CE 10.786 0.91 P 
BRIC.BK 13.266 0.72 P 
KCT.NC 8.389 0.57 S 
1023.NP 9.676 0.55 S 
B046.PB 10.164 0.78 S 
PETL.BK 11.226 0.78 S 
1586.NP 11.446 0.33 S 
KCO.NC 13.049 0.67 S 
KPR.NC 16.466 0.62 S 
PRDS.BK 18.566 0.80 S 
89688.CE 18.796 0.86 S 
B049.PB 20.554 0.54 S 
BRIC.BK 22.316 0.72 S 
# 2022 12 20 10 37 8.912 40.7620 -123.8932 26.560 3.314 0.237 0.237 0.354 17 
DMOR.BK 4.598 0.71 P 
KNEE.BK 5.028 0.43 P 
1580.NP 5.548 0.96 P 
89781.CE 5.678 0.93 P 
KHMB.NC 6.051 0.60 P 
1582.NP 6.378 0.88 P 
1581.NP 6.408 0.94 P 
BJES.BK 6.568 0.94 P 
KTD.NC 7.678 0.94 P 
B935.PB 8.326 0.93 P 
KRP.NC 8.731 0.83 P 
99700.CE 10.218 0.83 P 
KHBB.NC 10.621 0.57 P 
KOM.NC 11.901 0.52 P 
TRIN.BK 16.721 0.71 P 
SCOT.BK 17.721 0.56 P 
KNEE.BK 9.118 0.48 S 
DMOR.BK 9.398 0.87 S 
1580.NP 9.938 0.88 S 
89781.CE 10.328 0.86 S 
KHMB.NC 10.861 0.61 S 
BJES.BK 11.688 0.87 S 
1581.NP 11.868 0.81 S 
KTD.NC 13.698 0.87 S 
KCR.NC 14.198 0.77 S 
B935.PB 15.146 0.89 S 
KHBB.NC 18.081 0.55 S 
# 2022 12 20 10 37 20.924 40.5319 -124.3237 16.421 3.571 0.123 0.123 0.484 18 
1584B.NP 3.516 0.97 P 
1023.NP 3.916 0.72 P 
KCT.NC 3.989 0.35 P 
1586.NP 4.676 1.00 P 
89462.CE 5.166 0.99 P 
1582.NP 5.356 1.00 P 
KMPB.NC 5.359 0.93 P 
1581.NP 5.716 1.00 P 
B046.PB 5.764 1.03 P 
PETL.BK 6.196 0.55 P 
RBOW.BK 6.366 0.39 P 
B045.PB 6.424 0.88 P 
89781.CE 6.436 0.99 P 
B932.PB 6.484 0.96 P 
KCO.NC 6.899 1.01 P 
B047.PB 7.174 0.93 P 
BJES.BK 7.626 0.89 P 
1580.NP 7.996 1.02 P 
KNEE.BK 8.180 0.49 P 
KPR.NC 8.636 0.62 P 
KCR.NC 8.756 0.55 P 
PRDS.BK 10.026 0.49 P 
KBU.NC 10.066 0.56 P 
B049.PB 10.174 0.94 P 
89688.CE 10.286 0.82 P 
KTD.NC 10.346 1.01 P 
DMOR.BK 10.436 0.46 P 
KHMB.NC 11.289 0.39 P 
B935.PB 11.554 0.86 P 
KMR.NC 11.909 0.59 P 
1591.NP 12.266 0.98 P 
99700.CE 13.826 1.02 P 
HAYF.BK 15.809 0.94 P 
79046.CE 17.086 0.66 P 
WEAV.BK 18.026 0.84 P 
1584B.NP 6.376 0.90 S 
1023.NP 7.656 0.95 S 
KCT.NC 7.729 0.75 S 
1586.NP 8.906 0.91 S 
89462.CE 9.556 0.93 S 
KMPB.NC 9.589 0.51 S 
1582.NP 10.276 0.91 S 
B046.PB 10.284 0.92 S 
RBOW.BK 11.126 0.54 S 
PETL.BK 11.206 0.43 S 
B045.PB 11.384 0.64 S 
B932.PB 11.394 0.74 S 
89781.CE 11.926 0.89 S 
KCO.NC 12.199 0.89 S 
B047.PB 12.584 0.62 S 
BJES.BK 13.806 0.67 S 
1580.NP 14.606 0.91 S 
KNEE.BK 14.840 0.42 S 
KPR.NC 15.256 0.53 S 
KCR.NC 15.836 0.82 S 
DMOR.BK 17.516 0.89 S 
PRDS.BK 17.836 0.37 S 
89688.CE 17.956 0.84 S 
KBU.NC 18.126 0.58 S 
B049.PB 18.184 0.91 S 
KTD.NC 18.726 0.91 S 
KHMB.NC 20.599 0.85 S 
BRIC.BK 20.916 0.37 S 
KMR.NC 21.409 0.56 S 
1591.NP 22.166 0.88 S 
99700.CE 25.926 0.91 S 
B934.PB 26.424 0.43 S 
79046.CE 27.206 0.60 S 
HAYF.BK 28.317 0.39 S 
RVIT.BK 32.306 0.50 S 
# 2022 12 20 10 38 2.810 40.6263 -123.9977 19.491 3.655 0.116 0.116 0.530 19 
BJES.BK 4.750 0.71 P 
KNEE.BK 4.760 0.57 P 
DMOR.BK 5.160 0.54 P 
1582.NP 5.260 1.00 P 
89462.CE 5.300 1.05 P 
89781.CE 5.440 1.04 P 
B045.PB 5.578 1.08 P 
1586.NP 5.600 1.05 P 
1581.NP 5.670 1.05 P 
KMPB.NC 6.173 0.67 P 
1023.NP 6.250 1.08 P 
1580.NP 6.290 1.05 P 
KCR.NC 6.330 0.68 P 
1584B.NP 6.640 1.06 P 
RBOW.BK 7.170 0.51 P 
KCT.NC 7.393 0.71 P 
KHMB.NC 7.933 0.70 P 
B935.PB 8.038 1.13 P 
B046.PB 8.348 1.03 P 
B932.PB 8.418 1.00 P 
B047.PB 8.718 1.03 P 
KCSB.NC 8.733 1.05 P 
KBU.NC 8.880 0.45 P 
B049.PB 8.908 1.03 P 
KPR.NC 9.000 0.62 P 
KCO.NC 9.123 1.00 P 
KTD.NC 9.150 1.04 P 
PETL.BK 9.270 0.95 P 
KMR.NC 10.133 0.51 P 
KRP.NC 10.573 1.02 P 
PRDS.BK 10.804 0.56 P 
1591.NP 11.300 0.96 P 
BRIC.BK 11.580 0.53 P 
89688.CE 11.600 0.98 P 
KHBB.NC 11.673 0.65 P 
HAYF.BK 11.753 0.49 P 
99700.CE 11.900 0.79 P 
KOM.NC 14.193 0.58 P 
WEAV.BK 14.290 0.47 P 
B934.PB 14.828 1.03 P 
79046.CE 15.480 1.04 P 
KBN.NC 17.460 0.41 P 
GUMB.BK 22.350 1.08 P 
GROB.NC 22.670 0.34 P 
BJES.BK 8.640 0.43 S 
KNEE.BK 8.690 0.45 S 
89462.CE 9.680 0.91 S 
1582.NP 9.920 0.95 S 
B045.PB 9.928 0.88 S 
89781.CE 9.970 0.93 S 
1586.NP 10.450 0.98 S 
1581.NP 10.810 0.94 S 
KMPB.NC 11.153 0.53 S 
KCR.NC 11.270 0.54 S 
1580.NP 11.500 0.94 S 
1023.NP 11.810 0.93 S 
1584B.NP 12.010 0.95 S 
RBOW.BK 13.150 0.44 S 
KCT.NC 13.493 0.55 S 
KHMB.NC 14.023 0.55 S 
B935.PB 14.418 0.94 S 
B932.PB 14.808 0.75 S 
B046.PB 14.818 0.92 S 
B047.PB 15.238 0.86 S 
B049.PB 15.728 0.84 S 
KBU.NC 15.770 0.86 S 
KPR.NC 15.860 0.54 S 
KCSB.NC 15.993 0.94 S 
PETL.BK 16.120 0.52 S 
KCO.NC 16.243 0.92 S 
KTD.NC 16.360 0.89 S 
KMR.NC 18.073 0.59 S 
KRP.NC 18.773 0.90 S 
PRDS.BK 19.054 0.34 S 
89688.CE 19.770 0.94 S 
1591.NP 20.280 0.90 S 
KHBB.NC 20.603 0.52 S 
HAYF.BK 20.663 0.41 S 
99700.CE 21.350 0.84 S 
KOM.NC 24.923 0.63 S 
WEAV.BK 25.150 0.48 S 
B934.PB 27.068 1.01 S 
RVIT.BK 29.680 0.82 S 
79046.CE 29.710 0.93 S 
KIP.NC 30.730 0.85 S 
KBN.NC 32.880 0.77 S 
TRIN.BK 33.883 0.43 S 
PETY.BK 34.003 0.50 S 
SCOT.BK 35.003 0.64 S 
GUMB.BK 39.244 0.56 S 
