# 2022 12 20 0 57 25.182 40.6496 -124.3072 8.318 0.522 0.169 0.169 0.442 1 
KCT 4.991 0.84 P 
KNEE 7.742 0.59 P 
B046 7.936 0.94 P 
B932 8.756 0.94 P 
PETL 9.228 0.53 P 
B047 9.346 0.88 P 
DMOR 9.578 0.61 P 
KCR 10.348 0.83 P 
B049 12.256 0.87 P 
B935 12.946 0.61 P 
KMR 13.901 0.90 P 
1582 5.718 0.38 S 
1023 5.968 0.48 S 
KCT 9.151 0.71 S 
KMPB 12.011 0.64 S 
KNEE 13.548 0.57 S 
B045 13.666 0.54 S 
B046 14.476 0.89 S 
PETL 15.978 0.57 S 
B932 16.376 0.85 S 
DMOR 17.428 0.49 S 
B047 17.556 0.77 S 
KHMB 19.931 0.58 S 
B049 21.786 0.73 S 
KMR 25.111 0.71 S 
KHBB 29.671 0.48 S 
# 2022 12 20 2 44 52.399 40.4183 -124.2347 23.307 0.107 0.378 0.378 0.313 2 
B047 4.289 0.84 P 
B046 4.709 0.98 P 
B932 4.859 0.98 P 
KCT 5.434 0.77 P 
B045 5.469 0.75 P 
KPR 6.421 0.98 P 
KCR 7.551 0.43 P 
BRIC 8.651 0.85 P 
B046 8.369 0.94 S 
B932 8.659 0.93 S 
RBOW 9.081 0.45 S 
PETL 9.261 0.41 S 
B047 9.699 0.73 S 
B045 9.849 0.58 S 
KPR 11.551 0.92 S 
B049 14.539 0.78 S 
# 2022 12 20 3 7 0.032 40.3180 -124.3518 19.398 0.962 0.190 0.190 0.358 3 
PETL 3.568 0.37 P 
B046 3.646 0.90 P 
B932 3.946 0.94 P 
KCO 4.021 0.99 P 
B047 4.646 1.00 P 
KCT 5.211 0.70 P 
RBOW 5.298 0.65 P 
KMPB 5.571 0.95 P 
KPR 6.368 0.61 P 
PRDS 6.928 0.53 P 
B045 6.946 0.90 P 
89688 7.008 0.69 P 
1586 8.018 0.89 P 
KBU 8.618 0.96 P 
KCR 9.308 0.96 P 
BRIC 9.408 0.55 P 
KMR 10.701 0.89 P 
79298 17.518 0.36 P 
PETL 6.568 0.60 S 
B046 6.716 0.92 S 
B932 7.286 0.93 S 
KCO 7.431 0.88 S 
B047 8.466 0.91 S 
RBOW 9.658 0.52 S 
KCT 9.771 0.55 S 
KMPB 10.321 0.58 S 
KPR 11.088 0.63 S 
B045 12.356 0.83 S 
89688 12.388 0.79 S 
1586 15.098 0.72 S 
B049 15.746 0.84 S 
KCR 16.278 0.94 S 
BRIC 16.498 0.65 S 
KMR 19.021 0.85 S 
DMOR 21.608 0.48 S 
# 2022 12 20 3 18 27.546 40.3719 -124.2795 29.193 0.945 0.215 0.215 0.508 4 
B046 4.912 1.01 P 
B932 5.052 0.97 P 
B047 5.502 1.00 P 
RBOW 5.614 0.55 P 
KMPB 5.667 0.67 P 
KCT 5.907 1.03 P 
B045 6.502 1.04 P 
KPR 6.554 0.69 P 
PETL 6.594 0.49 P 
PRDS 7.618 0.67 P 
89688 7.654 1.01 P 
KCR 8.314 1.05 P 
KBU 8.374 1.03 P 
B049 8.552 1.04 P 
BRIC 9.574 0.57 P 
KMR 10.037 0.97 P 
DMOR 11.944 0.84 P 
B046 8.852 0.96 S 
B932 9.042 0.94 S 
PETL 9.174 0.48 S 
B047 9.832 0.95 S 
KCO 10.027 0.94 S 
KMPB 10.267 0.56 S 
RBOW 10.344 0.87 S 
KCT 10.807 0.90 S 
B045 11.482 0.94 S 
KPR 11.784 0.52 S 
89688 13.274 0.89 S 
PRDS 13.538 0.43 S 
KCR 15.064 0.99 S 
B049 15.072 0.89 S 
KBU 15.344 0.97 S 
BRIC 16.644 0.50 S 
KMR 17.747 0.95 S 
DMOR 18.604 0.39 S 
B935 19.672 0.89 S 
B934 21.712 0.56 S 
KHMB 22.457 0.63 S 
# 2022 12 20 4 45 40.518 40.2521 -123.6912 33.875 0.884 0.249 0.249 0.350 5 
B049 5.680 0.97 P 
KMR 5.685 0.96 P 
KBU 6.052 0.62 P 
KCR 6.702 0.98 P 
B935 7.420 0.96 P 
BRIC 7.562 0.61 P 
KPR 7.592 0.57 P 
B045 7.800 1.00 P 
PRDS 7.842 0.62 P 
RBOW 8.222 0.90 P 
B047 8.660 0.91 P 
KMPB 8.715 0.95 P 
B934 8.800 0.89 P 
B932 8.950 0.89 P 
DMOR 9.122 0.58 P 
HAYF 9.803 0.61 P 
B046 9.840 0.86 P 
KHBB 11.205 0.94 P 
KFP 12.192 0.38 P 
B049 9.990 0.92 S 
KMR 10.125 0.80 S 
KBU 10.892 0.55 S 
KCR 11.932 0.87 S 
BRIC 12.932 0.51 S 
B935 13.360 0.76 S 
B045 13.740 0.89 S 
KPR 13.892 0.87 S 
PRDS 13.976 0.39 S 
RBOW 14.662 0.90 S 
B934 15.490 0.77 S 
KMPB 15.695 0.88 S 
B047 15.780 0.87 S 
B932 16.450 0.90 S 
DMOR 17.232 0.50 S 
B046 17.440 0.90 S 
HAYF 17.463 0.54 S 
KHBB 19.485 0.90 S 
# 2022 12 20 4 56 46.080 40.2449 -123.6937 33.969 1.142 0.227 0.227 0.349 6 
B049 5.658 1.00 P 
KMR 5.693 0.97 P 
KBU 6.040 0.58 P 
KCR 6.810 1.01 P 
B935 7.388 0.99 P 
KPR 7.570 0.70 P 
B045 7.758 1.01 P 
PRDS 7.800 0.49 P 
B047 8.628 0.97 P 
B934 8.798 0.93 P 
B932 8.958 0.98 P 
DMOR 9.150 0.53 P 
B046 9.798 0.96 P 
HAYF 9.821 0.61 P 
KHBB 11.263 0.97 P 
KFP 12.210 0.75 P 
PETY 13.173 0.34 P 
TRIN 18.381 0.79 P 
B049 9.928 0.95 S 
KMR 10.133 0.83 S 
KBU 10.890 0.66 S 
KCR 11.930 0.94 S 
BRIC 12.840 0.46 S 
B935 13.368 0.78 S 
B045 13.768 0.92 S 
PRDS 13.890 0.40 S 
KPR 14.090 0.47 S 
BJES 15.240 0.39 S 
B934 15.628 0.87 S 
B932 16.328 0.88 S 
DMOR 17.070 0.42 S 
HAYF 17.503 0.61 S 
B046 17.558 0.91 S 
KHBB 19.693 0.92 S 
KFP 21.140 0.80 S 
PETY 23.321 0.45 S 
TRIN 32.373 0.35 S 
# 2022 12 20 5 38 3.736 39.3177 -123.2359 8.342 1.178 0.300 0.300 0.187 7 
GVA 2.684 0.59 P 
GWR 3.024 0.62 P 
DCMP 3.575 0.50 P 
GCWB 4.774 0.81 P 
KRK 5.654 0.92 P 
KFP 7.474 0.96 P 
GHO 7.754 0.96 P 
GHGB 7.837 0.98 P 
GSR 9.984 0.98 P 
GVA 4.884 0.63 S 
GWR 5.454 0.62 S 
DCMP 6.447 0.50 S 
GCWB 8.234 0.81 S 
KFP 12.864 0.77 S 
GHO 13.394 0.74 S 
GHGB 13.847 0.79 S 
GSR 18.164 0.65 S 
# 2022 12 20 6 31 58.031 39.6541 -123.8577 3.292 0.581 0.173 0.173 0.451 8 
79046 2.249 0.91 P 
B934 4.977 0.99 P 
KFP 7.319 0.93 P 
DCMP 9.322 0.65 P 
GNR 10.319 0.72 P 
GVA 12.819 0.59 P 
B047 13.257 0.95 P 
B049 13.267 0.54 P 
B932 13.527 0.91 P 
B046 15.077 0.91 P 
79046 4.129 0.87 S 
B934 8.797 0.88 S 
KIP 12.999 0.70 S 
KFP 13.179 0.82 S 
DCMP 16.390 0.41 S 
PRDS 18.049 0.43 S 
BRIC 18.819 0.74 S 
GNR 19.399 0.62 S 
GBL 20.719 0.42 S 
B049 22.987 0.37 S 
GVA 23.079 0.54 S 
B047 23.157 0.87 S 
GHO 24.289 0.41 S 
B932 24.327 0.87 S 
B046 26.467 0.86 S 
# 2022 12 20 7 19 15.117 40.4906 -124.2616 19.969 0.271 0.302 0.302 0.677 9 
B046 4.821 1.00 P 
B932 5.401 0.93 P 
B045 5.921 0.93 P 
B047 6.081 0.96 P 
KCR 6.633 0.40 P 
KPR 7.733 0.91 P 
KBU 9.203 0.90 P 
PRDS 9.317 0.60 P 
B049 9.321 0.97 P 
B046 8.671 0.91 S 
89462 9.413 0.77 S 
B932 9.731 0.92 S 
B045 10.581 0.92 S 
B047 10.901 0.90 S 
KCR 12.323 0.70 S 
PRDS 16.063 0.58 S 
B049 16.821 0.87 S 
# 2022 12 20 9 0 21.638 39.4927 -122.8192 9.750 2.202 0.400 0.400 0.584 10 
GVA 5.492 0.62 P 
GTSB 5.826 0.50 P 
KRK 6.492 0.50 P 
GSR 7.422 0.63 P 
GHGB 7.925 0.63 P 
DCMP 8.163 0.47 P 
GCWB 8.812 0.65 P 
GWR 9.792 0.95 P 
KFP 10.172 0.53 P 
KBN 10.492 0.92 P 
KIP 12.572 0.78 P 
GNR 14.032 0.65 P 
PETY 14.243 0.58 P 
GHO 14.952 0.92 P 
LRB 15.352 0.55 P 
B934 15.550 0.83 P 
GBL 16.102 0.93 P 
GVA 9.852 0.54 S 
GTSB 10.246 0.50 S 
KRK 11.112 0.75 S 
GSR 13.052 0.60 S 
DCMP 14.005 0.46 S 
GHGB 14.105 0.59 S 
GCWB 15.892 0.60 S 
GROB 16.012 0.60 S 
KFP 17.992 0.57 S 
KBN 18.852 0.92 S 
GWR 19.582 0.80 S 
RVIT 23.592 0.41 S 
PETY 24.285 0.56 S 
GNR 24.652 0.54 S 
GHO 25.482 0.59 S 
B934 27.540 0.71 S 
# 2022 12 20 10 29 22.338 40.3965 -124.2901 19.757 0.784 0.185 0.185 0.441 11 
B046 3.920 1.09 P 
PETL 4.352 0.58 P 
B932 4.390 0.99 P 
KCT 4.415 0.96 P 
B047 5.030 1.04 P 
B045 5.820 0.94 P 
KMPB 6.295 0.86 P 
KPR 6.382 0.66 P 
PRDS 7.542 0.68 P 
KBU 8.422 1.00 P 
B049 8.620 1.05 P 
BRIC 9.872 0.50 P 
B935 11.190 0.94 P 
B046 7.040 1.01 S 
PETL 7.772 0.62 S 
B932 7.960 0.98 S 
KCT 8.355 0.43 S 
KMPB 8.465 0.85 S 
RBOW 8.662 0.93 S 
B047 8.960 0.98 S 
B045 10.380 0.72 S 
1023 10.812 0.89 S 
KPR 11.512 0.57 S 
PRDS 13.476 0.55 S 
BJES 14.522 0.87 S 
KBU 15.272 1.00 S 
B049 15.410 0.98 S 
KNEE 16.536 0.39 S 
BRIC 17.032 0.59 S 
DMOR 19.202 0.58 S 
B934 23.010 0.36 S 
# 2022 12 20 10 34 24.714 40.5178 -124.4164 13.088 6.143 0.100 0.100 0.615 12 
1584B 3.806 0.96 P 
KCT 3.889 0.59 P 
1023 4.516 1.01 P 
1586 5.596 1.02 P 
B046 5.814 0.97 P 
89255 6.006 0.97 P 
KMPB 6.169 0.54 P 
89462 6.206 0.94 P 
1582 6.316 0.99 P 
1581 6.726 0.98 P 
B932 6.734 0.95 P 
RBOW 6.916 0.38 P 
KCO 7.049 0.98 P 
B045 7.424 0.97 P 
89781 7.546 1.03 P 
B047 7.574 0.97 P 
BJES 8.926 0.96 P 
KPR 9.006 0.60 P 
1580 9.076 0.95 P 
KNEE 9.656 0.43 P 
KCR 9.846 0.45 P 
PRDS 10.400 0.47 P 
DMOR 10.406 0.39 P 
89688 10.686 0.92 P 
KBU 10.876 0.42 P 
B049 11.014 0.92 P 
KTD 11.256 0.94 P 
BRIC 12.446 0.39 P 
KHMB 12.519 0.52 P 
KMR 12.559 0.50 P 
B935 12.814 0.91 P 
1591 13.176 0.90 P 
KRP 13.319 0.92 P 
KCSB 13.729 0.92 P 
99700 14.526 0.98 P 
B934 15.934 0.91 P 
79046 16.046 0.94 P 
HAYF 16.519 0.37 P 
KHBB 16.659 0.94 P 
KOM 18.449 0.37 P 
RVIT 18.616 0.96 P 
WEAV 19.216 0.33 P 
KFP 19.856 0.34 P 
KBN 20.236 0.46 P 
79036 21.116 0.95 P 
MNDO 21.566 0.62 P 
PETY 22.099 0.82 P 
79668 23.206 0.62 P 
LSF 23.996 0.85 P 
LBK 23.996 1.02 P 
SCOT 24.519 0.39 P 
LRB 24.656 0.35 P 
79666 26.206 0.48 P 
1584B 6.806 0.89 S 
KCT 7.369 0.62 S 
1023 8.626 0.93 S 
KMPB 10.979 0.57 S 
PETL 11.036 0.61 S 
89255 11.096 0.73 S 
1586 11.096 0.86 S 
89462 11.496 0.79 S 
B932 11.864 0.66 S 
1582 12.216 0.86 S 
RBOW 12.996 0.51 S 
1581 13.136 0.90 S 
KCO 13.239 0.78 S 
B047 13.354 0.80 S 
B045 13.614 0.91 S 
89781 13.736 0.89 S 
KPR 16.436 0.60 S 
BJES 16.436 0.89 S 
KNEE 16.916 0.68 S 
1580 17.176 0.95 S 
KCR 18.016 0.92 S 
PRDS 18.786 0.41 S 
89688 19.216 0.88 S 
89464 19.336 0.78 S 
DMOR 19.516 0.91 S 
KBU 19.696 0.87 S 
B049 19.894 0.90 S 
KTD 21.206 0.82 S 
BRIC 21.856 0.50 S 
B935 22.164 0.90 S 
KHMB 22.919 0.68 S 
1591 23.396 0.90 S 
KMR 24.299 0.62 S 
KRP 24.829 0.83 S 
KCSB 24.839 0.91 S 
99700 26.916 0.91 S 
KHBB 29.419 0.49 S 
HAYF 29.709 0.59 S 
KOM 32.859 0.79 S 
WEAV 33.686 0.48 S 
RVIT 35.056 0.39 S 
79298 37.126 0.44 S 
KBN 38.326 0.63 S 
SCOT 42.997 0.42 S 
# 2022 12 20 10 35 59.181 40.5847 -124.1172 17.640 3.739 0.155 0.155 0.294 13 
89255 3.719 0.80 P 
89462 4.199 1.00 P 
1586 4.319 0.86 P 
1582 4.489 0.93 P 
1023 4.679 0.91 P 
KMPB 5.122 0.65 P 
B045 5.147 0.96 P 
89781 5.209 0.98 P 
BJES 5.229 0.91 P 
1580 6.609 0.94 P 
KCR 6.859 0.94 P 
B046 7.227 0.99 P 
B932 7.477 0.91 P 
B047 7.777 0.96 P 
PETL 7.949 0.99 P 
KCO 8.052 0.88 P 
KHMB 8.942 0.92 P 
KBU 9.019 0.96 P 
B049 9.187 0.97 P 
PRDS 10.313 0.37 P 
89688 10.899 0.90 P 
89255 7.159 0.85 S 
89462 7.789 0.91 S 
1586 8.149 0.86 S 
1582 8.309 0.89 S 
1023 8.979 0.90 S 
1584B 9.159 0.89 S 
B045 9.197 0.90 S 
1581 9.279 0.59 S 
KMPB 9.392 0.53 S 
BJES 9.419 0.90 S 
89781 9.499 0.91 S 
KCT 10.442 0.92 S 
RBOW 11.189 0.84 S 
KCR 12.219 0.89 S 
1580 12.229 0.90 S 
B046 12.667 0.92 S 
B932 13.117 0.85 S 
B047 13.797 0.87 S 
PETL 13.919 0.88 S 
KBU 15.829 0.87 S 
B049 16.167 0.89 S 
KHMB 16.602 0.76 S 
KTD 17.129 0.81 S 
PRDS 18.399 0.48 S 
KMR 19.592 0.45 S 
BRIC 20.049 0.49 S 
# 2022 12 20 10 36 14.829 40.4997 -124.3274 16.867 3.113 0.233 0.233 0.452 14 
KCT 3.774 0.66 P 
B046 4.309 0.86 P 
1586 4.771 0.93 P 
89255 5.531 0.68 P 
B045 6.939 0.62 P 
BJES 8.521 0.41 P 
B049 9.909 0.54 P 
1584B 6.051 0.86 S 
KCT 7.144 0.58 S 
89255 9.131 0.61 S 
KMPB 9.234 0.34 S 
1586 9.321 0.88 S 
89462 9.381 0.89 S 
B046 9.639 0.88 S 
B932 10.049 0.77 S 
PETL 10.531 0.85 S 
B045 11.159 0.50 S 
# 2022 12 20 10 36 38.960 40.6796 -123.8457 20.886 3.131 0.228 0.228 0.389 15 
KNEE 4.524 0.36 P 
89781 6.170 0.78 P 
KHMB 6.193 0.94 P 
1580 6.480 0.93 P 
1582 6.610 0.69 P 
1581 6.770 0.82 P 
B045 6.778 0.80 P 
89462 6.990 0.78 P 
B935 7.238 0.73 P 
1586 7.250 0.85 P 
KCSB 7.433 0.83 P 
1584B 8.590 0.45 P 
RBOW 8.790 0.33 P 
KMPB 8.883 0.61 P 
B049 9.438 0.54 P 
KHBB 10.153 0.55 P 
HAYF 10.531 0.38 P 
WEAV 12.570 0.44 P 
KNEE 8.070 0.72 S 
89781 11.090 0.66 S 
KHMB 11.223 0.77 S 
1580 11.330 0.85 S 
B045 12.298 0.80 S 
1582 12.700 0.86 S 
1581 12.800 0.88 S 
KMPB 14.303 0.50 S 
RBOW 15.570 0.59 S 
1584B 15.860 0.71 S 
B049 16.858 0.73 S 
KHBB 17.903 0.71 S 
HAYF 18.433 0.59 S 
B932 19.968 0.82 S 
# 2022 12 20 10 36 46.854 40.5090 -124.4763 16.191 2.974 0.249 0.249 0.696 16 
1023 4.146 0.89 P 
KCT 4.709 0.62 P 
B046 6.194 0.69 P 
B047 6.304 0.76 P 
KMPB 6.339 0.48 P 
PETL 6.426 0.82 P 
1586 6.936 0.45 P 
KCO 7.269 0.79 P 
89688 10.786 0.91 P 
BRIC 13.266 0.72 P 
KCT 8.389 0.57 S 
1023 9.676 0.55 S 
B046 10.164 0.78 S 
PETL 11.226 0.78 S 
1586 11.446 0.33 S 
KCO 13.049 0.67 S 
KPR 16.466 0.62 S 
PRDS 18.566 0.80 S 
89688 18.796 0.86 S 
B049 20.554 0.54 S 
BRIC 22.316 0.72 S 
# 2022 12 20 10 37 8.912 40.7620 -123.8932 26.560 3.314 0.237 0.237 0.354 17 
DMOR 4.598 0.71 P 
KNEE 5.028 0.43 P 
1580 5.548 0.96 P 
89781 5.678 0.93 P 
KHMB 6.051 0.60 P 
1582 6.378 0.88 P 
1581 6.408 0.94 P 
BJES 6.568 0.94 P 
KTD 7.678 0.94 P 
B935 8.326 0.93 P 
KRP 8.731 0.83 P 
99700 10.218 0.83 P 
KHBB 10.621 0.57 P 
KOM 11.901 0.52 P 
TRIN 16.721 0.71 P 
SCOT 17.721 0.56 P 
KNEE 9.118 0.48 S 
DMOR 9.398 0.87 S 
1580 9.938 0.88 S 
89781 10.328 0.86 S 
KHMB 10.861 0.61 S 
BJES 11.688 0.87 S 
1581 11.868 0.81 S 
KTD 13.698 0.87 S 
KCR 14.198 0.77 S 
B935 15.146 0.89 S 
KHBB 18.081 0.55 S 
# 2022 12 20 10 37 20.924 40.5319 -124.3237 16.421 3.571 0.123 0.123 0.484 18 
1584B 3.516 0.97 P 
1023 3.916 0.72 P 
KCT 3.989 0.35 P 
1586 4.676 1.00 P 
89462 5.166 0.99 P 
1582 5.356 1.00 P 
KMPB 5.359 0.93 P 
1581 5.716 1.00 P 
B046 5.764 1.03 P 
PETL 6.196 0.55 P 
RBOW 6.366 0.39 P 
B045 6.424 0.88 P 
89781 6.436 0.99 P 
B932 6.484 0.96 P 
KCO 6.899 1.01 P 
B047 7.174 0.93 P 
BJES 7.626 0.89 P 
1580 7.996 1.02 P 
KNEE 8.180 0.49 P 
KPR 8.636 0.62 P 
KCR 8.756 0.55 P 
PRDS 10.026 0.49 P 
KBU 10.066 0.56 P 
B049 10.174 0.94 P 
89688 10.286 0.82 P 
KTD 10.346 1.01 P 
DMOR 10.436 0.46 P 
KHMB 11.289 0.39 P 
B935 11.554 0.86 P 
KMR 11.909 0.59 P 
1591 12.266 0.98 P 
99700 13.826 1.02 P 
HAYF 15.809 0.94 P 
79046 17.086 0.66 P 
WEAV 18.026 0.84 P 
1584B 6.376 0.90 S 
1023 7.656 0.95 S 
KCT 7.729 0.75 S 
1586 8.906 0.91 S 
89462 9.556 0.93 S 
KMPB 9.589 0.51 S 
1582 10.276 0.91 S 
B046 10.284 0.92 S 
RBOW 11.126 0.54 S 
PETL 11.206 0.43 S 
B045 11.384 0.64 S 
B932 11.394 0.74 S 
89781 11.926 0.89 S 
KCO 12.199 0.89 S 
B047 12.584 0.62 S 
BJES 13.806 0.67 S 
1580 14.606 0.91 S 
KNEE 14.840 0.42 S 
KPR 15.256 0.53 S 
KCR 15.836 0.82 S 
DMOR 17.516 0.89 S 
PRDS 17.836 0.37 S 
89688 17.956 0.84 S 
KBU 18.126 0.58 S 
B049 18.184 0.91 S 
KTD 18.726 0.91 S 
KHMB 20.599 0.85 S 
BRIC 20.916 0.37 S 
KMR 21.409 0.56 S 
1591 22.166 0.88 S 
99700 25.926 0.91 S 
B934 26.424 0.43 S 
79046 27.206 0.60 S 
HAYF 28.317 0.39 S 
RVIT 32.306 0.50 S 
# 2022 12 20 10 38 2.810 40.6263 -123.9977 19.491 3.655 0.116 0.116 0.530 19 
BJES 4.750 0.71 P 
KNEE 4.760 0.57 P 
DMOR 5.160 0.54 P 
1582 5.260 1.00 P 
89462 5.300 1.05 P 
89781 5.440 1.04 P 
B045 5.578 1.08 P 
1586 5.600 1.05 P 
1581 5.670 1.05 P 
KMPB 6.173 0.67 P 
1023 6.250 1.08 P 
1580 6.290 1.05 P 
KCR 6.330 0.68 P 
1584B 6.640 1.06 P 
RBOW 7.170 0.51 P 
KCT 7.393 0.71 P 
KHMB 7.933 0.70 P 
B935 8.038 1.13 P 
B046 8.348 1.03 P 
B932 8.418 1.00 P 
B047 8.718 1.03 P 
KCSB 8.733 1.05 P 
KBU 8.880 0.45 P 
B049 8.908 1.03 P 
KPR 9.000 0.62 P 
KCO 9.123 1.00 P 
KTD 9.150 1.04 P 
PETL 9.270 0.95 P 
KMR 10.133 0.51 P 
KRP 10.573 1.02 P 
PRDS 10.804 0.56 P 
1591 11.300 0.96 P 
BRIC 11.580 0.53 P 
89688 11.600 0.98 P 
KHBB 11.673 0.65 P 
HAYF 11.753 0.49 P 
99700 11.900 0.79 P 
KOM 14.193 0.58 P 
WEAV 14.290 0.47 P 
B934 14.828 1.03 P 
79046 15.480 1.04 P 
KBN 17.460 0.41 P 
GUMB 22.350 1.08 P 
GROB 22.670 0.34 P 
BJES 8.640 0.43 S 
KNEE 8.690 0.45 S 
89462 9.680 0.91 S 
1582 9.920 0.95 S 
B045 9.928 0.88 S 
89781 9.970 0.93 S 
1586 10.450 0.98 S 
1581 10.810 0.94 S 
KMPB 11.153 0.53 S 
KCR 11.270 0.54 S 
1580 11.500 0.94 S 
1023 11.810 0.93 S 
1584B 12.010 0.95 S 
RBOW 13.150 0.44 S 
KCT 13.493 0.55 S 
KHMB 14.023 0.55 S 
B935 14.418 0.94 S 
B932 14.808 0.75 S 
B046 14.818 0.92 S 
B047 15.238 0.86 S 
B049 15.728 0.84 S 
KBU 15.770 0.86 S 
KPR 15.860 0.54 S 
KCSB 15.993 0.94 S 
PETL 16.120 0.52 S 
KCO 16.243 0.92 S 
KTD 16.360 0.89 S 
KMR 18.073 0.59 S 
KRP 18.773 0.90 S 
PRDS 19.054 0.34 S 
89688 19.770 0.94 S 
1591 20.280 0.90 S 
KHBB 20.603 0.52 S 
HAYF 20.663 0.41 S 
99700 21.350 0.84 S 
KOM 24.923 0.63 S 
WEAV 25.150 0.48 S 
B934 27.068 1.01 S 
RVIT 29.680 0.82 S 
79046 29.710 0.93 S 
KIP 30.730 0.85 S 
KBN 32.880 0.77 S 
TRIN 33.883 0.43 S 
PETY 34.003 0.50 S 
SCOT 35.003 0.64 S 
GUMB 39.244 0.56 S 
# 2022 12 20 10 39 2.299 40.5215 -124.1779 27.242 4.595 0.130 0.130 0.468 20 
1584B 4.861 0.90 P 
89462 5.001 0.97 P 
KMPB 5.124 0.40 P 
1023 5.161 0.99 P 
1586 5.341 0.97 P 
B045 5.439 0.90 P 
KCT 5.504 0.48 P 
1582 5.681 0.95 P 
RBOW 5.841 0.52 P 
1581 6.041 0.89 P 
B046 6.059 0.99 P 
B932 6.329 0.88 P 
BJES 6.341 0.74 P 
89781 6.401 0.93 P 
B047 6.769 0.95 P 
KCO 6.884 0.89 P 
PETL 6.971 0.58 P 
KNEE 7.091 0.52 P 
KCR 7.241 0.72 P 
KPR 7.591 0.64 P 
1580 7.621 0.96 P 
DMOR 7.741 0.35 P 
KBU 8.521 0.69 P 
B049 8.589 0.95 P 
PRDS 9.381 0.63 P 
89688 9.521 0.82 P 
B935 9.689 1.02 P 
KTD 10.001 1.00 P 
KHMB 10.114 0.66 P 
KMR 10.134 0.65 P 
KCSB 10.554 0.99 P 
BRIC 10.611 0.40 P 
1591 10.771 1.00 P 
KRP 11.974 0.93 P 
99700 13.301 0.65 P 
HAYF 13.344 0.57 P 
KHBB 13.714 0.67 P 
B934 14.019 0.89 P 
79046 14.461 0.94 P 
RVIT 16.171 0.88 P 
WEAV 16.291 0.45 P 
KOM 16.294 0.47 P 
KFP 18.111 0.67 P 
79036 18.311 0.93 P 
79298 18.431 0.97 P 
MNDO 20.021 0.99 P 
TRIN 20.294 0.41 P 
KRK 20.741 0.53 P 
LSF 21.311 1.03 P 
79668 21.391 1.05 P 
LBK 21.561 1.05 P 
SCOT 22.072 0.34 P 
LRB 22.671 0.58 P 
GBL 22.711 0.58 P 
GVA 23.031 0.66 P 
GWR 23.591 0.36 P 
GUMB 24.091 0.34 P 
GHO 24.111 0.66 P 
GCWB 25.831 0.38 P 
1584B 8.791 0.97 S 
89462 9.151 0.84 S 
KMPB 9.164 0.69 S 
B045 9.719 0.93 S 
1023 9.831 0.59 S 
1586 10.001 0.89 S 
KCT 10.234 0.66 S 
RBOW 10.451 0.39 S 
1582 10.671 0.90 S 
B046 11.009 0.95 S 
1581 11.301 0.97 S 
BJES 11.451 0.46 S 
89781 11.711 0.94 S 
B047 12.079 0.91 S 
PETL 12.181 0.33 S 
KCO 12.644 0.92 S 
KCR 12.771 0.46 S 
KNEE 12.885 0.40 S 
1580 13.771 0.93 S 
KPR 14.071 0.51 S 
DMOR 14.591 0.90 S 
B049 15.309 0.93 S 
KBU 15.431 0.54 S 
89688 16.901 0.85 S 
B935 17.389 0.94 S 
KHMB 17.874 0.59 S 
KTD 18.041 0.94 S 
KMR 18.074 0.52 S 
BRIC 18.401 0.47 S 
KCSB 18.904 0.95 S 
1591 19.001 0.91 S 
KRP 21.304 0.92 S 
99700 23.751 0.88 S 
KHBB 23.954 0.51 S 
B934 24.459 0.93 S 
79046 25.431 0.96 S 
KOM 28.354 0.95 S 
RVIT 28.511 0.35 S 
WEAV 28.611 0.46 S 
KFP 31.481 0.51 S 
79298 31.901 0.54 S 
PETY 32.654 0.73 S 
DCMP 34.984 0.61 S 
MNDO 35.351 0.98 S 
TRIN 35.362 0.40 S 
SCOT 37.964 0.50 S 
LSF 38.631 0.72 S 
GBL 40.371 0.73 S 
GWR 40.731 0.90 S 
GUMB 42.281 0.49 S 
GHO 42.711 0.50 S 
GCWB 44.261 0.65 S 
GTSB 47.671 0.57 S 
# 2022 12 20 10 39 46.228 40.5358 -124.3314 16.681 2.826 0.164 0.164 0.371 21 
KCT 4.035 0.69 P 
1586 4.792 1.02 P 
89462 5.292 0.96 P 
1582 5.492 0.93 P 
KMPB 5.495 0.63 P 
B046 5.850 0.94 P 
1581 5.882 0.93 P 
PETL 6.382 0.45 P 
RBOW 6.382 0.94 P 
B045 6.530 0.95 P 
89781 6.592 0.97 P 
KCO 6.985 0.92 P 
B047 7.190 0.97 P 
1580 8.172 0.99 P 
KNEE 8.366 0.36 P 
KPR 8.522 0.58 P 
KCR 9.002 0.86 P 
PRDS 10.042 0.61 P 
KBU 10.172 0.80 P 
B049 10.270 0.88 P 
89688 10.442 0.77 P 
KHMB 11.455 0.87 P 
BRIC 12.052 0.88 P 
1584B 6.392 0.92 S 
KCT 7.585 0.60 S 
1586 9.022 0.95 S 
89462 9.692 0.86 S 
KMPB 9.715 0.61 S 
B046 10.350 0.89 S 
PETL 11.212 0.51 S 
RBOW 11.252 0.57 S 
B045 11.500 0.72 S 
89781 12.222 0.83 S 
KCO 12.265 0.78 S 
B047 12.690 0.83 S 
1580 14.642 0.94 S 
KPR 15.342 0.61 S 
BJES 15.372 0.75 S 
DMOR 17.822 0.75 S 
PRDS 18.062 0.42 S 
B049 18.280 0.73 S 
KHMB 20.605 0.83 S 
BRIC 20.792 0.76 S 
# 2022 12 20 10 40 3.545 40.6174 -124.0975 19.528 2.726 0.180 0.180 0.435 22 
1586 4.475 0.93 P 
1581 4.685 0.89 P 
BJES 4.705 0.93 P 
89781 4.815 0.89 P 
89462 4.855 0.94 P 
B045 4.983 0.78 P 
KNEE 5.455 0.53 P 
1584B 5.485 0.93 P 
1580 6.005 0.93 P 
KCR 6.355 0.85 P 
KMPB 6.448 0.53 P 
RBOW 6.805 0.48 P 
B047 8.213 0.88 P 
KHMB 8.408 0.58 P 
KCO 8.458 0.92 P 
KPR 8.665 0.60 P 
B935 9.093 0.97 P 
KBU 9.265 0.55 P 
B049 9.323 0.77 P 
KCSB 10.028 0.85 P 
KMR 10.768 0.82 P 
BRIC 11.815 0.78 P 
KHBB 12.568 0.84 P 
1586 8.595 0.85 S 
89462 8.985 0.85 S 
1581 8.985 0.81 S 
89781 8.985 0.75 S 
1023 9.705 0.91 S 
KNEE 9.785 0.46 S 
BJES 9.945 0.90 S 
1584B 10.025 0.75 S 
B045 10.293 0.63 S 
KMPB 10.388 0.60 S 
1580 10.935 0.82 S 
RBOW 12.095 0.50 S 
KCR 12.675 0.85 S 
B046 13.483 0.76 S 
B047 14.563 0.86 S 
PETL 14.715 0.41 S 
KCO 15.068 0.89 S 
KHMB 15.308 0.56 S 
KPR 15.785 0.61 S 
KBU 16.345 0.62 S 
B935 16.673 0.89 S 
B049 16.713 0.86 S 
KMR 19.518 0.58 S 
BRIC 21.175 0.79 S 
