# 2022 12 20 10 57 56.281 40.5060 -124.4403 18.074 3.709 0.130 0.130 0.423 60 
1584B 4.209 0.82 P 
1023 4.979 0.87 P 
B046 5.807 0.84 P 
PETL 6.049 0.56 P 
1586 6.049 0.85 P 
KMPB 6.482 0.56 P 
89462 6.629 0.83 P 
1581 6.669 0.85 P 
KCO 6.912 0.82 P 
RBOW 7.249 0.59 P 
B047 7.517 0.81 P 
89781 7.669 0.85 P 
B045 7.697 0.77 P 
KPR 9.039 0.68 P 
1580 9.129 0.86 P 
BJES 9.159 0.82 P 
KCR 10.119 0.65 P 
PRDS 10.129 0.59 P 
89688 10.429 0.81 P 
DMOR 10.529 0.67 P 
B049 11.037 0.81 P 
KBU 11.049 0.66 P 
KTD 11.209 0.83 P 
BRIC 12.329 0.59 P 
KHMB 12.772 0.85 P 
B935 12.777 0.82 P 
KCSB 13.732 0.81 P 
99700 14.809 0.83 P 
B934 15.697 0.85 P 
79046 15.899 0.82 P 
KHBB 16.732 0.51 P 
KIP 18.099 0.75 P 
KOM 18.542 0.61 P 
KFP 19.749 0.63 P 
KBN 20.319 0.75 P 
MNDO 21.309 0.85 P 
GNR 23.219 0.58 P 
GBL 23.889 0.67 P 
LBK 24.369 0.84 P 
GWR 25.149 0.85 P 
GHO 25.499 0.57 P 
GUMB 26.873 0.53 P 
GCWB 27.349 0.86 P 
GTSB 30.209 0.83 P 
GHGB 30.252 0.87 P 
1584B 7.559 0.81 S 
KCT 7.862 0.61 S 
1023 9.489 0.60 S 
B046 10.227 0.79 S 
PETL 10.759 0.56 S 
1586 11.089 0.61 S 
KMPB 11.492 0.65 S 
89462 12.119 0.57 S 
KCO 12.302 0.80 S 
RBOW 12.609 0.56 S 
1581 12.679 0.79 S 
B047 13.277 0.80 S 
89781 13.849 0.81 S 
1580 16.009 0.82 S 
KPR 16.059 0.60 S 
BJES 16.689 0.65 S 
KNEE 17.589 0.58 S 
PRDS 18.089 0.51 S 
KCR 18.169 0.61 S 
89688 18.249 0.77 S 
KBU 19.609 0.65 S 
DMOR 19.629 0.80 S 
B049 19.677 0.81 S 
BRIC 21.599 0.59 S 
KHMB 22.092 0.77 S 
B935 22.847 0.83 S 
KMR 23.162 0.53 S 
1591 23.239 0.71 S 
KCSB 24.362 0.82 S 
B934 27.487 0.83 S 
79046 27.519 0.82 S 
KOM 31.722 0.80 S 
KIP 32.089 0.75 S 
79298 33.889 0.64 S 
KFP 34.709 0.60 S 
DCMP 38.110 0.57 S 
KRK 39.989 0.77 S 
79668 40.429 0.79 S 
GNR 40.489 0.77 S 
GBL 41.609 0.56 S 
SCOT 42.720 0.57 S 
GHO 44.589 0.67 S 
GUMB 47.449 0.56 S 
GCWB 48.009 0.76 S 
# 2022 12 20 10 59 7.695 40.5227 -124.3723 16.311 1.833 0.143 0.143 0.425 61 
1584B 3.635 0.86 P 
KCT 3.988 0.59 P 
1023 4.285 0.90 P 
1586 5.235 0.88 P 
89462 5.675 0.87 P 
B046 5.833 0.85 P 
KMPB 5.858 0.67 P 
PETL 6.225 0.82 P 
1581 6.295 0.87 P 
RBOW 6.595 0.64 P 
KCO 7.158 0.87 P 
BJES 8.215 0.75 P 
1580 8.725 0.86 P 
KPR 8.875 0.68 P 
KNEE 8.905 0.57 P 
KCR 9.335 0.67 P 
KBU 10.455 0.70 P 
B049 10.563 0.79 P 
BRIC 11.135 0.67 P 
B935 11.913 0.79 P 
KHMB 11.948 0.60 P 
KMR 12.118 0.65 P 
1591 12.735 0.83 P 
KRP 13.358 0.78 P 
B934 14.203 0.72 P 
KHBB 16.048 0.52 P 
1584B 6.405 0.84 S 
KCT 7.128 0.72 S 
1023 8.075 0.80 S 
1586 9.705 0.74 S 
B046 10.083 0.83 S 
KMPB 10.148 0.62 S 
89462 10.235 0.83 S 
1581 11.585 0.82 S 
KCO 12.248 0.84 S 
89781 12.755 0.59 S 
B047 12.883 0.80 S 
KPR 15.315 0.63 S 
1580 15.355 0.80 S 
KNEE 16.035 0.60 S 
KCR 16.825 0.64 S 
KBU 18.505 0.64 S 
89688 18.595 0.69 S 
DMOR 18.715 0.82 S 
B049 18.723 0.78 S 
BRIC 21.195 0.54 S 
KHMB 21.518 0.67 S 
B935 21.893 0.83 S 
KMR 21.958 0.64 S 
1591 22.715 0.82 S 
B934 27.323 0.81 S 
HAYF 29.078 0.52 S 
# 2022 12 20 10 59 26.483 40.5410 -124.3540 26.168 1.595 0.287 0.287 0.697 62 
1023 3.797 0.53 P 
PETL 5.157 0.53 P 
KCO 5.950 0.60 P 
1584B 6.247 0.76 P 
89781 6.367 0.66 P 
RBOW 6.917 0.53 P 
1581 7.177 0.75 P 
KCR 8.727 0.59 P 
KPR 9.047 0.56 P 
KBU 10.167 0.61 P 
B049 10.335 0.77 P 
KMR 11.990 0.74 P 
1584B 8.547 0.66 S 
1023 8.917 0.67 S 
1581 11.167 0.73 S 
RBOW 11.417 0.53 S 
B046 11.665 0.77 S 
89781 12.027 0.60 S 
PETL 12.727 0.65 S 
KCO 13.470 0.76 S 
1580 14.547 0.72 S 
KPR 15.437 0.60 S 
PRDS 16.707 0.60 S 
89688 17.747 0.55 S 
B049 17.895 0.68 S 
KBU 17.967 0.64 S 
# 2022 12 20 10 59 42.806 40.5262 -124.3144 15.678 0.994 0.166 0.166 0.667 63 
1584B 3.274 0.60 P 
KCT 3.687 0.67 P 
1586 4.264 0.79 P 
KMPB 5.117 0.88 P 
B046 5.552 0.87 P 
RBOW 6.014 0.55 P 
KCO 6.727 0.84 P 
B047 6.932 0.86 P 
KPR 8.124 0.63 P 
KCR 8.644 0.75 P 
KBU 9.724 0.66 P 
B049 9.912 0.82 P 
PRDS 10.044 0.82 P 
89688 10.104 0.78 P 
BRIC 11.714 0.70 P 
KHBB 18.647 0.50 P 
1584B 6.124 0.76 S 
KCT 6.977 0.65 S 
1023 7.314 0.83 S 
1586 7.944 0.77 S 
KMPB 9.457 0.84 S 
89462 9.484 0.80 S 
B046 10.012 0.85 S 
PETL 10.794 0.53 S 
RBOW 10.924 0.56 S 
KCO 12.247 0.83 S 
B047 12.532 0.74 S 
KPR 15.114 0.67 S 
KCR 15.564 0.64 S 
PRDS 17.724 0.63 S 
KBU 17.724 0.67 S 
B049 17.782 0.84 S 
89688 18.324 0.74 S 
B935 19.872 0.54 S 
BRIC 20.384 0.60 S 
KMR 20.717 0.59 S 
# 2022 12 20 11 0 16.892 40.6083 -124.1181 37.814 1.125 1.219 1.219 0.826 64 
KMPB 8.011 0.56 P 
RBOW 8.658 0.53 P 
KPR 9.018 0.62 P 
B049 9.186 0.59 P 
KMR 10.441 0.55 P 
KCO 14.081 0.53 S 
B049 16.836 0.57 S 
PRDS 19.718 0.58 S 
89688 20.378 0.56 S 
# 2022 12 20 11 0 26.686 40.7261 -123.8205 27.040 1.234 0.251 0.251 0.619 65 
KNEE 4.944 0.59 P 
KHMB 5.947 0.67 P 
B935 7.492 0.84 P 
KCR 7.584 0.68 P 
KBU 8.574 0.78 P 
KMR 9.357 0.76 P 
KHBB 9.827 0.86 P 
B049 10.172 0.82 P 
HAYF 10.347 0.67 P 
BRIC 11.204 0.55 P 
DMOR 7.844 0.84 S 
KNEE 9.388 0.82 S 
KHMB 10.537 0.62 S 
BJES 11.704 0.77 S 
B935 13.372 0.80 S 
KCR 13.524 0.62 S 
KHBB 16.887 0.83 S 
B049 17.512 0.81 S 
HAYF 17.695 0.64 S 
KMR 19.487 0.60 S 
WEAV 21.234 0.55 S 
# 2022 12 20 11 0 50.761 40.4903 -124.4132 16.313 1.983 0.150 0.150 0.629 66 
KCT 3.652 0.80 P 
1584B 4.439 0.86 P 
B046 5.207 0.88 P 
PETL 5.499 0.63 P 
1023 5.609 0.87 P 
KMPB 5.992 0.62 P 
KCO 6.412 0.87 P 
1586 6.719 0.87 P 
RBOW 6.849 0.73 P 
1581 8.069 0.85 P 
KPR 8.359 0.64 P 
89781 9.009 0.84 P 
KNEE 9.403 0.60 P 
PRDS 9.669 0.63 P 
BJES 9.829 0.85 P 
KCR 9.999 0.77 P 
89688 10.029 0.85 P 
DMOR 10.219 0.64 P 
BRIC 11.679 0.83 P 
KBU 12.009 0.83 P 
B049 12.217 0.82 P 
B935 12.537 0.84 P 
KHMB 13.492 0.81 P 
KMR 13.812 0.81 P 
KHBB 16.462 0.71 P 
KCT 7.112 0.54 S 
1584B 7.689 0.80 S 
1023 9.139 0.77 S 
B046 9.377 0.81 S 
PETL 10.129 0.55 S 
KMPB 10.732 0.69 S 
1586 10.889 0.81 S 
KCO 11.532 0.85 S 
RBOW 12.179 0.52 S 
1581 12.639 0.62 S 
89781 13.929 0.84 S 
KPR 15.289 0.60 S 
BJES 16.279 0.84 S 
KNEE 17.263 0.83 S 
PRDS 17.763 0.57 S 
89688 17.929 0.80 S 
KCR 17.999 0.83 S 
KBU 20.049 0.78 S 
DMOR 20.069 0.52 S 
BRIC 21.099 0.56 S 
KMR 22.152 0.71 S 
B935 22.817 0.85 S 
1591 23.049 0.71 S 
# 2022 12 20 11 1 6.807 40.4232 -124.1436 16.166 1.474 0.197 0.197 0.971 67 
RBOW 2.863 0.60 P 
B046 3.031 0.65 P 
KCO 4.026 0.76 P 
KPR 4.983 0.62 P 
1584B 5.813 0.79 P 
1023 5.953 0.82 P 
KBU 6.263 0.80 P 
B049 6.311 0.75 P 
1586 7.273 0.76 P 
89462 5.303 0.55 S 
RBOW 7.363 0.58 S 
B046 7.621 0.80 S 
1584B 8.553 0.70 S 
PETL 8.593 0.52 S 
KCO 9.406 0.81 S 
1023 10.263 0.78 S 
KPR 10.683 0.70 S 
1586 11.923 0.75 S 
KBU 13.903 0.56 S 
B049 14.121 0.69 S 
PRDS 14.357 0.51 S 
89688 15.293 0.53 S 
B935 15.891 0.60 S 
# 2022 12 20 11 1 42.792 40.5030 -124.4199 14.220 1.113 0.222 0.222 0.385 68 
1584B 3.878 0.86 P 
B046 5.616 0.86 P 
1023 5.638 0.80 P 
1586 5.728 0.86 P 
PETL 5.998 0.59 P 
KMPB 6.271 0.73 P 
RBOW 6.938 0.79 P 
KPR 8.998 0.65 P 
KCR 10.118 0.52 P 
PRDS 10.332 0.63 P 
KBU 10.778 0.74 P 
B049 10.996 0.77 P 
BRIC 12.098 0.64 P 
1584B 7.078 0.84 S 
B046 9.926 0.82 S 
PETL 10.588 0.59 S 
1586 10.698 0.77 S 
KMPB 11.011 0.82 S 
89462 11.458 0.72 S 
KCO 12.051 0.81 S 
KPR 16.178 0.82 S 
PRDS 18.148 0.53 S 
89688 18.628 0.74 S 
BRIC 21.698 0.65 S 
# 2022 12 20 11 2 13.230 40.5238 -124.3207 16.133 2.296 0.131 0.131 0.551 69 
1584B 3.480 0.86 P 
KCT 3.973 0.53 P 
1023 4.050 0.88 P 
1586 4.870 0.86 P 
89462 5.160 0.89 P 
KMPB 5.353 0.67 P 
B046 5.578 0.82 P 
1581 6.040 0.88 P 
RBOW 6.210 0.57 P 
89781 6.780 0.87 P 
PETL 6.930 0.57 P 
KCO 6.983 0.85 P 
BJES 7.620 0.73 P 
KNEE 8.370 0.62 P 
1580 8.430 0.88 P 
KPR 8.480 0.66 P 
KCR 8.760 0.66 P 
KBU 9.930 0.65 P 
B049 10.048 0.75 P 
PRDS 10.100 0.60 P 
89688 10.360 0.83 P 
KHMB 11.503 0.67 P 
B935 11.568 0.80 P 
KMR 11.663 0.61 P 
BRIC 11.730 0.66 P 
KCSB 12.173 0.78 P 
1591 12.450 0.83 P 
HAYF 15.231 0.62 P 
KHBB 15.463 0.67 P 
B934 17.768 0.51 P 
LBK 23.170 0.73 P 
SCOT 23.553 0.56 P 
1584B 6.220 0.82 S 
KCT 7.133 0.72 S 
1023 7.970 0.66 S 
1586 9.210 0.63 S 
KMPB 9.473 0.61 S 
89462 9.550 0.80 S 
B046 9.828 0.82 S 
PETL 10.740 0.59 S 
RBOW 10.940 0.56 S 
1581 11.150 0.78 S 
KCO 11.973 0.82 S 
89781 12.300 0.82 S 
KPR 14.720 0.65 S 
1580 14.940 0.81 S 
KNEE 15.040 0.57 S 
KCR 16.140 0.63 S 
PRDS 17.390 0.54 S 
DMOR 17.760 0.54 S 
89688 17.790 0.81 S 
KBU 17.810 0.66 S 
B049 17.998 0.78 S 
KHMB 20.483 0.71 S 
BRIC 20.580 0.53 S 
KMR 20.933 0.67 S 
B935 21.108 0.81 S 
1591 21.970 0.82 S 
KCSB 22.723 0.79 S 
B934 26.988 0.61 S 
HAYF 28.053 0.64 S 
KHBB 28.993 0.60 S 
# 2022 12 20 11 2 38.497 40.6672 -123.9144 22.063 1.752 0.184 0.184 0.475 70 
BJES 5.033 0.83 P 
89781 5.433 0.83 P 
1581 6.063 0.80 P 
89462 6.293 0.80 P 
KHMB 6.446 0.70 P 
KCR 6.663 0.80 P 
KMPB 7.326 0.79 P 
B935 7.641 0.81 P 
KCSB 7.916 0.82 P 
1584B 8.063 0.76 P 
RBOW 8.213 0.79 P 
B049 9.331 0.78 P 
KBU 9.353 0.65 P 
KPR 9.413 0.56 P 
KMR 10.476 0.64 P 
KHBB 10.646 0.55 P 
HAYF 10.994 0.57 P 
89688 11.873 0.57 P 
KNEE 7.853 0.56 S 
DMOR 8.553 0.83 S 
BJES 9.173 0.55 S 
89781 10.073 0.79 S 
1580 10.613 0.80 S 
1581 11.433 0.77 S 
89462 11.603 0.79 S 
KHMB 11.796 0.59 S 
KCR 11.953 0.79 S 
KMPB 13.226 0.60 S 
B935 13.681 0.71 S 
1584B 14.223 0.74 S 
KCSB 14.556 0.77 S 
KBU 16.383 0.58 S 
B049 16.671 0.78 S 
B046 16.761 0.78 S 
KRP 17.836 0.55 S 
PETL 18.383 0.77 S 
KMR 18.946 0.56 S 
KHBB 19.216 0.76 S 
HAYF 19.294 0.61 S 
89688 19.383 0.58 S 
# 2022 12 20 11 3 9.533 40.5945 -124.0520 17.127 3.181 0.139 0.139 1.152 71 
89462 4.587 0.82 P 
1586 4.867 0.79 P 
KMPB 5.280 0.63 P 
1584B 5.387 0.77 P 
89781 5.427 0.65 P 
KNEE 5.487 0.61 P 
DMOR 6.047 0.55 P 
KCR 6.497 0.63 P 
1580 6.697 0.79 P 
B046 7.125 0.72 P 
PETL 7.767 0.69 P 
KCO 7.890 0.76 P 
KPR 8.157 0.57 P 
KBU 8.537 0.67 P 
B049 8.555 0.78 P 
KHMB 8.650 0.69 P 
B935 8.715 0.82 P 
KCSB 9.540 0.81 P 
KMR 9.900 0.56 P 
PRDS 9.901 0.57 P 
KRP 10.870 0.71 P 
HAYF 12.180 0.50 P 
KHBB 12.420 0.66 P 
KOM 14.920 0.69 P 
WEAV 15.397 0.60 P 
LBK 20.157 0.81 P 
GUMB 22.571 0.64 P 
89462 8.587 0.71 S 
1586 9.257 0.83 S 
BJES 9.467 0.82 S 
KMPB 9.640 0.60 S 
1023 9.967 0.77 S 
89781 10.047 0.75 S 
RBOW 11.207 0.58 S 
1584B 11.437 0.64 S 
KCT 11.860 0.61 S 
KCR 11.867 0.81 S 
1580 11.957 0.72 S 
DMOR 12.207 0.53 S 
B046 12.765 0.73 S 
KPR 13.317 0.58 S 
PETL 14.057 0.63 S 
KCO 14.330 0.77 S 
KBU 14.857 0.65 S 
B049 14.965 0.75 S 
KHMB 15.510 0.61 S 
B935 15.915 0.81 S 
KMR 17.020 0.53 S 
KCSB 17.400 0.82 S 
KHBB 21.880 0.56 S 
89688 22.687 0.68 S 
HAYF 22.828 0.65 S 
KFP 31.157 0.52 S 
B934 31.405 0.58 S 
79046 32.307 0.60 S 
GUMB 40.467 0.54 S 
# 2022 12 20 11 4 6.231 40.5206 -124.3255 16.571 1.977 0.133 0.133 0.417 72 
1584B 3.389 0.87 P 
KCT 3.842 0.57 P 
1023 3.959 0.89 P 
1586 4.879 0.87 P 
89462 5.219 0.87 P 
KMPB 5.372 0.56 P 
B046 5.547 0.82 P 
PETL 6.159 0.63 P 
1581 6.259 0.86 P 
RBOW 6.279 0.58 P 
KCO 6.762 0.84 P 
89781 6.859 0.86 P 
BJES 7.689 0.79 P 
KNEE 8.459 0.61 P 
1580 8.519 0.87 P 
KPR 8.529 0.66 P 
KCR 8.879 0.63 P 
KBU 10.039 0.66 P 
B049 10.197 0.70 P 
PRDS 10.299 0.67 P 
89688 10.379 0.83 P 
KHMB 11.622 0.64 P 
B935 11.667 0.80 P 
KMR 11.822 0.59 P 
BRIC 11.959 0.53 P 
1591 12.459 0.81 P 
KCSB 12.742 0.76 P 
HAYF 14.390 0.65 P 
KHBB 15.552 0.52 P 
WEAV 17.659 0.71 P 
TRIN 22.242 0.77 P 
LBK 23.339 0.83 P 
SCOT 23.782 0.52 P 
1584B 6.069 0.84 S 
KCT 6.912 0.72 S 
1023 7.739 0.70 S 
1586 9.219 0.66 S 
KMPB 9.392 0.65 S 
89462 9.469 0.83 S 
B046 9.897 0.82 S 
RBOW 11.059 0.52 S 
1581 11.259 0.80 S 
KCO 11.902 0.82 S 
89781 12.339 0.81 S 
BJES 13.989 0.72 S 
KPR 14.839 0.63 S 
1580 14.899 0.80 S 
KNEE 15.289 0.61 S 
KCR 15.899 0.64 S 
89688 17.979 0.77 S 
KBU 18.179 0.63 S 
B049 18.187 0.76 S 
KHMB 20.002 0.69 S 
BRIC 20.529 0.61 S 
KMR 20.752 0.79 S 
B935 21.087 0.83 S 
1591 22.459 0.81 S 
KRP 23.502 0.56 S 
B934 26.577 0.68 S 
79046 27.099 0.52 S 
LBK 40.679 0.63 S 
# 2022 12 20 11 4 24.725 40.5412 -124.2105 17.357 1.515 0.165 0.165 0.687 73 
1584B 3.435 0.83 P 
RBOW 4.805 0.66 P 
KCO 6.008 0.74 P 
1581 6.885 0.68 P 
KNEE 7.029 0.83 P 
KCR 7.565 0.61 P 
KPR 7.805 0.55 P 
DMOR 7.955 0.72 P 
KBU 8.985 0.64 P 
B049 9.233 0.84 P 
PRDS 9.485 0.61 P 
KHMB 10.348 0.56 P 
B935 10.593 0.84 P 
KMR 10.888 0.84 P 
BRIC 11.235 0.81 P 
1584B 6.715 0.71 S 
1023 7.545 0.66 S 
89462 7.925 0.78 S 
1586 8.135 0.79 S 
KMPB 8.348 0.59 S 
1581 10.045 0.69 S 
B046 10.453 0.80 S 
89781 10.845 0.73 S 
BJES 11.345 0.51 S 
KCO 12.298 0.85 S 
KNEE 12.569 0.58 S 
KCR 13.435 0.62 S 
KPR 14.025 0.78 S 
DMOR 14.475 0.53 S 
KBU 16.785 0.66 S 
B049 16.923 0.83 S 
PRDS 17.189 0.53 S 
B935 17.733 0.85 S 
KMR 19.678 0.67 S 
BRIC 19.715 0.58 S 
KHBB 26.288 0.57 S 
# 2022 12 20 11 5 1.993 40.5316 -124.3437 17.255 2.647 0.123 0.123 0.464 74 
1584B 3.567 0.92 P 
1023 3.677 0.91 P 
KCT 4.230 0.56 P 
1586 4.957 0.87 P 
89462 5.437 0.91 P 
KMPB 5.630 0.67 P 
1581 5.987 0.88 P 
B046 6.025 0.87 P 
PETL 6.537 0.59 P 
RBOW 6.587 0.61 P 
89781 6.727 0.89 P 
KCO 7.160 0.85 P 
BJES 7.867 0.73 P 
1580 8.347 0.90 P 
KNEE 8.357 0.59 P 
KPR 8.817 0.65 P 
KCR 8.997 0.67 P 
PRDS 10.187 0.60 P 
KBU 10.237 0.64 P 
B049 10.385 0.73 P 
89688 10.527 0.83 P 
KTD 10.677 0.85 P 
KHMB 11.550 0.59 P 
B935 11.765 0.81 P 
KMR 11.890 0.51 P 
BRIC 12.207 0.50 P 
KRP 12.550 0.86 P 
KCSB 12.690 0.82 P 
1591 12.697 0.82 P 
HAYF 15.460 0.85 P 
KHBB 15.630 0.70 P 
79046 16.927 0.81 P 
KOM 17.550 0.88 P 
KFP 19.367 0.81 P 
KBN 19.817 0.79 P 
TRIN 22.080 0.66 P 
KRK 22.757 0.77 P 
GNR 23.157 0.87 P 
LBK 23.347 0.85 P 
SCOT 23.678 0.54 P 
GROB 24.197 0.58 P 
GHO 25.477 0.86 P 
GUMB 25.847 0.57 P 
GCWB 27.837 0.80 P 
1584B 6.587 0.76 S 
KCT 7.580 0.63 S 
1023 7.957 0.53 S 
1586 9.127 0.66 S 
KMPB 9.860 0.62 S 
89462 9.877 0.77 S 
B046 10.495 0.84 S 
1581 11.027 0.77 S 
PETL 11.377 0.57 S 
RBOW 11.397 0.54 S 
89781 12.127 0.83 S 
KCO 12.430 0.83 S 
1580 14.747 0.82 S 
KPR 15.117 0.65 S 
KNEE 15.171 0.58 S 
KCR 16.057 0.61 S 
PRDS 17.927 0.52 S 
KBU 18.117 0.63 S 
89688 18.187 0.80 S 
B049 18.385 0.82 S 
KHMB 20.740 0.66 S 
BRIC 21.017 0.62 S 
B935 21.065 0.81 S 
KMR 21.640 0.74 S 
KRP 22.160 0.79 S 
1591 22.437 0.79 S 
KCSB 22.540 0.78 S 
B934 26.735 0.80 S 
KHBB 27.100 0.67 S 
79046 27.347 0.73 S 
HAYF 28.140 0.63 S 
KIP 31.177 0.80 S 
KOM 31.900 0.74 S 
KFP 33.977 0.73 S 
TRIN 39.140 0.54 S 
PETY 39.660 0.55 S 
GNR 40.617 0.54 S 
SCOT 40.940 0.67 S 
LBK 41.457 0.83 S 
GHO 44.497 0.53 S 
GUMB 45.511 0.65 S 
# 2022 12 20 11 5 31.878 40.5216 -124.3854 16.741 1.577 0.179 0.179 0.404 75 
KCT 4.055 0.67 P 
1586 5.362 0.88 P 
B046 5.800 0.87 P 
KMPB 5.925 0.64 P 
KCO 6.855 0.82 P 
KPR 8.732 0.83 P 
1580 8.802 0.83 P 
KCR 9.592 0.67 P 
PRDS 10.122 0.82 P 
KBU 10.522 0.70 P 
89688 10.612 0.83 P 
B935 11.740 0.82 P 
1584B 6.622 0.83 S 
KCT 7.285 0.68 S 
1023 8.282 0.70 S 
1586 9.892 0.81 S 
B046 10.020 0.83 S 
KMPB 10.305 0.65 S 
89462 10.792 0.77 S 
1581 11.532 0.54 S 
BJES 15.042 0.66 S 
KPR 15.452 0.82 S 
1580 15.552 0.78 S 
KCR 17.262 0.65 S 
89688 18.572 0.78 S 
KBU 18.732 0.78 S 
B049 18.820 0.76 S 
BRIC 21.162 0.58 S 
B935 22.060 0.82 S 
1591 22.892 0.78 S 
# 2022 12 20 11 6 9.224 40.5212 -124.3386 17.456 2.072 0.143 0.143 0.475 76 
1584B 3.566 0.89 P 
KCT 3.939 0.61 P 
1023 4.046 0.89 P 
1586 5.046 0.84 P 
89462 5.346 0.90 P 
KMPB 5.449 0.67 P 
B046 5.574 0.84 P 
PETL 6.106 0.80 P 
RBOW 6.176 0.70 P 
KCO 6.689 0.86 P 
KNEE 8.426 0.69 P 
KPR 8.526 0.69 P 
1580 8.526 0.88 P 
KCR 8.886 0.66 P 
KBU 10.036 0.81 P 
BRIC 10.176 0.75 P 
89688 10.466 0.83 P 
PRDS 10.660 0.81 P 
KHMB 11.549 0.63 P 
B935 11.734 0.84 P 
1584B 6.346 0.84 S 
KCT 7.179 0.75 S 
1023 7.896 0.79 S 
1586 9.476 0.66 S 
KMPB 9.589 0.64 S 
89462 9.666 0.85 S 
B046 9.794 0.76 S 
RBOW 11.206 0.51 S 
1581 11.356 0.63 S 
KCO 11.869 0.84 S 
89781 12.516 0.65 S 
BJES 13.986 0.73 S 
KPR 15.066 0.61 S 
1580 15.116 0.80 S 
KNEE 15.146 0.58 S 
KCR 16.176 0.60 S 
PRDS 17.706 0.54 S 
KBU 17.786 0.59 S 
B049 18.004 0.83 S 
DMOR 18.026 0.61 S 
89688 18.186 0.81 S 
KHMB 19.029 0.69 S 
BRIC 20.566 0.57 S 
KMR 20.909 0.82 S 
B935 21.174 0.84 S 
B934 26.534 0.69 S 
HAYF 28.489 0.62 S 
# 2022 12 20 11 6 38.228 40.5938 -124.0760 15.480 1.042 0.181 0.181 0.579 77 
KMPB 3.925 0.74 P 
1586 4.302 0.87 P 
89781 5.012 0.88 P 
KNEE 5.096 0.57 P 
KCT 5.865 0.85 P 
1581 6.002 0.71 P 
DMOR 6.092 0.69 P 
RBOW 6.382 0.54 P 
KCR 6.522 0.64 P 
B046 7.060 0.83 P 
KCO 8.225 0.83 P 
B049 8.290 0.78 P 
KPR 8.382 0.71 P 
KBU 8.462 0.84 P 
B935 9.130 0.85 P 
PRDS 9.342 0.62 P 
KMR 10.485 0.81 P 
KHBB 13.095 0.86 P 
89462 7.622 0.85 S 
1586 8.182 0.80 S 
1581 9.112 0.71 S 
89781 9.182 0.82 S 
KNEE 9.396 0.78 S 
1584B 9.652 0.80 S 
RBOW 11.692 0.63 S 
KCR 11.802 0.69 S 
DMOR 11.852 0.56 S 
KCT 12.095 0.62 S 
KPR 14.942 0.68 S 
KBU 15.822 0.62 S 
B049 16.150 0.84 S 
B935 16.590 0.84 S 
PRDS 18.702 0.60 S 
KMR 18.925 0.67 S 
BRIC 20.062 0.52 S 
KHBB 24.095 0.73 S 
# 2022 12 20 11 6 59.905 40.5043 -124.3598 17.358 0.522 0.234 0.234 0.439 78 
KCT 3.868 0.58 P 
KMPB 5.488 0.81 P 
RBOW 6.235 0.55 P 
KPR 8.325 0.83 P 
PRDS 9.625 0.82 P 
KBU 9.705 0.69 P 
BRIC 10.585 0.78 P 
1591 12.365 0.81 P 
KCT 7.268 0.54 S 
B046 9.683 0.78 S 
KMPB 9.698 0.78 S 
1586 9.765 0.62 S 
PETL 10.505 0.54 S 
KCO 11.108 0.75 S 
KPR 14.895 0.80 S 
KCR 16.345 0.76 S 
PRDS 17.025 0.59 S 
89688 17.405 0.77 S 
KBU 17.965 0.72 S 
B049 18.163 0.63 S 
BRIC 20.625 0.57 S 
KMR 21.268 0.63 S 
1591 21.925 0.81 S 
# 2022 12 20 11 7 41.056 40.5348 -123.9356 19.563 1.383 0.169 0.169 0.438 79 
BJES 3.974 0.84 P 
KCR 4.904 0.66 P 
KNEE 5.328 0.61 P 
KMPB 5.347 0.80 P 
RBOW 6.104 0.64 P 
1581 6.874 0.74 P 
B935 6.922 0.83 P 
KBU 7.214 0.63 P 
B046 7.622 0.77 P 
KPR 7.624 0.61 P 
KHMB 8.467 0.84 P 
KMR 8.867 0.74 P 
BRIC 10.104 0.65 P 
HAYF 10.997 0.52 P 
KHBB 11.277 0.59 P 
WEAV 13.854 0.61 P 
TRIN 18.925 0.77 P 
KCR 9.064 0.66 S 
KMPB 9.797 0.53 S 
KNEE 9.964 0.54 S 
RBOW 10.914 0.53 S 
1581 12.274 0.71 S 
B935 12.572 0.82 S 
B049 12.882 0.72 S 
KBU 12.914 0.79 S 
1023 13.564 0.64 S 
KPR 13.624 0.80 S 
B046 13.822 0.80 S 
KCO 15.377 0.79 S 
PETL 15.444 0.55 S 
KHMB 15.677 0.58 S 
KMR 15.907 0.63 S 
PRDS 17.658 0.55 S 
BRIC 17.744 0.61 S 
89688 18.384 0.79 S 
HAYF 19.677 0.59 S 
KHBB 20.237 0.80 S 
B934 23.882 0.58 S 
WEAV 24.874 0.61 S 
# 2022 12 20 11 8 6.036 40.5435 -124.2325 18.454 1.369 0.190 0.190 0.524 80 
1584B 3.774 0.89 P 
89462 4.294 0.90 P 
1023 5.354 0.72 P 
B046 6.002 0.89 P 
PETL 6.694 0.86 P 
KCO 7.037 0.88 P 
KNEE 7.048 0.70 P 
KCR 7.614 0.68 P 
KPR 8.014 0.64 P 
DMOR 8.044 0.57 P 
KBU 9.114 0.67 P 
B049 9.352 0.83 P 
PRDS 9.454 0.59 P 
KHMB 10.487 0.51 P 
KMR 10.967 0.81 P 
BRIC 11.444 0.62 P 
1584B 6.934 0.85 S 
1023 7.684 0.82 S 
89462 8.054 0.85 S 
1586 8.214 0.84 S 
1581 10.224 0.72 S 
B046 10.552 0.84 S 
89781 11.054 0.81 S 
PETL 11.734 0.74 S 
KCO 12.417 0.82 S 
KNEE 12.854 0.62 S 
KCR 13.764 0.65 S 
KPR 14.114 0.65 S 
B049 16.902 0.85 S 
KBU 16.924 0.65 S 
PRDS 17.294 0.59 S 
B935 18.982 0.78 S 
KMR 19.817 0.77 S 
BRIC 20.534 0.68 S 
