# 2022 12 20 11 28 3.570 40.4799 -124.4227 13.603 1.543 0.161 0.161 0.827 135 
1584B.NP 2.740 0.72 P 
B046.PB 3.568 0.69 P 
KCT.NC 3.963 0.62 P 
1023.NP 4.920 0.91 P 
1586.NP 5.560 0.54 P 
89255.CE 5.980 0.97 P 
KMPB.NC 6.033 0.61 P 
89462.CE 6.550 0.97 P 
RBOW.BK 6.930 0.55 P 
KPR.NC 9.020 0.56 P 
PRDS.BK 10.120 0.83 P 
KBU.NC 10.900 0.52 P 
B049.PB 10.978 0.78 P 
KCR.NC 12.280 0.33 P 
BRIC.BK 12.380 0.51 P 
B935.PB 12.778 0.79 P 
KHBB.NC 16.603 0.89 P 
HAYF.BK 16.743 0.62 P 
KCT.NC 7.383 0.57 S 
B046.PB 8.148 0.89 S 
PETL.BK 9.040 0.59 S 
KCO.NC 10.083 0.88 S 
1586.NP 10.760 0.62 S 
89255.CE 11.100 0.84 S 
KMPB.NC 11.103 0.60 S 
89462.CE 11.520 0.92 S 
RBOW.BK 12.400 0.60 S 
1582.NP 13.660 0.35 S 
BJES.BK 15.020 0.65 S 
89781.CE 15.990 0.56 S 
KPR.NC 16.240 0.60 S 
KNEE.BK 16.654 0.41 S 
89688.CE 18.680 0.68 S 
KBU.NC 19.600 0.54 S 
B049.PB 19.608 0.83 S 
BRIC.BK 21.640 0.61 S 
KMR.NC 22.803 0.47 S 
# 2022 12 20 11 28 42.399 40.5257 -124.3544 18.483 1.579 0.156 0.156 0.665 136 
KCT.NC 3.844 0.63 P 
1586.NP 5.191 1.01 P 
B046.PB 5.589 1.02 P 
1582.NP 5.611 1.01 P 
KCO.NC 5.734 0.96 P 
PETL.BK 6.051 0.85 P 
RBOW.BK 6.131 0.71 P 
KNEE.BK 7.891 0.51 P 
KPR.NC 8.691 0.79 P 
KCR.NC 9.411 0.89 P 
PRDS.BK 10.251 0.91 P 
KBU.NC 10.411 0.55 P 
89688.CE 10.471 0.80 P 
B049.PB 10.599 0.89 P 
BRIC.BK 12.091 0.35 P 
B935.PB 12.099 0.96 P 
KMR.NC 12.254 0.95 P 
HAYF.BK 15.742 0.79 P 
KHBB.NC 16.094 0.47 P 
WEAV.BK 18.331 0.56 P 
1584B.NP 6.541 0.91 S 
KCT.NC 7.144 0.61 S 
1023.NP 7.971 0.88 S 
1586.NP 9.731 0.92 S 
89462.CE 9.851 0.94 S 
B046.PB 10.019 0.89 S 
89255.CE 10.411 0.59 S 
1582.NP 10.511 0.95 S 
PETL.BK 10.661 0.38 S 
1581.NP 10.991 0.87 S 
KCO.NC 12.134 0.89 S 
BJES.BK 15.091 0.91 S 
KNEE.BK 15.111 0.75 S 
KPR.NC 15.521 0.74 S 
KCR.NC 16.251 0.49 S 
PRDS.BK 17.931 0.38 S 
B049.PB 18.009 0.68 S 
KBU.NC 18.131 0.53 S 
89688.CE 18.371 0.68 S 
B935.PB 19.739 0.87 S 
KMR.NC 21.124 0.81 S 
BRIC.BK 21.241 0.54 S 
HAYF.BK 24.582 0.40 S 
B934.PB 26.809 0.40 S 
# 2022 12 20 11 29 5.746 40.5585 -124.2131 17.610 1.580 0.141 0.141 0.461 137 
89255.CE 3.834 1.07 P 
1584B.NP 4.074 1.08 P 
1586.NP 4.114 1.06 P 
1582.NP 4.334 1.06 P 
KCT.NC 4.637 1.07 P 
89462.CE 4.824 1.02 P 
89781.CE 5.674 1.05 P 
RBOW.BK 5.944 0.46 P 
PETL.BK 6.174 0.75 P 
B046.PB 6.372 1.03 P 
KNEE.BK 6.838 0.99 P 
KCO.NC 7.387 1.05 P 
KCR.NC 7.544 0.71 P 
DMOR.BK 7.624 0.71 P 
KPR.NC 8.204 0.74 P 
KBU.NC 9.224 0.50 P 
B049.PB 9.422 0.99 P 
PRDS.BK 9.928 0.56 P 
BRIC.BK 10.244 0.58 P 
B935.PB 10.272 0.95 P 
KMR.NC 10.747 0.98 P 
HAYF.BK 14.027 0.56 P 
KHBB.NC 14.187 0.99 P 
WEAV.BK 16.774 0.95 P 
89255.CE 7.294 0.97 S 
1584B.NP 7.474 0.98 S 
1023.NP 7.624 0.52 S 
1586.NP 7.754 0.93 S 
89462.CE 7.904 0.82 S 
KCT.NC 8.587 0.99 S 
1582.NP 8.664 0.96 S 
KMPB.NC 8.727 0.86 S 
1581.NP 9.694 0.71 S 
89781.CE 10.464 1.00 S 
RBOW.BK 10.634 0.41 S 
BJES.BK 11.084 0.59 S 
B046.PB 11.362 0.98 S 
PETL.BK 12.464 0.51 S 
KCO.NC 13.247 0.96 S 
KCR.NC 13.554 0.59 S 
KPR.NC 14.454 0.54 S 
DMOR.BK 15.204 0.98 S 
KBU.NC 16.394 0.90 S 
B049.PB 16.552 0.95 S 
PRDS.BK 17.814 0.45 S 
KHMB.NC 18.287 0.34 S 
89688.CE 18.464 0.97 S 
B935.PB 18.832 1.01 S 
KMR.NC 19.817 0.58 S 
BRIC.BK 20.224 0.49 S 
1591.NP 21.304 0.82 S 
HAYF.BK 25.585 0.61 S 
KHBB.NC 25.907 0.82 S 
# 2022 12 20 11 29 38.924 40.5312 -123.8905 22.121 1.811 0.149 0.149 0.467 138 
BJES.BK 4.326 0.40 P 
KCR.NC 4.856 0.39 P 
KNEE.BK 5.610 0.44 P 
89462.CE 5.646 1.00 P 
89255.CE 6.186 0.91 P 
1586.NP 6.206 0.64 P 
B935.PB 6.444 0.86 P 
RBOW.BK 6.606 0.49 P 
B049.PB 7.084 0.69 P 
1582.NP 7.106 0.91 P 
KBU.NC 7.176 0.67 P 
89781.CE 7.356 0.91 P 
KCSB.NC 7.359 0.86 P 
1581.NP 7.516 0.97 P 
KPR.NC 7.916 0.61 P 
KCT.NC 8.169 0.59 P 
B046.PB 8.174 0.90 P 
KMR.NC 8.269 0.59 P 
KHMB.NC 8.329 0.96 P 
KCO.NC 8.719 0.91 P 
PETL.BK 8.986 0.60 P 
PRDS.BK 9.546 0.56 P 
HAYF.BK 10.469 0.54 P 
KHBB.NC 10.819 0.64 P 
89688.CE 11.866 0.68 P 
B934.PB 12.854 0.47 P 
KFP.NC 16.966 0.33 P 
BJES.BK 8.006 0.56 S 
KCR.NC 8.706 0.67 S 
KNEE.BK 10.396 0.47 S 
89462.CE 10.476 0.86 S 
KMPB.NC 10.819 0.41 S 
89255.CE 11.496 0.90 S 
B935.PB 11.654 0.89 S 
B049.PB 12.564 0.78 S 
KBU.NC 12.736 0.42 S 
1582.NP 12.856 0.83 S 
1586.NP 13.326 0.70 S 
89781.CE 13.326 0.80 S 
KCSB.NC 13.329 0.90 S 
KCT.NC 13.739 0.47 S 
1581.NP 13.926 0.86 S 
KPR.NC 14.046 0.55 S 
1023.NP 14.226 0.74 S 
B046.PB 14.534 0.86 S 
KMR.NC 14.769 0.49 S 
KHMB.NC 15.269 0.82 S 
KCO.NC 15.659 0.88 S 
1591.NP 17.286 0.75 S 
BRIC.BK 18.046 0.49 S 
KHBB.NC 19.289 0.50 S 
B934.PB 23.344 0.64 S 
RVIT.BK 26.106 0.67 S 
# 2022 12 20 11 30 3.067 40.7461 -123.8247 18.507 1.909 0.187 0.187 0.582 139 
DMOR.BK 3.253 0.59 P 
KNEE.BK 4.117 0.39 P 
KHMB.NC 5.366 0.56 P 
BJES.BK 5.773 0.92 P 
89781.CE 5.983 1.00 P 
1581.NP 6.803 0.98 P 
B935.PB 7.621 0.99 P 
KCSB.NC 7.666 1.00 P 
KHBB.NC 9.896 0.53 P 
HAYF.BK 10.666 0.59 P 
WEAV.BK 12.443 0.57 P 
TRIN.BK 16.706 0.95 P 
DMOR.BK 7.283 0.36 S 
KNEE.BK 8.083 0.62 S 
KHMB.NC 9.666 0.65 S 
89781.CE 10.933 0.91 S 
1581.NP 12.663 0.82 S 
B935.PB 13.751 0.91 S 
KCSB.NC 13.826 0.93 S 
KHBB.NC 17.386 0.58 S 
HAYF.BK 18.516 0.39 S 
KOM.NC 21.066 0.37 S 
WEAV.BK 21.783 0.62 S 
TRIN.BK 28.554 0.54 S 
LBK.NC 30.423 0.58 S 
PETY.BK 32.126 0.35 S 
LSF.NC 34.283 0.50 S 
# 2022 12 20 11 30 28.520 40.5065 -124.4396 15.242 2.941 0.117 0.117 0.557 140 
1584B.NP 4.250 0.90 P 
KCT.NC 4.323 0.43 P 
1023.NP 5.050 0.91 P 
B046.PB 6.088 0.88 P 
1586.NP 6.150 0.89 P 
89255.CE 6.510 0.92 P 
KMPB.NC 6.653 0.51 P 
89462.CE 6.780 0.89 P 
1582.NP 6.870 0.90 P 
KCO.NC 7.323 0.88 P 
RBOW.BK 7.330 0.48 P 
89781.CE 8.060 0.97 P 
KPR.NC 9.300 0.63 P 
BJES.BK 9.360 0.78 P 
KNEE.BK 9.930 0.48 P 
KCR.NC 10.340 0.53 P 
PRDS.BK 10.580 0.54 P 
89688.CE 10.830 0.64 P 
KBU.NC 11.270 0.42 P 
B049.PB 11.398 0.80 P 
KTD.NC 11.920 0.95 P 
BRIC.BK 12.780 0.42 P 
KHMB.NC 12.913 0.34 P 
KMR.NC 12.973 0.52 P 
B935.PB 13.078 0.82 P 
1591.NP 13.340 0.87 P 
KRP.NC 13.753 0.92 P 
KCSB.NC 13.993 0.84 P 
B934.PB 16.198 0.90 P 
79046.CE 16.310 0.90 P 
KHBB.NC 16.993 0.38 P 
KIP.NC 18.590 0.40 P 
KOM.NC 18.843 0.40 P 
KFP.NC 20.110 0.50 P 
KBN.NC 20.610 0.38 P 
PETY.BK 22.371 0.42 P 
KRK.NC 22.860 0.85 P 
GNR.NC 23.680 0.46 P 
LBK.NC 24.650 1.00 P 
GVA.NC 25.000 0.90 P 
GROB.NC 25.280 0.72 P 
LSF.NC 25.430 0.72 P 
GWR.NC 25.490 0.93 P 
LRB.NC 25.950 0.77 P 
GHO.NC 25.980 0.36 P 
GCWB.NC 27.790 0.93 P 
GHGB.NC 30.413 0.87 P 
GSR.NC 30.670 0.73 P 
1584B.NP 7.330 0.87 S 
KCT.NC 7.663 0.70 S 
1023.NP 9.250 0.87 S 
B046.PB 10.338 0.86 S 
PETL.BK 10.980 0.53 S 
1586.NP 11.000 0.91 S 
KMPB.NC 11.383 0.46 S 
89255.CE 11.610 0.84 S 
89462.CE 11.770 0.82 S 
1582.NP 12.500 0.90 S 
KCO.NC 12.523 0.87 S 
89781.CE 14.090 0.91 S 
KPR.NC 16.590 0.45 S 
KNEE.BK 17.424 0.45 S 
KCR.NC 18.090 0.62 S 
89688.CE 18.810 0.80 S 
KBU.NC 19.810 0.86 S 
B049.PB 20.018 0.78 S 
DMOR.BK 20.210 0.82 S 
KTD.NC 20.650 0.88 S 
BRIC.BK 22.150 0.43 S 
KHMB.NC 22.563 0.83 S 
KMR.NC 22.953 0.50 S 
1591.NP 23.530 0.86 S 
B935.PB 23.538 0.89 S 
KCSB.NC 25.253 0.89 S 
B934.PB 27.828 0.89 S 
79046.CE 28.130 0.87 S 
HAYF.BK 30.731 0.50 S 
KHBB.NC 31.673 0.74 S 
KIP.NC 31.930 0.88 S 
KOM.NC 32.133 0.89 S 
KFP.NC 35.210 0.55 S 
MNDO.BK 37.880 0.75 S 
KBN.NC 38.290 0.44 S 
DCMP.BK 38.673 0.42 S 
GNR.NC 41.290 0.47 S 
PETY.BK 41.963 0.44 S 
GBL.NC 42.070 0.33 S 
LBK.NC 42.690 0.87 S 
SCOT.BK 43.133 0.59 S 
GVA.NC 43.710 0.58 S 
GHO.NC 45.850 0.43 S 
# 2022 12 20 11 30 50.672 40.5864 -124.1430 17.526 1.982 0.216 0.216 0.453 141 
89255.CE 3.648 0.82 P 
1586.NP 4.118 0.99 P 
1582.NP 4.278 0.99 P 
1023.NP 4.458 0.98 P 
1584B.NP 4.938 1.01 P 
89781.CE 5.048 1.00 P 
KMPB.NC 5.191 0.55 P 
RBOW.BK 6.328 0.86 P 
B046.PB 6.966 1.01 P 
PETL.BK 7.778 0.66 P 
KCO.NC 7.981 0.94 P 
KBU.NC 9.028 0.75 P 
B049.PB 9.126 0.63 P 
89255.CE 7.098 0.92 S 
1586.NP 7.648 0.99 S 
1582.NP 8.108 0.98 S 
KCT.NC 8.521 0.97 S 
1023.NP 8.658 0.63 S 
1584B.NP 8.918 0.89 S 
1581.NP 8.958 0.93 S 
89781.CE 9.268 0.93 S 
KMPB.NC 9.301 0.53 S 
BJES.BK 9.688 0.41 S 
B046.PB 12.626 0.89 S 
PETL.BK 13.888 0.46 S 
B049.PB 16.226 0.66 S 
BRIC.BK 20.318 0.46 S 
# 2022 12 20 11 31 21.969 40.5652 -124.2040 17.561 2.085 0.129 0.129 0.512 142 
89462.CE 3.401 0.87 P 
KCT.NC 3.904 0.52 P 
1023.NP 3.981 1.03 P 
1586.NP 4.071 1.03 P 
1584B.NP 4.181 1.01 P 
1582.NP 4.481 1.03 P 
89255.CE 4.561 1.03 P 
KMPB.NC 4.824 0.56 P 
1581.NP 4.991 1.01 P 
89781.CE 5.561 1.02 P 
BJES.BK 6.001 0.80 P 
RBOW.BK 6.021 0.52 P 
B046.PB 6.479 1.05 P 
KNEE.BK 7.081 0.56 P 
PETL.BK 7.151 0.46 P 
KCR.NC 7.421 0.63 P 
KCO.NC 7.464 1.03 P 
KPR.NC 8.271 0.72 P 
KBU.NC 9.211 0.43 P 
B049.PB 9.359 0.94 P 
KHMB.NC 9.874 0.96 P 
PRDS.BK 9.995 0.48 P 
B935.PB 10.119 0.94 P 
89688.CE 10.501 0.97 P 
KMR.NC 10.904 0.41 P 
KCSB.NC 11.054 0.99 P 
KRP.NC 11.604 0.87 P 
1591.NP 11.641 0.99 P 
BRIC.BK 11.721 0.34 P 
HAYF.BK 13.884 0.42 P 
B934.PB 13.969 0.50 P 
KHBB.NC 14.044 0.57 P 
WEAV.BK 16.661 0.34 P 
LBK.NC 21.801 1.02 P 
SCOT.BK 22.332 0.37 P 
89255.CE 7.151 0.98 S 
1584B.NP 7.521 0.99 S 
1586.NP 7.681 0.99 S 
1023.NP 7.761 0.87 S 
89462.CE 7.821 0.97 S 
1582.NP 8.521 0.93 S 
KMPB.NC 8.644 0.61 S 
KCT.NC 8.644 0.62 S 
1581.NP 9.391 0.95 S 
89781.CE 10.201 0.93 S 
RBOW.BK 10.651 0.42 S 
BJES.BK 10.801 0.74 S 
B046.PB 11.479 0.93 S 
KNEE.BK 12.001 0.37 S 
PETL.BK 12.681 0.52 S 
KCR.NC 13.381 0.55 S 
KCO.NC 13.504 0.91 S 
KPR.NC 15.071 0.37 S 
KBU.NC 16.331 0.87 S 
B049.PB 16.529 0.83 S 
PRDS.BK 17.875 0.44 S 
KHMB.NC 18.204 0.78 S 
89688.CE 18.491 0.97 S 
B935.PB 18.629 0.93 S 
KMR.NC 19.884 0.60 S 
BRIC.BK 20.231 0.45 S 
1591.NP 21.301 0.69 S 
HAYF.BK 23.242 0.57 S 
KHBB.NC 23.444 0.58 S 
B934.PB 27.459 0.44 S 
79046.CE 27.751 0.54 S 
WEAV.BK 30.181 0.52 S 
RVIT.BK 31.721 0.49 S 
TRIN.BK 37.674 0.55 S 
GUMB.BK 43.161 0.40 S 
# 2022 12 20 11 31 56.552 40.5634 -124.2208 20.002 2.245 0.150 0.150 0.360 143 
89255.CE 4.258 0.91 P 
1586.NP 4.358 0.96 P 
89462.CE 4.678 0.95 P 
1582.NP 4.728 0.97 P 
KCT.NC 4.821 0.45 P 
1581.NP 5.128 0.95 P 
KMPB.NC 5.371 0.53 P 
89781.CE 5.618 0.97 P 
RBOW.BK 6.188 0.49 P 
B046.PB 6.406 0.96 P 
BJES.BK 6.738 0.57 P 
KNEE.BK 6.938 0.50 P 
PETL.BK 7.078 0.50 P 
KCO.NC 7.361 0.95 P 
KCR.NC 7.648 0.60 P 
KPR.NC 8.248 0.61 P 
KBU.NC 9.258 0.49 P 
B049.PB 9.356 0.87 P 
PRDS.BK 9.888 0.50 P 
KHMB.NC 9.981 0.61 P 
B935.PB 10.246 0.93 P 
89688.CE 10.338 0.82 P 
KMR.NC 10.941 0.57 P 
KCSB.NC 11.161 0.89 P 
BRIC.BK 11.318 0.34 P 
KRP.NC 11.361 0.86 P 
1591.NP 12.208 0.94 P 
HAYF.BK 13.821 0.45 P 
KHBB.NC 13.971 0.62 P 
WEAV.BK 16.448 0.41 P 
LBK.NC 21.568 0.95 P 
SCOT.BK 22.141 0.41 P 
1584B.NP 7.788 0.80 S 
89255.CE 8.088 0.96 S 
1023.NP 8.258 0.87 S 
1586.NP 8.258 0.93 S 
89462.CE 8.708 0.94 S 
KCT.NC 8.861 0.63 S 
1582.NP 9.008 0.92 S 
KMPB.NC 9.341 0.58 S 
1581.NP 9.658 0.91 S 
89781.CE 10.448 0.91 S 
RBOW.BK 11.018 0.37 S 
B046.PB 11.346 0.90 S 
KNEE.BK 12.412 0.43 S 
PETL.BK 12.458 0.38 S 
KCO.NC 13.101 0.89 S 
KCR.NC 13.738 0.52 S 
KPR.NC 14.648 0.47 S 
DMOR.BK 14.898 0.86 S 
KBU.NC 16.568 0.69 S 
B049.PB 16.726 0.84 S 
PRDS.BK 17.738 0.36 S 
KHMB.NC 18.101 0.57 S 
89688.CE 18.138 0.88 S 
B935.PB 18.506 0.91 S 
KMR.NC 19.371 0.49 S 
BRIC.BK 19.978 0.52 S 
KRP.NC 20.141 0.85 S 
KCSB.NC 20.181 0.89 S 
1591.NP 21.438 0.63 S 
HAYF.BK 24.389 0.53 S 
KHBB.NC 24.881 0.47 S 
B934.PB 25.766 0.62 S 
WEAV.BK 29.358 0.86 S 
# 2022 12 20 11 32 25.528 40.4684 -124.5444 16.587 1.783 0.193 0.193 0.505 144 
KCT.NC 5.495 0.67 P 
PETL.BK 6.342 0.56 P 
B046.PB 6.370 0.89 P 
KCO.NC 7.105 0.88 P 
1586.NP 7.632 0.88 P 
KMPB.NC 7.865 0.79 P 
1582.NP 8.192 0.89 P 
RBOW.BK 8.272 0.64 P 
1581.NP 8.462 0.95 P 
KPR.NC 9.602 0.66 P 
PRDS.BK 10.652 0.61 P 
BJES.BK 10.672 0.94 P 
89688.CE 10.692 0.91 P 
KCR.NC 11.502 0.69 P 
KBU.NC 12.112 0.91 P 
B049.PB 12.190 0.90 P 
BRIC.BK 13.062 0.62 P 
B935.PB 14.090 0.88 P 
KMR.NC 14.155 0.93 P 
B934.PB 16.330 0.87 P 
KHBB.NC 18.255 0.71 P 
WEAV.BK 20.772 0.50 P 
KCT.NC 9.965 0.40 S 
1584B.NP 10.222 0.90 S 
PETL.BK 11.082 0.35 S 
B046.PB 11.130 0.92 S 
1023.NP 12.342 0.63 S 
KCO.NC 12.665 0.92 S 
KMPB.NC 13.645 0.49 S 
1586.NP 13.872 0.96 S 
89255.CE 14.932 0.79 S 
1582.NP 15.082 0.89 S 
1581.NP 15.162 0.93 S 
KPR.NC 17.002 0.68 S 
89688.CE 18.572 0.94 S 
PRDS.BK 18.626 0.41 S 
KCR.NC 20.202 0.57 S 
KBU.NC 21.352 0.58 S 
B049.PB 21.560 0.88 S 
BRIC.BK 22.682 0.49 S 
KMR.NC 23.935 0.89 S 
B935.PB 25.280 0.93 S 
B934.PB 30.400 0.66 S 
KHBB.NC 30.845 0.78 S 
# 2022 12 20 11 32 56.158 40.6313 -124.0172 18.641 1.779 0.182 0.182 0.564 145 
KNEE.BK 3.866 0.82 P 
1582.NP 4.682 0.76 P 
1586.NP 4.992 0.65 P 
89781.CE 5.022 0.94 P 
1581.NP 5.132 0.85 P 
89255.CE 5.372 0.86 P 
KMPB.NC 5.875 0.59 P 
KCR.NC 6.352 0.61 P 
RBOW.BK 7.042 0.40 P 
KHMB.NC 7.755 0.45 P 
B935.PB 8.340 0.85 P 
KPR.NC 8.882 0.78 P 
KBU.NC 9.032 0.51 P 
B049.PB 9.070 0.81 P 
KMR.NC 10.495 0.84 P 
KRP.NC 10.675 0.65 P 
PRDS.BK 10.732 0.52 P 
BRIC.BK 11.732 0.51 P 
WEAV.BK 13.092 0.67 P 
LSF.NC 20.402 0.48 P 
89255.CE 8.342 0.75 S 
1582.NP 8.822 0.83 S 
89781.CE 9.062 0.87 S 
1586.NP 9.402 0.78 S 
1581.NP 9.582 0.82 S 
KMPB.NC 10.675 0.38 S 
1023.NP 11.012 0.62 S 
KCR.NC 11.332 0.47 S 
1584B.NP 11.492 0.48 S 
RBOW.BK 12.452 0.41 S 
KHMB.NC 13.935 0.58 S 
B935.PB 15.020 0.83 S 
KTD.NC 15.752 0.77 S 
B049.PB 15.990 0.82 S 
KBU.NC 16.092 0.55 S 
KPR.NC 16.172 0.49 S 
KMR.NC 18.495 0.50 S 
89688.CE 19.072 0.39 S 
KRP.NC 19.155 0.44 S 
1591.NP 20.902 0.71 S 
BRIC.BK 21.162 0.38 S 
KHBB.NC 21.925 0.55 S 
WEAV.BK 26.052 0.45 S 
B934.PB 27.340 0.63 S 
RVIT.BK 29.467 0.46 S 
# 2022 12 20 11 33 7.395 40.5160 -124.4165 16.456 1.617 0.164 0.164 0.478 146 
KCT.NC 4.198 0.94 P 
PETL.BK 4.815 0.45 P 
1586.NP 5.745 0.80 P 
B046.PB 5.893 0.95 P 
KMPB.NC 6.318 0.67 P 
1582.NP 6.405 0.83 P 
1581.NP 6.725 0.77 P 
RBOW.BK 7.035 0.53 P 
KCO.NC 7.098 0.98 P 
KPR.NC 9.015 0.60 P 
KCR.NC 9.895 0.64 P 
PRDS.BK 10.435 0.90 P 
KBU.NC 10.855 0.62 P 
B049.PB 11.023 0.88 P 
B935.PB 13.263 0.71 P 
1584B.NP 7.105 0.86 S 
KCT.NC 7.548 0.42 S 
1023.NP 8.875 0.85 S 
B046.PB 10.213 0.84 S 
1586.NP 10.435 0.90 S 
PETL.BK 10.885 0.40 S 
KMPB.NC 11.028 0.58 S 
89255.CE 11.095 0.68 S 
1582.NP 11.885 0.89 S 
KCO.NC 12.208 0.94 S 
1581.NP 12.255 0.79 S 
RBOW.BK 12.365 0.44 S 
KNEE.BK 15.529 0.44 S 
KPR.NC 16.045 0.58 S 
KCR.NC 17.455 0.66 S 
PRDS.BK 18.245 0.36 S 
89688.CE 18.735 0.81 S 
B049.PB 19.403 0.74 S 
KBU.NC 19.695 0.57 S 
BRIC.BK 21.765 0.40 S 
B935.PB 22.583 0.57 S 
1591.NP 23.375 0.81 S 
B934.PB 27.383 0.37 S 
# 2022 12 20 11 33 19.772 40.5189 -124.3990 17.494 1.385 0.201 0.201 0.362 147 
1586.NP 5.468 0.85 P 
B046.PB 5.726 0.90 P 
KMPB.NC 6.051 0.56 P 
1582.NP 6.218 0.88 P 
KCO.NC 6.801 0.88 P 
KPR.NC 8.878 0.57 P 
KCR.NC 9.708 0.52 P 
KBU.NC 10.598 0.55 P 
B049.PB 10.726 0.77 P 
KCT.NC 7.331 0.46 S 
1023.NP 8.518 0.76 S 
B046.PB 10.056 0.85 S 
1586.NP 10.128 0.78 S 
PETL.BK 10.678 0.33 S 
KMPB.NC 10.691 0.60 S 
1582.NP 11.428 0.75 S 
1581.NP 11.958 0.57 S 
KCO.NC 12.131 0.77 S 
KPR.NC 15.668 0.59 S 
KNEE.BK 16.558 0.37 S 
KCR.NC 17.458 0.53 S 
PRDS.BK 17.992 0.49 S 
KBU.NC 19.028 0.60 S 
DMOR.BK 19.078 0.36 S 
B049.PB 19.286 0.58 S 
BRIC.BK 21.468 0.47 S 
B935.PB 21.946 0.56 S 
# 2022 12 20 11 33 44.387 40.5959 -124.1112 16.514 1.407 0.182 0.182 0.692 148 
1586.NP 4.403 0.92 P 
1582.NP 4.503 0.78 P 
KCT.NC 5.186 0.56 P 
89781.CE 5.373 0.93 P 
1584B.NP 5.683 0.92 P 
BJES.BK 5.903 0.45 P 
DMOR.BK 6.293 0.34 P 
KCR.NC 7.403 0.63 P 
B046.PB 7.491 0.95 P 
KCO.NC 8.546 0.96 P 
KPR.NC 8.863 0.97 P 
KBU.NC 9.063 0.65 P 
B049.PB 9.171 0.97 P 
B935.PB 9.321 0.93 P 
89688.CE 10.563 0.74 P 
KMR.NC 10.726 0.95 P 
PRDS.BK 10.803 0.58 P 
BRIC.BK 11.863 0.84 P 
HAYF.BK 13.074 0.62 P 
KHBB.NC 13.776 0.93 P 
89255.CE 6.733 0.82 S 
1584B.NP 8.013 0.42 S 
1582.NP 8.273 0.88 S 
BJES.BK 8.943 0.56 S 
89781.CE 9.343 0.75 S 
KCR.NC 11.163 0.41 S 
B046.PB 11.591 0.56 S 
RBOW.BK 13.093 0.53 S 
KCO.NC 14.006 0.76 S 
KPR.NC 15.183 0.84 S 
KBU.NC 15.703 0.79 S 
PRDS.BK 18.973 0.43 S 
BRIC.BK 20.383 0.56 S 
89688.CE 20.433 0.96 S 
HAYF.BK 22.484 0.46 S 
KHBB.NC 22.706 0.85 S 
# 2022 12 20 11 34 10.043 40.5192 -124.3356 16.159 1.779 0.132 0.132 0.426 149 
1584B.NP 3.227 0.97 P 
KCT.NC 3.850 0.64 P 
1023.NP 4.837 1.02 P 
1586.NP 4.837 0.81 P 
89255.CE 4.977 0.93 P 
KMPB.NC 5.360 0.70 P 
1582.NP 5.587 0.69 P 
B046.PB 5.655 1.00 P 
PETL.BK 6.207 0.49 P 
RBOW.BK 6.267 0.62 P 
KCO.NC 6.840 1.00 P 
89781.CE 7.067 0.89 P 
KNEE.BK 8.321 0.65 P 
KPR.NC 8.387 0.63 P 
KCR.NC 8.867 0.64 P 
KBU.NC 10.037 0.45 P 
PRDS.BK 10.167 0.53 P 
B049.PB 10.195 0.93 P 
89688.CE 10.467 0.96 P 
KHMB.NC 11.570 0.62 P 
B935.PB 11.635 0.84 P 
KMR.NC 11.710 0.83 P 
BRIC.BK 11.857 0.44 P 
HAYF.BK 15.330 0.58 P 
KHBB.NC 15.570 0.92 P 
WEAV.BK 18.087 0.94 P 
KBN.NC 19.677 0.39 P 
1584B.NP 6.087 0.92 S 
KCT.NC 6.890 0.61 S 
1023.NP 7.717 0.96 S 
1586.NP 9.127 0.91 S 
89255.CE 9.297 0.95 S 
KMPB.NC 9.450 0.60 S 
89462.CE 9.527 0.95 S 
B046.PB 10.065 0.89 S 
1582.NP 10.417 0.83 S 
PETL.BK 10.857 0.51 S 
RBOW.BK 11.137 0.43 S 
KCO.NC 11.980 0.91 S 
BJES.BK 13.877 0.78 S 
KPR.NC 14.707 0.73 S 
KNEE.BK 15.127 0.40 S 
KCR.NC 15.917 0.59 S 
PRDS.BK 17.687 0.46 S 
89688.CE 17.947 0.89 S 
KBU.NC 18.167 0.70 S 
B049.PB 18.175 0.90 S 
BRIC.BK 20.707 0.46 S 
KMR.NC 20.780 0.66 S 
KHMB.NC 20.890 0.88 S 
B935.PB 21.155 0.83 S 
1591.NP 22.167 0.58 S 
B934.PB 26.575 0.66 S 
HAYF.BK 28.290 0.59 S 
KHBB.NC 29.010 0.93 S 
# 2022 12 20 11 34 24.494 40.5599 -124.2324 16.559 1.656 0.145 0.145 0.360 150 
1023.NP 3.616 0.76 P 
89255.CE 3.696 0.70 P 
1584B.NP 3.756 0.82 P 
1586.NP 3.976 0.75 P 
89462.CE 4.226 0.89 P 
1582.NP 4.556 0.98 P 
89781.CE 5.776 1.00 P 
RBOW.BK 6.076 0.84 P 
B046.PB 6.324 1.02 P 
PETL.BK 6.996 0.91 P 
KNEE.BK 7.196 0.76 P 
KCO.NC 7.419 1.01 P 
KCR.NC 7.846 0.65 P 
KPR.NC 8.396 0.63 P 
KBU.NC 9.436 0.66 P 
B049.PB 9.644 1.00 P 
KHMB.NC 10.429 0.42 P 
B935.PB 10.604 0.99 P 
89688.CE 10.756 0.98 P 
KMR.NC 10.779 0.96 P 
1584B.NP 6.846 0.90 S 
1023.NP 7.076 0.90 S 
89255.CE 7.086 0.85 S 
1586.NP 7.446 0.90 S 
89462.CE 7.836 0.98 S 
1582.NP 8.576 0.92 S 
1581.NP 8.606 0.90 S 
RBOW.BK 10.436 0.81 S 
89781.CE 10.496 0.90 S 
B046.PB 11.174 0.96 S 
BJES.BK 11.446 0.37 S 
PETL.BK 12.346 0.80 S 
KNEE.BK 12.836 0.36 S 
KCO.NC 13.129 0.90 S 
KCR.NC 13.996 0.62 S 
KPR.NC 14.736 0.62 S 
DMOR.BK 15.786 0.93 S 
KBU.NC 16.826 0.67 S 
B049.PB 17.044 0.91 S 
89688.CE 18.756 0.98 S 
KHMB.NC 18.999 0.71 S 
B935.PB 19.444 0.95 S 
BRIC.BK 20.256 0.35 S 
KMR.NC 20.309 0.90 S 
1591.NP 21.646 0.69 S 
# 2022 12 20 11 34 44.188 40.5446 -124.2209 23.074 1.623 0.224 0.224 0.759 151 
89255.CE 4.962 0.88 P 
KMPB.NC 5.085 0.61 P 
89462.CE 5.292 0.97 P 
B046.PB 5.380 0.66 P 
1581.NP 5.562 1.02 P 
89781.CE 6.112 1.01 P 
RBOW.BK 6.192 0.46 P 
PETL.BK 6.202 0.42 P 
1582.NP 6.292 0.36 P 
BJES.BK 6.672 0.42 P 
KNEE.BK 7.136 0.48 P 
KCO.NC 7.205 0.88 P 
KCR.NC 7.612 0.86 P 
KPR.NC 8.092 0.42 P 
KBU.NC 9.202 0.49 P 
1591.NP 9.292 0.43 P 
B049.PB 9.430 0.91 P 
B935.PB 9.930 0.97 P 
PRDS.BK 9.932 0.89 P 
KMR.NC 10.575 0.90 P 
1023.NP 6.092 0.40 S 
1586.NP 7.622 0.78 S 
89255.CE 7.682 0.93 S 
89462.CE 9.052 0.83 S 
KMPB.NC 9.415 0.57 S 
1581.NP 10.452 0.94 S 
RBOW.BK 10.872 0.45 S 
89781.CE 11.192 0.95 S 
BJES.BK 12.052 0.82 S 
PETL.BK 12.062 0.44 S 
KNEE.BK 13.016 0.45 S 
KCR.NC 13.942 0.62 S 
KPR.NC 14.462 0.88 S 
KBU.NC 16.562 0.60 S 
B935.PB 16.590 0.87 S 
KMR.NC 16.745 0.64 S 
HAYF.BK 23.713 0.39 S 
