# 2022 12 20 10 46 4.463 40.5096 -124.0120 21.630 1.616 0.252 0.252 0.388 40 
B045.PB 4.275 0.38 P 
KMPB.NC 4.750 0.71 P 
KCR.NC 5.427 0.70 P 
RBOW.BK 5.507 0.42 P 
B046.PB 6.625 0.80 P 
1023.NP 6.697 0.79 P 
B047.PB 6.895 0.87 P 
KPR.NC 7.197 0.50 P 
KCO.NC 7.390 0.72 P 
B935.PB 7.735 0.83 P 
89781.CE 8.067 0.72 P 
B045.PB 8.115 0.49 S 
89462.CE 8.347 0.63 S 
KMPB.NC 9.010 0.84 S 
KCR.NC 10.227 0.44 S 
RBOW.BK 10.547 0.40 S 
1023.NP 10.687 0.59 S 
B046.PB 12.195 0.69 S 
B047.PB 12.585 0.75 S 
KCO.NC 13.140 0.66 S 
KPR.NC 13.267 0.44 S 
B935.PB 14.275 0.73 S 
PRDS.BK 16.587 0.58 S 
# 2022 12 20 10 46 15.872 40.5359 -124.3038 16.275 1.797 0.140 0.140 0.413 41 
1584B.NP 3.418 0.94 P 
1023.NP 3.718 0.99 P 
KCT.NC 3.881 0.64 P 
89462.CE 4.968 0.96 P 
1586.NP 5.138 1.05 P 
B046.PB 5.746 1.03 P 
1581.NP 5.838 1.04 P 
B045.PB 6.096 0.78 P 
RBOW.BK 6.108 0.58 P 
89781.CE 6.438 0.98 P 
KCO.NC 6.861 0.98 P 
B047.PB 7.026 0.93 P 
BJES.BK 7.458 0.38 P 
1580.NP 7.878 0.89 P 
KNEE.BK 8.252 0.73 P 
KPR.NC 8.348 0.58 P 
KCR.NC 8.428 0.65 P 
KBU.NC 9.778 0.65 P 
PRDS.BK 9.892 0.62 P 
B049.PB 9.906 0.91 P 
KMR.NC 11.541 0.38 P 
BRIC.BK 11.698 0.44 P 
1584B.NP 6.228 0.94 S 
KCT.NC 7.201 0.67 S 
1023.NP 7.388 0.96 S 
1586.NP 8.498 0.99 S 
KMPB.NC 9.171 0.47 S 
89462.CE 9.178 0.98 S 
B046.PB 10.296 0.96 S 
1581.NP 10.418 0.96 S 
RBOW.BK 10.848 0.35 S 
B045.PB 10.956 0.80 S 
PETL.BK 11.058 0.40 S 
89781.CE 11.908 0.94 S 
KCO.NC 12.201 0.95 S 
B047.PB 12.466 0.83 S 
1580.NP 14.088 0.91 S 
KNEE.BK 14.578 0.48 S 
KPR.NC 14.898 0.60 S 
KCR.NC 15.658 0.50 S 
DMOR.BK 17.098 0.77 S 
KBU.NC 17.778 0.55 S 
B049.PB 17.826 0.93 S 
PRDS.BK 17.898 0.35 S 
B935.PB 20.286 0.67 S 
BRIC.BK 20.418 0.54 S 
KMR.NC 20.591 0.84 S 
1591.NP 22.158 0.75 S 
HAYF.BK 27.701 0.37 S 
# 2022 12 20 10 46 36.842 40.5122 -124.3410 16.517 1.656 0.172 0.172 0.454 42 
1584B.NP 3.608 0.92 P 
KCT.NC 3.951 0.54 P 
1586.NP 5.118 0.94 P 
KMPB.NC 5.211 0.50 P 
89462.CE 5.238 0.94 P 
KCO.NC 5.761 0.92 P 
RBOW.BK 6.198 0.37 P 
B045.PB 6.536 0.90 P 
1584B.NP 6.338 0.54 S 
KCT.NC 7.211 0.54 S 
1023.NP 7.928 0.86 S 
KMPB.NC 9.571 0.46 S 
1586.NP 9.638 0.75 S 
B046.PB 9.696 0.88 S 
89462.CE 9.928 0.88 S 
PETL.BK 10.608 0.47 S 
B045.PB 11.446 0.66 S 
1581.NP 11.448 0.63 S 
KCO.NC 11.741 0.88 S 
KPR.NC 14.808 0.81 S 
KCR.NC 16.228 0.83 S 
B049.PB 18.006 0.42 S 
KBU.NC 18.008 0.50 S 
89688.CE 18.218 0.72 S 
BRIC.BK 20.598 0.48 S 
B935.PB 21.096 0.76 S 
1591.NP 22.288 0.55 S 
# 2022 12 20 10 46 53.868 40.5175 -124.3195 17.024 2.044 0.169 0.169 0.926 43 
1023.NP 3.202 0.67 P 
KCT.NC 3.865 0.61 P 
KMPB.NC 5.225 0.45 P 
B046.PB 5.500 0.87 P 
RBOW.BK 6.242 0.37 P 
B045.PB 6.420 0.83 P 
PETL.BK 6.712 0.65 P 
B047.PB 6.950 0.84 P 
KPR.NC 8.362 0.82 P 
DMOR.BK 9.212 0.41 P 
KBU.NC 9.982 0.33 P 
B049.PB 10.160 0.85 P 
KHMB.NC 11.575 0.81 P 
KHBB.NC 15.425 0.61 P 
1584B.NP 6.102 0.78 S 
KCT.NC 7.145 0.56 S 
1586.NP 9.242 0.81 S 
KCO.NC 9.365 0.75 S 
B046.PB 9.760 0.79 S 
89462.CE 9.782 0.80 S 
PETL.BK 10.622 0.36 S 
1581.NP 11.212 0.78 S 
B045.PB 11.420 0.78 S 
89781.CE 12.302 0.86 S 
BJES.BK 14.062 0.57 S 
KPR.NC 14.932 0.72 S 
KCR.NC 14.982 0.54 S 
1580.NP 14.982 0.74 S 
B935.PB 17.610 0.42 S 
B049.PB 18.020 0.83 S 
DMOR.BK 18.022 0.85 S 
KMR.NC 21.175 0.41 S 
1591.NP 22.322 0.52 S 
KHBB.NC 29.285 0.60 S 
# 2022 12 20 10 47 14.033 40.5162 -124.3930 15.986 2.393 0.156 0.156 0.486 44 
1584B.NP 3.857 0.97 P 
KCT.NC 4.020 0.59 P 
1586.NP 5.497 1.00 P 
B046.PB 5.765 0.92 P 
PETL.BK 6.017 0.43 P 
KMPB.NC 6.080 0.55 P 
1581.NP 6.537 1.02 P 
RBOW.BK 6.747 0.45 P 
KCO.NC 6.900 0.91 P 
89781.CE 7.247 0.91 P 
BJES.BK 8.687 0.99 P 
KPR.NC 8.817 0.64 P 
KCR.NC 9.517 0.58 P 
PRDS.BK 10.247 0.36 P 
89688.CE 10.457 0.89 P 
KBU.NC 10.617 0.49 P 
B049.PB 10.785 0.81 P 
BRIC.BK 12.317 0.79 P 
B934.PB 17.445 0.43 P 
1584B.NP 6.857 0.79 S 
KCT.NC 7.380 0.57 S 
1023.NP 8.527 0.74 S 
B046.PB 10.105 0.62 S 
1586.NP 10.207 0.80 S 
PETL.BK 10.687 0.45 S 
KMPB.NC 10.750 0.54 S 
1581.NP 11.987 0.88 S 
RBOW.BK 12.097 0.42 S 
KCO.NC 12.140 0.86 S 
B047.PB 12.785 0.90 S 
89781.CE 13.227 0.85 S 
1580.NP 15.777 0.82 S 
KPR.NC 15.857 0.55 S 
KNEE.BK 16.647 0.80 S 
KCR.NC 17.417 0.60 S 
PRDS.BK 17.937 0.43 S 
89688.CE 18.097 0.65 S 
KBU.NC 19.087 0.57 S 
B049.PB 19.255 0.77 S 
BRIC.BK 21.467 0.58 S 
1591.NP 22.887 0.66 S 
79046.CE 27.577 0.63 S 
# 2022 12 20 10 47 33.941 40.5985 -124.0799 16.196 2.727 0.113 0.113 0.448 45 
89462.CE 4.199 0.99 P 
1586.NP 4.449 1.03 P 
BJES.BK 4.639 0.93 P 
KNEE.BK 4.869 0.52 P 
1581.NP 4.929 1.08 P 
B045.PB 5.017 0.88 P 
1023.NP 5.039 1.04 P 
89781.CE 5.049 1.09 P 
KMPB.NC 5.302 0.63 P 
1584B.NP 5.599 1.01 P 
KCT.NC 6.272 0.67 P 
KCR.NC 6.379 0.70 P 
RBOW.BK 6.539 0.52 P 
B046.PB 7.727 1.02 P 
B047.PB 8.207 1.00 P 
PETL.BK 8.409 0.79 P 
KCO.NC 8.552 1.01 P 
KPR.NC 8.569 0.69 P 
KHMB.NC 8.572 0.61 P 
B935.PB 8.927 1.00 P 
KBU.NC 8.999 0.64 P 
B049.PB 9.097 0.96 P 
KCSB.NC 9.812 1.04 P 
KMR.NC 10.532 0.60 P 
PRDS.BK 10.619 0.48 P 
KRP.NC 11.102 1.07 P 
89688.CE 11.229 0.88 P 
1591.NP 11.599 1.00 P 
BRIC.BK 11.769 0.36 P 
HAYF.BK 12.872 0.46 P 
KHBB.NC 12.882 0.54 P 
B934.PB 14.987 1.03 P 
KOM.NC 15.192 1.04 P 
WEAV.BK 15.309 0.48 P 
KIP.NC 16.939 0.59 P 
KBN.NC 18.149 1.03 P 
RVIT.BK 18.149 0.95 P 
KFP.NC 18.909 0.41 P 
TRIN.BK 19.192 1.01 P 
LBK.NC 20.629 1.00 P 
LSF.NC 22.049 0.61 P 
GROB.NC 23.279 0.85 P 
GVA.NC 23.309 0.36 P 
89462.CE 7.729 0.97 S 
BJES.BK 8.419 0.95 S 
1586.NP 8.509 0.98 S 
B045.PB 8.987 0.93 S 
KNEE.BK 9.103 0.49 S 
89781.CE 9.149 0.99 S 
1581.NP 9.269 0.86 S 
KMPB.NC 9.492 0.51 S 
1023.NP 9.639 0.67 S 
1584B.NP 10.069 0.96 S 
KCT.NC 11.212 0.48 S 
KCR.NC 11.509 0.42 S 
B046.PB 13.597 0.92 S 
B047.PB 14.457 0.91 S 
PETL.BK 15.019 0.34 S 
KPR.NC 15.109 0.48 S 
KCO.NC 15.262 0.96 S 
KHMB.NC 15.282 0.67 S 
B049.PB 16.077 0.86 S 
KBU.NC 16.129 0.52 S 
B935.PB 16.237 0.98 S 
KTD.NC 16.829 0.86 S 
KCSB.NC 17.512 0.94 S 
KMR.NC 18.712 0.48 S 
PRDS.BK 18.983 0.44 S 
89688.CE 19.749 0.98 S 
KRP.NC 19.872 0.92 S 
BRIC.BK 20.489 0.51 S 
1591.NP 20.699 0.89 S 
HAYF.BK 23.132 0.48 S 
KHBB.NC 23.442 0.63 S 
B934.PB 26.637 0.98 S 
KOM.NC 27.152 0.95 S 
79046.CE 27.649 0.64 S 
WEAV.BK 28.959 0.40 S 
RVIT.BK 29.689 1.01 S 
KIP.NC 30.189 0.85 S 
KBN.NC 33.429 0.92 S 
KFP.NC 33.569 0.85 S 
SCOT.BK 37.972 0.79 S 
GNR.NC 40.669 0.40 S 
# 2022 12 20 10 48 1.078 40.6381 -124.0094 18.096 2.246 0.131 0.131 0.467 46 
KNEE.BK 4.652 0.48 P 
DMOR.BK 4.922 0.59 P 
89781.CE 5.082 1.06 P 
1586.NP 5.182 0.39 P 
1581.NP 5.252 1.05 P 
B045.PB 5.590 1.02 P 
1580.NP 5.992 0.95 P 
KMPB.NC 6.215 0.90 P 
KCR.NC 6.442 0.70 P 
RBOW.BK 7.302 0.50 P 
KHMB.NC 7.635 0.54 P 
B935.PB 8.420 1.05 P 
B047.PB 8.780 1.01 P 
KTD.NC 8.912 0.99 P 
KPR.NC 9.052 0.51 P 
KBU.NC 9.162 0.50 P 
B049.PB 9.220 1.00 P 
KCSB.NC 9.245 1.01 P 
KRP.NC 10.475 0.95 P 
KMR.NC 10.565 0.94 P 
PRDS.BK 10.692 0.41 P 
BRIC.BK 11.532 0.54 P 
1591.NP 11.772 0.92 P 
KHBB.NC 12.125 0.51 P 
HAYF.BK 12.135 0.48 P 
WEAV.BK 14.482 0.61 P 
LSF.NC 20.362 0.63 P 
KNEE.BK 8.042 0.62 S 
89781.CE 9.122 0.94 S 
89462.CE 9.262 0.80 S 
1581.NP 9.782 0.95 S 
1586.NP 9.892 0.83 S 
B045.PB 9.910 0.86 S 
DMOR.BK 10.202 0.87 S 
KMPB.NC 11.035 0.38 S 
1584B.NP 11.362 0.67 S 
1023.NP 11.452 0.91 S 
KCR.NC 11.722 0.52 S 
KCT.NC 12.125 0.45 S 
RBOW.BK 12.902 0.55 S 
KHMB.NC 13.645 0.65 S 
B046.PB 14.540 0.88 S 
B935.PB 14.950 0.96 S 
B047.PB 15.780 0.95 S 
KTD.NC 15.852 0.90 S 
B049.PB 16.220 0.83 S 
PETL.BK 16.312 0.54 S 
KCO.NC 16.335 0.95 S 
KBU.NC 16.362 0.85 S 
KCSB.NC 16.395 0.88 S 
KPR.NC 16.432 0.90 S 
KMR.NC 18.745 0.50 S 
KRP.NC 19.005 0.76 S 
PRDS.BK 20.212 0.43 S 
89688.CE 21.052 0.55 S 
1591.NP 21.082 0.87 S 
HAYF.BK 21.165 0.43 S 
BRIC.BK 21.282 0.43 S 
KHBB.NC 21.455 0.65 S 
KOM.NC 25.055 0.62 S 
WEAV.BK 25.912 0.60 S 
B934.PB 27.020 0.76 S 
# 2022 12 20 10 48 24.291 40.5129 -124.3612 17.852 2.349 0.206 0.206 0.355 47 
1584B.NP 3.939 0.45 P 
1023.NP 4.419 0.71 P 
KCT.NC 4.422 0.53 P 
1586.NP 5.089 0.59 P 
B046.PB 5.397 0.54 P 
KMPB.NC 5.722 0.48 P 
PETL.BK 5.829 0.49 P 
KCO.NC 6.582 0.56 P 
KPR.NC 8.589 0.42 P 
89688.CE 10.299 0.42 P 
1584B.NP 6.439 0.55 S 
KCT.NC 7.882 0.43 S 
1023.NP 8.249 0.73 S 
1586.NP 9.679 0.74 S 
B046.PB 9.697 0.69 S 
KMPB.NC 9.912 0.35 S 
PETL.BK 10.479 0.49 S 
KCO.NC 11.952 0.71 S 
89781.CE 12.719 0.44 S 
KPR.NC 15.339 0.41 S 
PRDS.BK 17.699 0.38 S 
89688.CE 18.119 0.62 S 
KBU.NC 18.379 0.37 S 
B049.PB 18.387 0.35 S 
# 2022 12 20 10 48 38.137 40.5943 -123.9100 26.054 2.955 0.155 0.155 0.404 48 
DMOR.BK 4.713 0.46 P 
KNEE.BK 5.137 0.52 P 
B045.PB 5.571 0.98 P 
KCR.NC 5.703 0.64 P 
BJES.BK 5.773 0.90 P 
89462.CE 5.853 0.95 P 
KMPB.NC 6.476 0.61 P 
89781.CE 6.503 1.01 P 
1586.NP 6.723 0.99 P 
1581.NP 6.823 1.00 P 
B935.PB 7.061 0.86 P 
1580.NP 7.173 1.00 P 
RBOW.BK 7.233 0.45 P 
1584B.NP 7.393 0.89 P 
KHMB.NC 7.636 0.59 P 
KCSB.NC 7.686 0.93 P 
B049.PB 8.101 0.94 P 
KBU.NC 8.153 0.56 P 
B046.PB 8.531 0.97 P 
B047.PB 8.621 0.98 P 
KPR.NC 8.653 0.62 P 
KMR.NC 9.056 0.58 P 
KCO.NC 9.106 0.96 P 
PETL.BK 9.233 0.88 P 
PRDS.BK 10.153 0.43 P 
HAYF.BK 10.456 0.43 P 
KHBB.NC 10.616 0.63 P 
BRIC.BK 10.943 0.46 P 
B934.PB 12.871 0.70 P 
79046.CE 13.503 0.72 P 
KOM.NC 13.966 0.97 P 
KIP.NC 15.633 0.37 P 
TRIN.BK 17.156 0.92 P 
KFP.NC 17.633 0.37 P 
LBK.NC 18.553 0.67 P 
BJES.BK 8.473 0.84 S 
KNEE.BK 9.573 0.40 S 
B045.PB 10.021 0.88 S 
KCR.NC 10.373 0.57 S 
89462.CE 10.953 0.91 S 
KMPB.NC 11.766 0.56 S 
89781.CE 11.863 0.90 S 
1586.NP 12.533 0.84 S 
1580.NP 12.593 0.89 S 
1581.NP 12.663 0.84 S 
B935.PB 12.681 0.91 S 
RBOW.BK 12.843 0.49 S 
1584B.NP 13.463 0.91 S 
1023.NP 13.553 0.88 S 
KHMB.NC 13.736 0.60 S 
KCSB.NC 14.036 0.93 S 
B049.PB 14.351 0.84 S 
KBU.NC 14.513 0.59 S 
B046.PB 15.071 0.87 S 
B047.PB 15.161 0.92 S 
KPR.NC 15.383 0.58 S 
PETL.BK 16.313 0.47 S 
KMR.NC 16.476 0.57 S 
KCO.NC 16.576 0.89 S 
PRDS.BK 18.003 0.48 S 
BRIC.BK 18.643 0.53 S 
KHBB.NC 18.666 0.53 S 
HAYF.BK 18.696 0.51 S 
1591.NP 18.823 0.86 S 
KRP.NC 19.126 0.89 S 
89688.CE 19.273 0.56 S 
KOM.NC 24.356 0.90 S 
79046.CE 25.873 0.72 S 
LSF.NC 32.713 0.38 S 
SCOT.BK 33.976 0.50 S 
GUMB.BK 37.827 0.54 S 
# 2022 12 20 10 48 55.372 40.5907 -124.1352 20.368 2.828 0.146 0.146 0.472 49 
1586.NP 4.498 0.97 P 
89462.CE 4.618 1.01 P 
1023.NP 4.808 1.01 P 
1581.NP 5.018 0.99 P 
1584B.NP 5.138 0.98 P 
89781.CE 5.288 0.98 P 
KMPB.NC 5.341 0.46 P 
KCT.NC 5.381 0.94 P 
B045.PB 5.506 1.04 P 
BJES.BK 5.598 0.66 P 
KNEE.BK 5.792 0.64 P 
RBOW.BK 6.438 0.51 P 
1580.NP 6.578 1.01 P 
DMOR.BK 6.588 0.84 P 
KCR.NC 7.048 0.66 P 
B046.PB 7.176 0.96 P 
PETL.BK 7.858 0.52 P 
B047.PB 7.866 0.93 P 
KCO.NC 8.081 0.94 P 
KPR.NC 8.458 0.62 P 
KBU.NC 9.088 0.66 P 
KHMB.NC 9.091 0.88 P 
B049.PB 9.196 0.93 P 
KTD.NC 9.318 0.96 P 
B935.PB 9.426 0.99 P 
PRDS.BK 10.032 0.46 P 
KCSB.NC 10.261 0.96 P 
KMR.NC 10.721 0.57 P 
89688.CE 10.798 0.88 P 
KRP.NC 11.041 0.97 P 
1591.NP 11.398 0.90 P 
BRIC.BK 11.578 0.39 P 
HAYF.BK 13.041 0.47 P 
KOM.NC 15.321 0.83 P 
WEAV.BK 16.248 0.93 P 
GNR.NC 21.398 0.42 P 
GHO.NC 25.058 0.42 P 
1586.NP 8.438 0.83 S 
89462.CE 8.528 0.90 S 
1023.NP 9.208 0.89 S 
1584B.NP 9.248 0.78 S 
1581.NP 9.408 0.85 S 
KMPB.NC 9.651 0.56 S 
89781.CE 9.718 0.88 S 
B045.PB 9.856 0.88 S 
BJES.BK 10.048 0.55 S 
KCT.NC 10.631 0.93 S 
KNEE.BK 10.692 0.33 S 
RBOW.BK 11.498 0.44 S 
1580.NP 12.038 0.92 S 
KCR.NC 12.608 0.54 S 
B046.PB 12.656 0.86 S 
DMOR.BK 13.068 0.93 S 
B047.PB 13.886 0.80 S 
PETL.BK 13.918 0.39 S 
KCO.NC 14.291 0.83 S 
KPR.NC 14.948 0.56 S 
KBU.NC 16.128 0.43 S 
KHMB.NC 16.361 0.45 S 
B049.PB 16.426 0.91 S 
KTD.NC 16.738 0.89 S 
B935.PB 17.036 0.94 S 
PRDS.BK 18.352 0.43 S 
KCSB.NC 18.641 0.95 S 
KMR.NC 19.041 0.61 S 
89688.CE 19.248 0.89 S 
KRP.NC 19.641 0.87 S 
BRIC.BK 19.838 0.50 S 
1591.NP 20.918 0.91 S 
HAYF.BK 23.961 0.47 S 
B934.PB 25.746 0.93 S 
79046.CE 26.878 0.78 S 
RVIT.BK 30.638 0.63 S 
79298.CE 34.028 0.33 S 
GNR.NC 40.298 0.41 S 
# 2022 12 20 10 49 10.206 40.5022 -124.4715 23.291 2.516 0.271 0.271 0.548 50 
KCT.NC 5.157 0.65 P 
1584B.NP 5.194 0.89 P 
B046.PB 6.072 1.01 P 
PETL.BK 6.214 0.85 P 
1586.NP 6.854 1.02 P 
KCO.NC 6.987 1.02 P 
KMPB.NC 7.057 0.62 P 
89462.CE 7.334 1.00 P 
RBOW.BK 7.654 0.50 P 
B047.PB 7.722 1.03 P 
B045.PB 8.322 0.96 P 
KPR.NC 9.394 0.61 P 
BJES.BK 9.714 0.85 P 
PRDS.BK 10.314 0.59 P 
89688.CE 10.544 0.98 P 
KCR.NC 10.584 0.56 P 
DMOR.BK 10.824 0.88 P 
B049.PB 11.152 0.91 P 
BRIC.BK 12.244 0.85 P 
B935.PB 13.092 0.88 P 
KCSB.NC 13.997 0.87 P 
1584B.NP 9.084 0.71 S 
KCT.NC 9.217 0.63 S 
B046.PB 10.562 0.84 S 
PETL.BK 10.924 0.35 S 
1023.NP 11.034 0.90 S 
KMPB.NC 12.267 0.54 S 
1586.NP 12.324 0.96 S 
KCO.NC 12.357 0.94 S 
89462.CE 13.044 0.92 S 
RBOW.BK 13.234 0.46 S 
B047.PB 13.502 0.93 S 
1581.NP 13.634 0.87 S 
B045.PB 14.412 0.91 S 
KPR.NC 16.844 0.64 S 
PRDS.BK 18.024 0.35 S 
89688.CE 18.064 0.84 S 
KCR.NC 18.554 0.84 S 
B049.PB 19.642 0.89 S 
KHMB.NC 20.167 0.59 S 
# 2022 12 20 10 49 42.802 40.5232 -124.0242 20.688 2.197 0.129 0.129 0.449 51 
B045.PB 4.466 0.89 P 
89462.CE 4.568 0.87 P 
KMPB.NC 4.961 0.51 P 
BJES.BK 5.308 0.83 P 
KCR.NC 5.608 0.66 P 
RBOW.BK 5.708 0.42 P 
1586.NP 5.908 0.89 P 
KNEE.BK 5.952 0.47 P 
1023.NP 5.968 0.90 P 
1584B.NP 5.988 0.88 P 
DMOR.BK 6.108 0.43 P 
89781.CE 6.618 0.90 P 
KCT.NC 6.691 0.46 P 
1581.NP 6.768 0.91 P 
B046.PB 6.996 0.85 P 
B047.PB 7.166 0.89 P 
KPR.NC 7.358 0.56 P 
KBU.NC 7.508 0.58 P 
B049.PB 7.606 0.93 P 
KCO.NC 7.701 0.91 P 
1580.NP 7.828 0.92 P 
B935.PB 7.956 0.94 P 
89688.CE 8.828 0.44 P 
KCSB.NC 8.911 0.94 P 
KHMB.NC 9.081 0.57 P 
KMR.NC 9.181 0.53 P 
PRDS.BK 9.212 0.43 P 
1591.NP 10.038 0.86 P 
BRIC.BK 10.168 0.46 P 
KTD.NC 10.588 0.87 P 
HAYF.BK 11.739 0.41 P 
KHBB.NC 12.011 0.45 P 
WEAV.BK 14.608 0.59 P 
KIP.NC 15.388 0.86 P 
PETY.BK 18.891 0.33 P 
B045.PB 8.006 0.81 S 
89462.CE 8.478 0.86 S 
BJES.BK 8.568 0.43 S 
KMPB.NC 8.921 0.56 S 
KCR.NC 9.968 0.50 S 
RBOW.BK 10.078 0.37 S 
1584B.NP 10.858 0.83 S 
KNEE.BK 10.898 0.40 S 
1586.NP 10.998 0.81 S 
1023.NP 11.408 0.81 S 
KCT.NC 11.741 0.55 S 
89781.CE 12.048 0.77 S 
1581.NP 12.138 0.68 S 
B046.PB 12.346 0.78 S 
B047.PB 12.576 0.80 S 
KPR.NC 13.078 0.53 S 
B049.PB 13.346 0.80 S 
KBU.NC 13.348 0.54 S 
KCO.NC 13.691 0.79 S 
PETL.BK 13.768 0.36 S 
B935.PB 14.446 0.87 S 
KCSB.NC 15.581 0.79 S 
KMR.NC 16.151 0.51 S 
PRDS.BK 16.362 0.45 S 
KHMB.NC 16.491 0.53 S 
89688.CE 17.648 0.84 S 
KTD.NC 18.128 0.83 S 
1591.NP 18.248 0.83 S 
HAYF.BK 20.461 0.36 S 
KHBB.NC 22.331 0.77 S 
B934.PB 24.166 0.85 S 
WEAV.BK 26.278 0.53 S 
RVIT.BK 27.468 0.79 S 
KIP.NC 28.408 0.82 S 
LBK.NC 37.528 0.44 S 
# 2022 12 20 10 50 1.882 40.5851 -123.9105 23.311 2.314 0.174 0.174 0.453 52 
DMOR.BK 4.578 0.54 P 
BJES.BK 4.608 0.68 P 
B045.PB 5.516 0.93 P 
KCR.NC 5.618 0.54 P 
89462.CE 5.788 0.91 P 
KMPB.NC 6.421 0.63 P 
89781.CE 6.478 1.00 P 
1586.NP 6.678 0.95 P 
1581.NP 6.768 1.00 P 
B935.PB 6.916 0.76 P 
RBOW.BK 7.158 0.54 P 
1584B.NP 7.288 0.94 P 
KCSB.NC 7.591 0.89 P 
KHMB.NC 7.591 0.62 P 
B049.PB 7.796 0.72 P 
1023.NP 7.888 1.01 P 
KCT.NC 8.041 0.85 P 
KBU.NC 8.078 0.69 P 
B047.PB 8.436 0.94 P 
B046.PB 8.456 0.96 P 
KPR.NC 8.578 0.52 P 
KMR.NC 9.111 0.64 P 
HAYF.BK 10.421 0.41 P 
KHBB.NC 10.501 0.35 P 
WEAV.BK 13.078 0.49 P 
GUMB.BK 20.842 0.44 P 
BJES.BK 7.688 0.59 S 
KNEE.BK 9.568 0.52 S 
B045.PB 9.886 0.90 S 
KCR.NC 10.218 0.65 S 
89462.CE 10.708 0.92 S 
KMPB.NC 11.691 0.54 S 
89781.CE 11.888 0.89 S 
1586.NP 12.518 0.93 S 
B935.PB 12.576 0.89 S 
1581.NP 12.618 0.90 S 
RBOW.BK 12.778 0.38 S 
1584B.NP 13.078 0.91 S 
1023.NP 13.508 0.88 S 
KHMB.NC 13.731 0.57 S 
KCT.NC 13.931 0.58 S 
KCSB.NC 13.931 0.91 S 
B049.PB 14.246 0.68 S 
KBU.NC 14.408 0.48 S 
B046.PB 15.046 0.86 S 
KPR.NC 15.128 0.69 S 
B047.PB 15.226 0.93 S 
PETL.BK 16.288 0.49 S 
KMR.NC 16.381 0.48 S 
HAYF.BK 18.811 0.47 S 
1591.NP 18.828 0.88 S 
89688.CE 19.088 0.63 S 
BRIC.BK 19.138 0.76 S 
KHBB.NC 19.671 0.76 S 
WEAV.BK 24.408 0.88 S 
SCOT.BK 33.939 0.33 S 
# 2022 12 20 10 50 19.353 40.5436 -124.3098 17.292 1.995 0.168 0.168 0.389 53 
1584B.NP 3.637 0.93 P 
KCT.NC 4.100 1.01 P 
1586.NP 4.647 0.90 P 
KMPB.NC 5.420 0.94 P 
89462.CE 5.537 1.00 P 
B046.PB 6.005 0.99 P 
B045.PB 6.345 0.79 P 
RBOW.BK 6.377 0.57 P 
KCO.NC 7.070 0.95 P 
B047.PB 7.285 0.90 P 
KPR.NC 8.657 0.55 P 
KCR.NC 8.717 0.63 P 
KBU.NC 10.077 0.59 P 
PRDS.BK 10.151 0.57 P 
B049.PB 10.185 0.90 P 
89688.CE 10.517 0.86 P 
KMR.NC 11.810 0.56 P 
1584B.NP 6.427 0.75 S 
1023.NP 7.577 1.00 S 
1586.NP 8.787 0.93 S 
89462.CE 9.377 0.93 S 
KMPB.NC 9.400 0.88 S 
B046.PB 10.555 0.91 S 
RBOW.BK 11.117 0.34 S 
B045.PB 11.185 0.64 S 
PETL.BK 11.477 0.34 S 
KCO.NC 12.440 0.91 S 
B047.PB 12.745 0.82 S 
BJES.BK 13.527 0.85 S 
KCR.NC 15.657 0.54 S 
KPR.NC 15.847 0.60 S 
DMOR.BK 17.337 0.35 S 
B049.PB 18.145 0.93 S 
PRDS.BK 18.211 0.35 S 
KBU.NC 18.217 0.58 S 
89688.CE 18.377 0.90 S 
BRIC.BK 20.317 0.89 S 
KMR.NC 21.160 0.64 S 
79046.CE 28.047 0.47 S 
# 2022 12 20 10 50 55.404 40.7455 -124.0317 24.497 2.055 0.193 0.193 0.689 54 
1586.NP 5.046 0.86 P 
89781.CE 5.166 1.04 P 
1580.NP 5.396 1.00 P 
DMOR.BK 5.566 0.43 P 
1581.NP 5.866 0.99 P 
1584B.NP 6.346 0.95 P 
KHMB.NC 6.929 0.62 P 
BJES.BK 7.006 1.02 P 
KTD.NC 7.376 0.95 P 
KCR.NC 7.746 0.68 P 
B045.PB 8.214 0.69 P 
KMPB.NC 8.729 0.38 P 
KRP.NC 8.819 0.89 P 
B935.PB 9.734 0.96 P 
B049.PB 10.244 0.79 P 
KBU.NC 10.336 0.33 P 
99700.CE 10.346 0.83 P 
PETL.BK 10.786 0.52 P 
KCO.NC 11.199 0.85 P 
KHBB.NC 12.049 0.70 P 
KMR.NC 12.169 0.86 P 
BRIC.BK 12.186 0.94 P 
HAYF.BK 12.367 0.68 P 
KOM.NC 12.749 0.94 P 
WEAV.BK 14.406 0.56 P 
LBK.NC 18.786 0.98 P 
SCOT.BK 18.959 0.97 P 
1580.NP 9.096 0.80 S 
89781.CE 9.136 0.93 S 
1586.NP 9.476 0.88 S 
89462.CE 10.116 0.64 S 
DMOR.BK 11.006 0.77 S 
B045.PB 11.384 0.45 S 
KHMB.NC 12.209 0.58 S 
KCR.NC 15.336 0.40 S 
KRP.NC 15.489 0.76 S 
B046.PB 16.044 0.93 S 
PETL.BK 16.896 0.36 S 
99700.CE 17.916 0.75 S 
KCO.NC 17.969 0.93 S 
B047.PB 18.684 0.83 S 
HAYF.BK 21.769 0.38 S 
1591.NP 22.826 0.41 S 
89688.CE 23.686 0.70 S 
WEAV.BK 24.986 0.51 S 
SCOT.BK 32.769 0.55 S 
LBK.NC 33.046 0.82 S 
# 2022 12 20 10 51 20.664 40.5357 -123.9048 23.349 2.306 0.233 0.233 0.974 55 
B045.PB 4.944 0.80 P 
KMPB.NC 5.749 0.68 P 
RBOW.BK 6.536 0.46 P 
KHMB.NC 6.829 0.62 P 
B935.PB 6.924 0.85 P 
KCSB.NC 7.789 1.01 P 
B047.PB 8.144 0.99 P 
KCO.NC 8.359 0.96 P 
KHBB.NC 10.579 0.59 P 
HAYF.BK 10.667 0.51 P 
KOM.NC 13.279 0.76 P 
TRIN.BK 18.009 0.92 P 
LBK.NC 18.376 0.87 P 
BJES.BK 7.886 0.49 S 
B045.PB 9.234 0.79 S 
89462.CE 9.546 0.74 S 
KCR.NC 10.396 0.56 S 
KMPB.NC 10.939 0.50 S 
RBOW.BK 11.646 0.52 S 
KHMB.NC 12.969 0.54 S 
89781.CE 13.496 0.65 S 
KCSB.NC 13.529 0.91 S 
KPR.NC 13.566 0.72 S 
KCO.NC 14.359 0.74 S 
B047.PB 14.874 0.91 S 
1580.NP 15.066 0.68 S 
KHBB.NC 16.479 0.39 S 
HAYF.BK 19.249 0.59 S 
KTD.NC 20.106 0.67 S 
LBK.NC 36.206 0.49 S 
# 2022 12 20 10 51 33.551 40.5261 -124.3275 17.236 2.674 0.134 0.134 0.491 56 
1584B.NP 3.499 0.97 P 
KCT.NC 3.992 0.60 P 
1023.NP 4.049 1.03 P 
1586.NP 4.919 1.01 P 
RBOW.BK 4.979 0.41 P 
89462.CE 5.289 1.02 P 
KMPB.NC 5.442 0.56 P 
B046.PB 5.727 1.02 P 
PETL.BK 6.319 0.66 P 
B045.PB 6.527 0.93 P 
89781.CE 6.779 1.04 P 
KCO.NC 6.902 1.01 P 
B047.PB 7.507 1.00 P 
BJES.BK 7.819 0.54 P 
KNEE.BK 8.299 0.51 P 
KPR.NC 8.549 0.62 P 
KCR.NC 8.899 0.42 P 
DMOR.BK 9.279 0.39 P 
KBU.NC 10.069 0.58 P 
B049.PB 10.227 0.93 P 
89688.CE 10.409 0.97 P 
PRDS.BK 10.459 0.93 P 
KHMB.NC 11.582 0.67 P 
B935.PB 11.587 0.86 P 
BRIC.BK 11.839 0.43 P 
1591.NP 12.409 0.92 P 
KCSB.NC 12.622 0.82 P 
1584B.NP 6.219 0.88 S 
KCT.NC 7.172 0.68 S 
1023.NP 7.859 0.95 S 
1586.NP 9.289 0.93 S 
KMPB.NC 9.552 0.60 S 
89462.CE 9.619 0.88 S 
B046.PB 9.987 0.91 S 
PETL.BK 10.859 0.49 S 
1581.NP 11.139 0.76 S 
B045.PB 11.407 0.71 S 
KCO.NC 12.072 0.91 S 
89781.CE 12.369 0.92 S 
B047.PB 12.427 0.79 S 
BJES.BK 13.979 0.80 S 
1580.NP 14.779 0.89 S 
KNEE.BK 15.019 0.42 S 
KPR.NC 15.599 0.64 S 
KCR.NC 15.859 0.90 S 
DMOR.BK 17.759 0.85 S 
89688.CE 17.809 0.79 S 
KBU.NC 17.939 0.68 S 
B049.PB 18.177 0.92 S 
KHMB.NC 20.682 0.63 S 
KMR.NC 20.712 0.51 S 
BRIC.BK 20.729 0.58 S 
B935.PB 21.177 0.89 S 
1591.NP 22.109 0.93 S 
KCSB.NC 22.802 0.91 S 
B934.PB 26.447 0.36 S 
79046.CE 27.059 0.69 S 
