# 2022 12 20 10 48 24.291 40.5129 -124.3612 17.852 2.349 0.206 0.206 0.355 47 
1584B 3.939 0.45 P 
1023 4.419 0.71 P 
KCT 4.422 0.53 P 
1586 5.089 0.59 P 
B046 5.397 0.54 P 
KMPB 5.722 0.48 P 
PETL 5.829 0.49 P 
KCO 6.582 0.56 P 
KPR 8.589 0.42 P 
89688 10.299 0.42 P 
1584B 6.439 0.55 S 
KCT 7.882 0.43 S 
1023 8.249 0.73 S 
1586 9.679 0.74 S 
B046 9.697 0.69 S 
KMPB 9.912 0.35 S 
PETL 10.479 0.49 S 
KCO 11.952 0.71 S 
89781 12.719 0.44 S 
KPR 15.339 0.41 S 
PRDS 17.699 0.38 S 
89688 18.119 0.62 S 
KBU 18.379 0.37 S 
B049 18.387 0.35 S 
# 2022 12 20 10 48 38.137 40.5943 -123.9100 26.054 2.955 0.155 0.155 0.404 48 
DMOR 4.713 0.46 P 
KNEE 5.137 0.52 P 
B045 5.571 0.98 P 
KCR 5.703 0.64 P 
BJES 5.773 0.90 P 
89462 5.853 0.95 P 
KMPB 6.476 0.61 P 
89781 6.503 1.01 P 
1586 6.723 0.99 P 
1581 6.823 1.00 P 
B935 7.061 0.86 P 
1580 7.173 1.00 P 
RBOW 7.233 0.45 P 
1584B 7.393 0.89 P 
KHMB 7.636 0.59 P 
KCSB 7.686 0.93 P 
B049 8.101 0.94 P 
KBU 8.153 0.56 P 
B046 8.531 0.97 P 
B047 8.621 0.98 P 
KPR 8.653 0.62 P 
KMR 9.056 0.58 P 
KCO 9.106 0.96 P 
PETL 9.233 0.88 P 
PRDS 10.153 0.43 P 
HAYF 10.456 0.43 P 
KHBB 10.616 0.63 P 
BRIC 10.943 0.46 P 
B934 12.871 0.70 P 
79046 13.503 0.72 P 
KOM 13.966 0.97 P 
KIP 15.633 0.37 P 
TRIN 17.156 0.92 P 
KFP 17.633 0.37 P 
LBK 18.553 0.67 P 
BJES 8.473 0.84 S 
KNEE 9.573 0.40 S 
B045 10.021 0.88 S 
KCR 10.373 0.57 S 
89462 10.953 0.91 S 
KMPB 11.766 0.56 S 
89781 11.863 0.90 S 
1586 12.533 0.84 S 
1580 12.593 0.89 S 
1581 12.663 0.84 S 
B935 12.681 0.91 S 
RBOW 12.843 0.49 S 
1584B 13.463 0.91 S 
1023 13.553 0.88 S 
KHMB 13.736 0.60 S 
KCSB 14.036 0.93 S 
B049 14.351 0.84 S 
KBU 14.513 0.59 S 
B046 15.071 0.87 S 
B047 15.161 0.92 S 
KPR 15.383 0.58 S 
PETL 16.313 0.47 S 
KMR 16.476 0.57 S 
KCO 16.576 0.89 S 
PRDS 18.003 0.48 S 
BRIC 18.643 0.53 S 
KHBB 18.666 0.53 S 
HAYF 18.696 0.51 S 
1591 18.823 0.86 S 
KRP 19.126 0.89 S 
89688 19.273 0.56 S 
KOM 24.356 0.90 S 
79046 25.873 0.72 S 
LSF 32.713 0.38 S 
SCOT 33.976 0.50 S 
GUMB 37.827 0.54 S 
# 2022 12 20 10 48 55.372 40.5907 -124.1352 20.368 2.828 0.146 0.146 0.472 49 
1586 4.498 0.97 P 
89462 4.618 1.01 P 
1023 4.808 1.01 P 
1581 5.018 0.99 P 
1584B 5.138 0.98 P 
89781 5.288 0.98 P 
KMPB 5.341 0.46 P 
KCT 5.381 0.94 P 
B045 5.506 1.04 P 
BJES 5.598 0.66 P 
KNEE 5.792 0.64 P 
RBOW 6.438 0.51 P 
1580 6.578 1.01 P 
DMOR 6.588 0.84 P 
KCR 7.048 0.66 P 
B046 7.176 0.96 P 
PETL 7.858 0.52 P 
B047 7.866 0.93 P 
KCO 8.081 0.94 P 
KPR 8.458 0.62 P 
KBU 9.088 0.66 P 
KHMB 9.091 0.88 P 
B049 9.196 0.93 P 
KTD 9.318 0.96 P 
B935 9.426 0.99 P 
PRDS 10.032 0.46 P 
KCSB 10.261 0.96 P 
KMR 10.721 0.57 P 
89688 10.798 0.88 P 
KRP 11.041 0.97 P 
1591 11.398 0.90 P 
BRIC 11.578 0.39 P 
HAYF 13.041 0.47 P 
KOM 15.321 0.83 P 
WEAV 16.248 0.93 P 
GNR 21.398 0.42 P 
GHO 25.058 0.42 P 
1586 8.438 0.83 S 
89462 8.528 0.90 S 
1023 9.208 0.89 S 
1584B 9.248 0.78 S 
1581 9.408 0.85 S 
KMPB 9.651 0.56 S 
89781 9.718 0.88 S 
B045 9.856 0.88 S 
BJES 10.048 0.55 S 
KCT 10.631 0.93 S 
KNEE 10.692 0.33 S 
RBOW 11.498 0.44 S 
1580 12.038 0.92 S 
KCR 12.608 0.54 S 
B046 12.656 0.86 S 
DMOR 13.068 0.93 S 
B047 13.886 0.80 S 
PETL 13.918 0.39 S 
KCO 14.291 0.83 S 
KPR 14.948 0.56 S 
KBU 16.128 0.43 S 
KHMB 16.361 0.45 S 
B049 16.426 0.91 S 
KTD 16.738 0.89 S 
B935 17.036 0.94 S 
PRDS 18.352 0.43 S 
KCSB 18.641 0.95 S 
KMR 19.041 0.61 S 
89688 19.248 0.89 S 
KRP 19.641 0.87 S 
BRIC 19.838 0.50 S 
1591 20.918 0.91 S 
HAYF 23.961 0.47 S 
B934 25.746 0.93 S 
79046 26.878 0.78 S 
RVIT 30.638 0.63 S 
79298 34.028 0.33 S 
GNR 40.298 0.41 S 
# 2022 12 20 10 49 10.206 40.5022 -124.4715 23.291 2.516 0.271 0.271 0.548 50 
KCT 5.157 0.65 P 
1584B 5.194 0.89 P 
B046 6.072 1.01 P 
PETL 6.214 0.85 P 
1586 6.854 1.02 P 
KCO 6.987 1.02 P 
KMPB 7.057 0.62 P 
89462 7.334 1.00 P 
RBOW 7.654 0.50 P 
B047 7.722 1.03 P 
B045 8.322 0.96 P 
KPR 9.394 0.61 P 
BJES 9.714 0.85 P 
PRDS 10.314 0.59 P 
89688 10.544 0.98 P 
KCR 10.584 0.56 P 
DMOR 10.824 0.88 P 
B049 11.152 0.91 P 
BRIC 12.244 0.85 P 
B935 13.092 0.88 P 
KCSB 13.997 0.87 P 
1584B 9.084 0.71 S 
KCT 9.217 0.63 S 
B046 10.562 0.84 S 
PETL 10.924 0.35 S 
1023 11.034 0.90 S 
KMPB 12.267 0.54 S 
1586 12.324 0.96 S 
KCO 12.357 0.94 S 
89462 13.044 0.92 S 
RBOW 13.234 0.46 S 
B047 13.502 0.93 S 
1581 13.634 0.87 S 
B045 14.412 0.91 S 
KPR 16.844 0.64 S 
PRDS 18.024 0.35 S 
89688 18.064 0.84 S 
KCR 18.554 0.84 S 
B049 19.642 0.89 S 
KHMB 20.167 0.59 S 
# 2022 12 20 10 49 42.802 40.5232 -124.0242 20.688 2.197 0.129 0.129 0.449 51 
B045 4.466 0.89 P 
89462 4.568 0.87 P 
KMPB 4.961 0.51 P 
BJES 5.308 0.83 P 
KCR 5.608 0.66 P 
RBOW 5.708 0.42 P 
1586 5.908 0.89 P 
KNEE 5.952 0.47 P 
1023 5.968 0.90 P 
1584B 5.988 0.88 P 
DMOR 6.108 0.43 P 
89781 6.618 0.90 P 
KCT 6.691 0.46 P 
1581 6.768 0.91 P 
B046 6.996 0.85 P 
B047 7.166 0.89 P 
KPR 7.358 0.56 P 
KBU 7.508 0.58 P 
B049 7.606 0.93 P 
KCO 7.701 0.91 P 
1580 7.828 0.92 P 
B935 7.956 0.94 P 
89688 8.828 0.44 P 
KCSB 8.911 0.94 P 
KHMB 9.081 0.57 P 
KMR 9.181 0.53 P 
PRDS 9.212 0.43 P 
1591 10.038 0.86 P 
BRIC 10.168 0.46 P 
KTD 10.588 0.87 P 
HAYF 11.739 0.41 P 
KHBB 12.011 0.45 P 
WEAV 14.608 0.59 P 
KIP 15.388 0.86 P 
PETY 18.891 0.33 P 
B045 8.006 0.81 S 
89462 8.478 0.86 S 
BJES 8.568 0.43 S 
KMPB 8.921 0.56 S 
KCR 9.968 0.50 S 
RBOW 10.078 0.37 S 
1584B 10.858 0.83 S 
KNEE 10.898 0.40 S 
1586 10.998 0.81 S 
1023 11.408 0.81 S 
KCT 11.741 0.55 S 
89781 12.048 0.77 S 
1581 12.138 0.68 S 
B046 12.346 0.78 S 
B047 12.576 0.80 S 
KPR 13.078 0.53 S 
B049 13.346 0.80 S 
KBU 13.348 0.54 S 
KCO 13.691 0.79 S 
PETL 13.768 0.36 S 
B935 14.446 0.87 S 
KCSB 15.581 0.79 S 
KMR 16.151 0.51 S 
PRDS 16.362 0.45 S 
KHMB 16.491 0.53 S 
89688 17.648 0.84 S 
KTD 18.128 0.83 S 
1591 18.248 0.83 S 
HAYF 20.461 0.36 S 
KHBB 22.331 0.77 S 
B934 24.166 0.85 S 
WEAV 26.278 0.53 S 
RVIT 27.468 0.79 S 
KIP 28.408 0.82 S 
LBK 37.528 0.44 S 
# 2022 12 20 10 50 1.882 40.5851 -123.9105 23.311 2.314 0.174 0.174 0.453 52 
DMOR 4.578 0.54 P 
BJES 4.608 0.68 P 
B045 5.516 0.93 P 
KCR 5.618 0.54 P 
89462 5.788 0.91 P 
KMPB 6.421 0.63 P 
89781 6.478 1.00 P 
1586 6.678 0.95 P 
1581 6.768 1.00 P 
B935 6.916 0.76 P 
RBOW 7.158 0.54 P 
1584B 7.288 0.94 P 
KCSB 7.591 0.89 P 
KHMB 7.591 0.62 P 
B049 7.796 0.72 P 
1023 7.888 1.01 P 
KCT 8.041 0.85 P 
KBU 8.078 0.69 P 
B047 8.436 0.94 P 
B046 8.456 0.96 P 
KPR 8.578 0.52 P 
KMR 9.111 0.64 P 
HAYF 10.421 0.41 P 
KHBB 10.501 0.35 P 
WEAV 13.078 0.49 P 
GUMB 20.842 0.44 P 
BJES 7.688 0.59 S 
KNEE 9.568 0.52 S 
B045 9.886 0.90 S 
KCR 10.218 0.65 S 
89462 10.708 0.92 S 
KMPB 11.691 0.54 S 
89781 11.888 0.89 S 
1586 12.518 0.93 S 
B935 12.576 0.89 S 
1581 12.618 0.90 S 
RBOW 12.778 0.38 S 
1584B 13.078 0.91 S 
1023 13.508 0.88 S 
KHMB 13.731 0.57 S 
KCT 13.931 0.58 S 
KCSB 13.931 0.91 S 
B049 14.246 0.68 S 
KBU 14.408 0.48 S 
B046 15.046 0.86 S 
KPR 15.128 0.69 S 
B047 15.226 0.93 S 
PETL 16.288 0.49 S 
KMR 16.381 0.48 S 
HAYF 18.811 0.47 S 
1591 18.828 0.88 S 
89688 19.088 0.63 S 
BRIC 19.138 0.76 S 
KHBB 19.671 0.76 S 
WEAV 24.408 0.88 S 
SCOT 33.939 0.33 S 
# 2022 12 20 10 50 19.353 40.5436 -124.3098 17.292 1.995 0.168 0.168 0.389 53 
1584B 3.637 0.93 P 
KCT 4.100 1.01 P 
1586 4.647 0.90 P 
KMPB 5.420 0.94 P 
89462 5.537 1.00 P 
B046 6.005 0.99 P 
B045 6.345 0.79 P 
RBOW 6.377 0.57 P 
KCO 7.070 0.95 P 
B047 7.285 0.90 P 
KPR 8.657 0.55 P 
KCR 8.717 0.63 P 
KBU 10.077 0.59 P 
PRDS 10.151 0.57 P 
B049 10.185 0.90 P 
89688 10.517 0.86 P 
KMR 11.810 0.56 P 
1584B 6.427 0.75 S 
1023 7.577 1.00 S 
1586 8.787 0.93 S 
89462 9.377 0.93 S 
KMPB 9.400 0.88 S 
B046 10.555 0.91 S 
RBOW 11.117 0.34 S 
B045 11.185 0.64 S 
PETL 11.477 0.34 S 
KCO 12.440 0.91 S 
B047 12.745 0.82 S 
BJES 13.527 0.85 S 
KCR 15.657 0.54 S 
KPR 15.847 0.60 S 
DMOR 17.337 0.35 S 
B049 18.145 0.93 S 
PRDS 18.211 0.35 S 
KBU 18.217 0.58 S 
89688 18.377 0.90 S 
BRIC 20.317 0.89 S 
KMR 21.160 0.64 S 
79046 28.047 0.47 S 
# 2022 12 20 10 50 55.404 40.7455 -124.0317 24.497 2.055 0.193 0.193 0.689 54 
1586 5.046 0.86 P 
89781 5.166 1.04 P 
1580 5.396 1.00 P 
DMOR 5.566 0.43 P 
1581 5.866 0.99 P 
1584B 6.346 0.95 P 
KHMB 6.929 0.62 P 
BJES 7.006 1.02 P 
KTD 7.376 0.95 P 
KCR 7.746 0.68 P 
B045 8.214 0.69 P 
KMPB 8.729 0.38 P 
KRP 8.819 0.89 P 
B935 9.734 0.96 P 
B049 10.244 0.79 P 
KBU 10.336 0.33 P 
99700 10.346 0.83 P 
PETL 10.786 0.52 P 
KCO 11.199 0.85 P 
KHBB 12.049 0.70 P 
KMR 12.169 0.86 P 
BRIC 12.186 0.94 P 
HAYF 12.367 0.68 P 
KOM 12.749 0.94 P 
WEAV 14.406 0.56 P 
LBK 18.786 0.98 P 
SCOT 18.959 0.97 P 
1580 9.096 0.80 S 
89781 9.136 0.93 S 
1586 9.476 0.88 S 
89462 10.116 0.64 S 
DMOR 11.006 0.77 S 
B045 11.384 0.45 S 
KHMB 12.209 0.58 S 
KCR 15.336 0.40 S 
KRP 15.489 0.76 S 
B046 16.044 0.93 S 
PETL 16.896 0.36 S 
99700 17.916 0.75 S 
KCO 17.969 0.93 S 
B047 18.684 0.83 S 
HAYF 21.769 0.38 S 
1591 22.826 0.41 S 
89688 23.686 0.70 S 
WEAV 24.986 0.51 S 
SCOT 32.769 0.55 S 
LBK 33.046 0.82 S 
# 2022 12 20 10 51 20.664 40.5357 -123.9048 23.349 2.306 0.233 0.233 0.974 55 
B045 4.944 0.80 P 
KMPB 5.749 0.68 P 
RBOW 6.536 0.46 P 
KHMB 6.829 0.62 P 
B935 6.924 0.85 P 
KCSB 7.789 1.01 P 
B047 8.144 0.99 P 
KCO 8.359 0.96 P 
KHBB 10.579 0.59 P 
HAYF 10.667 0.51 P 
KOM 13.279 0.76 P 
TRIN 18.009 0.92 P 
LBK 18.376 0.87 P 
BJES 7.886 0.49 S 
B045 9.234 0.79 S 
89462 9.546 0.74 S 
KCR 10.396 0.56 S 
KMPB 10.939 0.50 S 
RBOW 11.646 0.52 S 
KHMB 12.969 0.54 S 
89781 13.496 0.65 S 
KCSB 13.529 0.91 S 
KPR 13.566 0.72 S 
KCO 14.359 0.74 S 
B047 14.874 0.91 S 
1580 15.066 0.68 S 
KHBB 16.479 0.39 S 
HAYF 19.249 0.59 S 
KTD 20.106 0.67 S 
LBK 36.206 0.49 S 
# 2022 12 20 10 51 33.551 40.5261 -124.3275 17.236 2.674 0.134 0.134 0.491 56 
1584B 3.499 0.97 P 
KCT 3.992 0.60 P 
1023 4.049 1.03 P 
1586 4.919 1.01 P 
RBOW 4.979 0.41 P 
89462 5.289 1.02 P 
KMPB 5.442 0.56 P 
B046 5.727 1.02 P 
PETL 6.319 0.66 P 
B045 6.527 0.93 P 
89781 6.779 1.04 P 
KCO 6.902 1.01 P 
B047 7.507 1.00 P 
BJES 7.819 0.54 P 
KNEE 8.299 0.51 P 
KPR 8.549 0.62 P 
KCR 8.899 0.42 P 
DMOR 9.279 0.39 P 
KBU 10.069 0.58 P 
B049 10.227 0.93 P 
89688 10.409 0.97 P 
PRDS 10.459 0.93 P 
KHMB 11.582 0.67 P 
B935 11.587 0.86 P 
BRIC 11.839 0.43 P 
1591 12.409 0.92 P 
KCSB 12.622 0.82 P 
1584B 6.219 0.88 S 
KCT 7.172 0.68 S 
1023 7.859 0.95 S 
1586 9.289 0.93 S 
KMPB 9.552 0.60 S 
89462 9.619 0.88 S 
B046 9.987 0.91 S 
PETL 10.859 0.49 S 
1581 11.139 0.76 S 
B045 11.407 0.71 S 
KCO 12.072 0.91 S 
89781 12.369 0.92 S 
B047 12.427 0.79 S 
BJES 13.979 0.80 S 
1580 14.779 0.89 S 
KNEE 15.019 0.42 S 
KPR 15.599 0.64 S 
KCR 15.859 0.90 S 
DMOR 17.759 0.85 S 
89688 17.809 0.79 S 
KBU 17.939 0.68 S 
B049 18.177 0.92 S 
KHMB 20.682 0.63 S 
KMR 20.712 0.51 S 
BRIC 20.729 0.58 S 
B935 21.177 0.89 S 
1591 22.109 0.93 S 
KCSB 22.802 0.91 S 
B934 26.447 0.36 S 
79046 27.059 0.69 S 
# 2022 12 20 10 52 3.815 40.5928 -124.1395 23.250 2.569 0.178 0.178 0.568 57 
1584B 4.095 0.66 P 
89462 4.885 1.04 P 
1586 5.095 1.03 P 
KMPB 5.448 0.61 P 
1581 5.475 1.00 P 
B045 5.493 0.95 P 
89781 5.545 1.03 P 
1023 5.695 1.02 P 
BJES 5.815 0.92 P 
KNEE 5.815 0.50 P 
KCT 6.098 0.53 P 
RBOW 6.435 0.47 P 
1580 6.745 1.02 P 
KCR 7.085 0.70 P 
B046 7.123 1.00 P 
PETL 7.795 0.90 P 
KCO 7.958 1.00 P 
KPR 8.335 0.77 P 
KBU 8.825 0.49 P 
KHMB 8.938 0.65 P 
B935 9.303 1.00 P 
KTD 9.475 1.03 P 
B049 9.743 1.00 P 
PRDS 10.015 0.52 P 
KCSB 10.358 1.03 P 
KMR 11.118 0.97 P 
KRP 11.148 1.02 P 
BRIC 12.255 0.39 P 
KHBB 12.948 0.63 P 
HAYF 13.036 0.43 P 
KOM 15.358 0.84 P 
WEAV 15.485 0.96 P 
LBK 20.635 1.01 P 
89462 8.835 0.96 S 
1586 9.355 0.90 S 
B045 9.713 0.86 S 
KMPB 9.788 0.59 S 
89781 9.835 0.95 S 
1581 9.845 0.96 S 
1584B 9.865 0.86 S 
1023 9.985 0.86 S 
BJES 10.165 0.56 S 
KNEE 10.275 0.45 S 
RBOW 11.295 0.36 S 
KCT 11.338 0.90 S 
1580 11.675 0.94 S 
B046 12.483 0.91 S 
KCR 13.315 0.48 S 
B047 13.563 0.88 S 
PETL 13.705 0.53 S 
KCO 14.118 0.93 S 
KPR 14.825 0.43 S 
B049 15.623 0.67 S 
KHMB 15.838 0.59 S 
KBU 16.005 0.61 S 
KTD 16.075 0.92 S 
B935 16.853 0.93 S 
89688 17.235 0.33 S 
PRDS 17.705 0.41 S 
KCSB 18.358 0.90 S 
BRIC 19.365 0.77 S 
KRP 19.428 0.93 S 
KMR 19.638 0.58 S 
1591 21.435 0.38 S 
KHBB 22.958 0.57 S 
HAYF 23.188 0.45 S 
KOM 26.068 0.81 S 
79046 27.715 0.35 S 
LBK 36.475 0.55 S 
# 2022 12 20 10 52 39.352 40.5792 -124.3374 20.132 3.354 0.134 0.134 0.504 58 
1584B 4.398 1.05 P 
1023 4.428 1.07 P 
1586 4.658 1.05 P 
KCT 4.871 0.59 P 
1581 5.308 0.99 P 
89462 5.768 1.04 P 
89781 5.998 1.02 P 
KMPB 6.221 0.67 P 
B046 6.746 1.06 P 
B045 6.976 1.04 P 
RBOW 7.148 0.49 P 
PETL 7.238 0.51 P 
1580 7.548 1.05 P 
KCO 7.831 1.01 P 
BJES 7.938 0.52 P 
KNEE 7.958 0.57 P 
B047 8.056 1.04 P 
DMOR 8.768 0.58 P 
KCR 9.018 0.63 P 
KPR 9.208 0.65 P 
KTD 9.598 1.04 P 
KBU 10.378 0.49 P 
PRDS 10.728 0.67 P 
B049 10.756 0.98 P 
KHMB 10.891 0.51 P 
89688 11.068 0.97 P 
B935 11.496 0.97 P 
KRP 11.681 1.01 P 
KMR 12.181 0.63 P 
KCSB 12.311 0.95 P 
BRIC 12.368 0.50 P 
99700 12.858 0.96 P 
1591 12.998 0.90 P 
KHBB 15.221 0.56 P 
B934 15.906 0.95 P 
79046 16.378 0.96 P 
RVIT 18.178 0.91 P 
79298 19.258 0.57 P 
KFP 19.598 0.52 P 
LSF 21.538 0.45 P 
DCMP 21.691 0.39 P 
KRK 22.258 0.69 P 
LBK 22.598 1.06 P 
SCOT 23.009 0.50 P 
GNR 24.218 0.54 P 
GUMB 24.922 0.63 P 
1584B 7.778 0.91 S 
1023 8.338 0.83 S 
KCT 8.581 0.68 S 
1586 8.588 0.97 S 
1581 9.938 0.89 S 
89462 10.458 0.91 S 
KMPB 10.771 0.54 S 
89781 10.868 0.92 S 
B046 11.776 0.92 S 
B045 12.266 0.90 S 
RBOW 12.508 0.46 S 
PETL 12.778 0.45 S 
1580 13.368 0.95 S 
KCO 13.501 0.91 S 
BJES 13.928 0.44 S 
B047 13.986 0.87 S 
KNEE 14.258 0.47 S 
KCR 15.638 0.58 S 
KPR 16.158 0.49 S 
KTD 17.618 0.98 S 
KBU 18.808 0.92 S 
89688 18.838 0.58 S 
PRDS 18.912 0.42 S 
KHMB 18.941 0.65 S 
B049 19.026 0.95 S 
B935 20.446 0.95 S 
KRP 20.641 0.90 S 
BRIC 21.328 0.49 S 
KMR 22.041 0.60 S 
KCSB 22.181 0.97 S 
1591 22.818 0.98 S 
KHBB 26.901 0.67 S 
B934 27.066 0.97 S 
HAYF 27.971 0.47 S 
79046 28.088 0.97 S 
KOM 28.701 0.76 S 
79298 34.058 0.52 S 
KFP 34.358 0.77 S 
MNDO 37.338 0.81 S 
SCOT 39.451 0.42 S 
LBK 39.618 0.93 S 
GNR 40.928 0.62 S 
GUMB 44.428 0.36 S 
# 2022 12 20 10 52 54.121 39.7367 -123.2016 6.900 2.260 0.468 0.468 0.957 59 
KFP 4.089 0.46 P 
KBN 4.879 0.56 P 
DCMP 6.880 0.33 P 
GROB 9.049 0.91 P 
GWR 10.349 0.88 P 
GCWB 12.609 0.82 P 
GTSB 14.803 0.34 P 
GHGB 15.032 0.78 P 
GSR 15.569 0.80 P 
KIP 8.069 0.85 S 
KFP 9.319 0.84 S 
GROB 15.269 0.72 S 
GWR 18.149 0.69 S 
GCWB 21.049 0.59 S 
GSR 26.509 0.54 S 
GBL 26.979 0.34 S 
# 2022 12 20 10 53 16.429 40.5222 -124.3584 15.610 2.942 0.124 0.124 0.428 60 
1584B 3.491 0.98 P 
KCT 3.894 0.61 P 
1023 4.091 1.05 P 
1586 5.091 1.01 P 
89462 5.561 0.99 P 
KMPB 5.664 0.62 P 
B046 5.709 1.04 P 
1581 6.061 1.00 P 
PETL 6.201 0.89 P 
RBOW 6.541 0.36 P 
B045 6.859 0.99 P 
KCO 6.924 0.99 P 
89781 6.961 1.05 P 
B047 7.329 1.00 P 
BJES 8.261 0.88 P 
1580 8.531 0.75 P 
KNEE 8.721 0.52 P 
KPR 8.731 0.57 P 
KCR 9.261 0.59 P 
PRDS 10.091 0.52 P 
KBU 10.341 0.60 P 
89688 10.501 0.94 P 
B049 10.529 0.95 P 
KTD 10.681 0.85 P 
KHMB 11.814 0.40 P 
B935 12.049 0.91 P 
BRIC 12.151 0.43 P 
KMR 12.244 0.59 P 
1591 12.621 0.91 P 
KCSB 12.984 0.94 P 
HAYF 15.744 0.98 P 
79046 15.771 0.98 P 
KHBB 15.934 0.42 P 
KOM 17.704 0.66 P 
LBK 23.681 0.76 P 
SCOT 23.964 0.40 P 
1584B 6.281 0.87 S 
KCT 7.014 0.64 S 
1023 7.941 0.92 S 
1586 9.541 0.92 S 
B046 9.989 0.90 S 
KMPB 10.014 0.54 S 
89462 10.141 0.92 S 
PETL 10.781 0.43 S 
RBOW 11.411 0.47 S 
1581 11.471 0.94 S 
B045 11.979 0.79 S 
KCO 12.194 0.90 S 
89781 12.631 0.95 S 
B047 12.639 0.73 S 
BJES 14.781 0.42 S 
1580 15.141 0.80 S 
KPR 15.291 0.54 S 
KNEE 15.891 0.44 S 
KCR 16.161 0.57 S 
PRDS 17.971 0.44 S 
89688 18.161 0.83 S 
DMOR 18.501 0.34 S 
KBU 18.561 0.58 S 
B049 18.669 0.92 S 
BRIC 21.091 0.51 S 
KMR 21.284 0.59 S 
KHMB 21.434 0.88 S 
B935 21.869 0.94 S 
1591 22.661 0.96 S 
KCSB 23.384 0.96 S 
79046 27.361 0.93 S 
B934 27.469 0.89 S 
HAYF 29.024 0.85 S 
KHBB 29.864 0.60 S 
# 2022 12 20 10 53 55.331 40.6080 -124.0591 17.381 1.969 0.151 0.151 0.527 61 
89462 4.369 0.97 P 
1586 4.569 0.91 P 
BJES 4.679 0.96 P 
1581 4.939 0.99 P 
89781 5.029 0.96 P 
B045 5.107 1.00 P 
KCR 6.429 0.63 P 
RBOW 6.719 0.46 P 
KCO 7.642 0.88 P 
KPR 8.789 0.58 P 
B935 8.907 1.00 P 
KBU 9.049 0.62 P 
B049 9.117 0.95 P 
KCSB 9.742 0.97 P 
KMR 10.522 0.53 P 
PRDS 10.719 0.43 P 
KHBB 11.222 0.76 P 
89688 11.229 0.85 P 
BRIC 11.859 0.42 P 
HAYF 13.002 0.89 P 
89462 8.009 0.71 S 
BJES 8.409 0.79 S 
1586 8.739 0.84 S 
KNEE 8.909 0.40 S 
89781 9.069 0.88 S 
B045 9.197 0.86 S 
1581 9.389 0.93 S 
KMPB 9.822 0.36 S 
1023 10.029 0.71 S 
1584B 10.349 0.94 S 
DMOR 11.399 0.61 S 
KCR 11.589 0.57 S 
RBOW 12.049 0.42 S 
B047 13.447 0.89 S 
B046 13.887 0.90 S 
KPR 15.279 0.53 S 
PETL 15.559 0.59 S 
B935 15.877 0.92 S 
KBU 16.149 0.56 S 
B049 16.167 0.91 S 
KCSB 17.312 0.91 S 
PRDS 18.749 0.43 S 
KMR 18.752 0.61 S 
89688 19.189 0.63 S 
BRIC 20.629 0.46 S 
KHBB 22.802 0.81 S 
B934 26.867 0.52 S 
# 2022 12 20 10 54 12.003 40.6208 -124.1992 28.454 1.965 0.231 0.231 1.069 62 
89781 4.547 0.34 P 
1584B 5.027 0.72 P 
KCT 5.270 0.93 P 
1586 6.217 0.99 P 
B046 6.475 1.04 P 
B045 6.575 0.97 P 
PETL 6.777 0.88 P 
KMPB 6.850 0.64 P 
1581 6.957 0.95 P 
KCO 7.450 0.94 P 
KCR 7.507 0.56 P 
RBOW 7.547 0.44 P 
B047 7.775 1.00 P 
B935 9.315 0.62 P 
KPR 9.517 0.54 P 
KBU 10.187 0.62 P 
B049 10.205 0.92 P 
PRDS 10.821 0.50 P 
89688 11.127 0.91 P 
BRIC 12.797 0.41 P 
KHBB 13.130 0.56 P 
1023 9.437 0.91 S 
89781 10.127 0.90 S 
89462 10.287 0.70 S 
1581 10.777 0.75 S 
B046 10.815 0.79 S 
KMPB 11.300 0.63 S 
BJES 12.297 0.46 S 
KCR 12.497 0.41 S 
KCO 12.880 0.85 S 
RBOW 13.007 0.53 S 
B047 13.505 0.90 S 
B935 15.825 0.61 S 
KPR 16.657 0.80 S 
B049 17.215 0.91 S 
KBU 17.327 0.58 S 
PRDS 18.767 0.47 S 
89688 19.217 0.88 S 
KMR 19.650 0.77 S 
BRIC 22.157 0.50 S 
1591 22.467 0.74 S 
KHBB 22.530 0.69 S 
B934 27.935 0.44 S 
# 2022 12 20 10 54 50.451 40.5389 -124.2999 18.047 2.281 0.138 0.138 0.683 63 
KCT 4.082 0.67 P 
1586 4.549 0.75 P 
89462 5.059 0.95 P 
KMPB 5.302 0.89 P 
1581 5.559 0.92 P 
B046 5.817 0.99 P 
RBOW 6.289 0.54 P 
PETL 6.359 0.53 P 
89781 6.369 0.99 P 
KCO 6.952 0.96 P 
B047 7.197 1.00 P 
KNEE 7.999 0.71 P 
1580 8.019 1.01 P 
KPR 8.469 0.57 P 
KCR 8.659 0.62 P 
DMOR 8.979 0.75 P 
KBU 9.939 0.57 P 
PRDS 9.953 0.47 P 
B049 10.097 0.94 P 
89688 10.389 0.95 P 
KHMB 11.202 0.43 P 
B935 11.427 0.87 P 
KMR 11.762 0.53 P 
BRIC 11.929 0.56 P 
KCSB 14.562 0.34 P 
KHBB 15.322 0.79 P 
WEAV 19.829 0.45 P 
LBK 23.039 0.43 P 
1584B 6.299 0.53 S 
KCT 7.192 0.48 S 
1023 7.369 0.64 S 
1586 8.609 0.83 S 
89462 9.399 0.90 S 
B046 10.357 0.87 S 
1581 10.589 0.89 S 
KMPB 10.722 0.56 S 
RBOW 11.069 0.45 S 
PETL 11.189 0.45 S 
B045 11.257 0.61 S 
89781 11.759 0.94 S 
KCO 12.272 0.81 S 
B047 12.657 0.92 S 
BJES 13.549 0.52 S 
1580 13.959 0.91 S 
KNEE 14.649 0.36 S 
KPR 14.909 0.56 S 
KCR 15.709 0.56 S 
DMOR 16.239 0.37 S 
PRDS 17.889 0.48 S 
KBU 17.919 0.64 S 
B049 17.957 0.86 S 
89688 18.039 0.87 S 
B935 18.757 0.62 S 
KHMB 20.162 0.78 S 
KCSB 20.402 0.57 S 
BRIC 20.759 0.43 S 
KMR 20.882 0.61 S 
HAYF 25.780 0.35 S 
KHBB 26.122 0.57 S 
B934 26.527 0.50 S 
WEAV 31.089 0.39 S 
# 2022 12 20 10 55 1.002 40.5382 -124.3445 16.819 2.244 0.164 0.164 0.627 64 
1584B 3.568 0.58 P 
KCT 4.111 0.63 P 
1586 4.958 0.93 P 
KMPB 5.631 0.66 P 
PETL 6.408 0.92 P 
RBOW 6.608 0.68 P 
BJES 8.048 0.81 P 
KPR 8.798 0.61 P 
KNEE 8.982 0.68 P 
KCR 9.208 0.80 P 
DMOR 9.208 0.78 P 
BRIC 10.328 0.61 P 
KBU 10.368 0.58 P 
KMR 10.521 0.40 P 
1584B 6.238 0.90 S 
KCT 7.101 0.62 S 
1023 7.888 0.96 S 
1586 9.318 0.88 S 
KMPB 9.811 0.61 S 
89462 9.888 0.80 S 
B046 10.336 0.53 S 
RBOW 11.358 0.41 S 
B045 11.816 0.39 S 
KCO 12.091 0.82 S 
89781 12.548 0.79 S 
KNEE 13.928 0.37 S 
1580 15.148 0.80 S 
KPR 15.598 0.61 S 
KCR 16.428 0.66 S 
DMOR 18.088 0.75 S 
PRDS 18.112 0.35 S 
KBU 18.568 0.57 S 
B049 18.656 0.79 S 
BRIC 21.198 0.40 S 
KMR 21.511 0.66 S 
1591 22.678 0.73 S 
