# 2022 12 20 11 38 1.835 40.5285 -124.4106 16.063 1.661 0.145 0.145 0.548 151 
1584B 3.955 0.89 P 
KCT 4.308 0.56 P 
1023 4.605 0.72 P 
1586 5.595 0.87 P 
B046 5.603 0.89 P 
89255 5.875 0.84 P 
89462 6.145 0.88 P 
1582 6.295 0.89 P 
PETL 6.585 0.64 P 
KCO 6.898 0.90 P 
89781 7.335 0.86 P 
BJES 8.685 0.80 P 
KPR 9.125 0.73 P 
KCR 9.645 0.64 P 
DMOR 10.065 0.61 P 
PRDS 10.709 0.60 P 
KBU 10.835 0.81 P 
89688 10.945 0.78 P 
KMR 12.218 0.58 P 
KHMB 12.328 0.56 P 
B935 12.543 0.86 P 
1591 13.235 0.86 P 
KCSB 13.608 0.78 P 
HAYF 15.658 0.76 P 
B934 16.003 0.72 P 
KBN 20.325 0.71 P 
LBK 24.105 0.58 P 
1584B 6.785 0.72 S 
KCT 7.498 0.69 S 
1023 8.465 0.81 S 
1586 10.135 0.85 S 
B046 10.423 0.84 S 
89255 10.575 0.83 S 
89462 10.765 0.83 S 
PETL 11.175 0.55 S 
1582 11.465 0.82 S 
1581 11.975 0.66 S 
KCO 12.778 0.88 S 
89781 13.165 0.78 S 
KPR 16.135 0.57 S 
KNEE 16.435 0.55 S 
KCR 17.525 0.67 S 
PRDS 18.409 0.60 S 
89688 18.725 0.65 S 
DMOR 19.015 0.84 S 
KBU 19.095 0.64 S 
B049 19.243 0.74 S 
BRIC 21.615 0.64 S 
KHMB 22.018 0.66 S 
KMR 22.118 0.85 S 
B935 22.383 0.72 S 
1591 23.335 0.80 S 
B934 27.283 0.76 S 
HAYF 29.658 0.53 S 
PETY 40.978 0.60 S 
# 2022 12 20 11 38 28.045 40.5134 -124.3568 16.590 0.768 0.193 0.193 0.435 152 
KCT 3.978 0.63 P 
1586 5.205 0.84 P 
KMPB 5.478 0.82 P 
B046 5.543 0.86 P 
1582 5.755 0.73 P 
KCO 6.678 0.82 P 
KPR 8.395 0.68 P 
KCR 9.285 0.79 P 
PRDS 9.845 0.64 P 
KBU 10.055 0.73 P 
89688 10.175 0.80 P 
BRIC 11.605 0.68 P 
KCT 7.328 0.68 S 
1586 9.475 0.84 S 
KMPB 9.718 0.83 S 
B046 9.773 0.84 S 
1582 10.845 0.80 S 
1581 11.425 0.61 S 
KCO 11.778 0.81 S 
KPR 14.995 0.66 S 
KCR 16.275 0.57 S 
KNEE 16.829 0.55 S 
PRDS 17.679 0.54 S 
89688 18.155 0.81 S 
B049 18.203 0.70 S 
KBU 18.205 0.77 S 
BRIC 20.815 0.62 S 
KMR 21.198 0.67 S 
B935 21.293 0.77 S 
1591 22.465 0.78 S 
# 2022 12 20 11 39 13.872 40.4628 -124.5126 18.734 0.933 0.222 0.222 0.356 153 
KCT 5.121 0.70 P 
B046 6.006 0.88 P 
PETL 6.068 0.62 P 
KCO 6.871 0.88 P 
KMPB 7.041 0.84 P 
1586 7.048 0.79 P 
RBOW 7.648 0.64 P 
KPR 9.098 0.63 P 
PRDS 10.208 0.58 P 
89688 10.378 0.85 P 
KBU 11.428 0.61 P 
B049 11.646 0.85 P 
BRIC 11.688 0.68 P 
KCT 9.091 0.63 S 
B046 10.386 0.84 S 
PETL 10.498 0.53 S 
KCO 12.051 0.83 S 
1586 12.868 0.81 S 
RBOW 13.358 0.51 S 
89255 13.628 0.76 S 
1582 14.018 0.82 S 
1581 14.298 0.75 S 
KPR 16.038 0.67 S 
PRDS 17.942 0.60 S 
89688 18.128 0.83 S 
KBU 20.308 0.68 S 
B049 20.466 0.85 S 
BRIC 21.978 0.64 S 
B935 23.916 0.58 S 
# 2022 12 20 11 39 46.753 40.4304 -124.3765 27.667 1.540 0.187 0.187 0.486 154 
KCO 5.090 0.73 P 
KCT 5.100 0.89 P 
B046 5.495 0.90 P 
PETL 5.537 0.81 P 
RBOW 5.707 0.59 P 
1023 7.077 0.86 P 
KPR 7.887 0.56 P 
PRDS 9.077 0.57 P 
89688 9.137 0.78 P 
KCR 9.147 0.70 P 
KNEE 9.441 0.82 P 
KBU 9.497 0.86 P 
B049 9.585 0.80 P 
BJES 9.927 0.81 P 
BRIC 10.907 0.55 P 
KMR 11.460 0.78 P 
1591 11.557 0.86 P 
KHMB 12.470 0.83 P 
KRP 13.750 0.77 P 
99700 15.097 0.57 P 
HAYF 15.370 0.76 P 
KFP 18.157 0.66 P 
KBN 18.617 0.78 P 
DCMP 20.188 0.66 P 
B046 9.465 0.84 S 
1584B 9.517 0.85 S 
KCT 9.700 0.68 S 
PETL 9.887 0.53 S 
KCO 10.780 0.76 S 
RBOW 11.127 0.58 S 
1023 11.327 0.84 S 
89462 11.617 0.63 S 
1586 12.367 0.83 S 
89255 12.417 0.56 S 
1582 13.347 0.74 S 
1581 13.747 0.66 S 
KPR 14.017 0.70 S 
PRDS 15.487 0.53 S 
89688 15.717 0.53 S 
KCR 15.967 0.64 S 
KNEE 16.807 0.76 S 
KBU 17.197 0.61 S 
BRIC 18.737 0.63 S 
KMR 19.820 0.82 S 
1591 20.577 0.83 S 
B935 21.055 0.79 S 
KHMB 21.560 0.81 S 
KRP 23.940 0.80 S 
B934 24.255 0.80 S 
79046 24.497 0.74 S 
HAYF 27.108 0.54 S 
KHBB 27.770 0.66 S 
KFP 31.487 0.62 S 
DCMP 35.140 0.60 S 
# 2022 12 20 11 40 9.297 41.2844 -124.6780 7.506 1.073 1.202 1.202 1.073 155 
89781 13.033 0.63 P 
1582 15.943 0.68 P 
1586 16.163 0.61 P 
89255 17.063 0.55 P 
B935 19.581 0.70 P 
KPR 20.023 0.52 P 
KBU 20.133 0.54 P 
B049 20.211 0.63 P 
KCO 20.316 0.54 P 
BRIC 22.893 0.51 P 
KHBB 23.336 0.51 P 
KCR 35.753 0.52 S 
KBU 37.633 0.58 S 
BRIC 40.343 0.52 S 
# 2022 12 20 11 40 28.545 40.5158 -124.3801 15.548 0.913 0.157 0.157 0.580 156 
KCT 4.298 0.53 P 
B046 4.383 0.69 P 
89255 4.875 0.81 P 
KMPB 4.978 0.62 P 
PETL 5.295 0.62 P 
1586 5.485 0.86 P 
1582 6.165 0.86 P 
RBOW 6.515 0.75 P 
KPR 8.305 0.61 P 
KNEE 9.059 0.82 P 
KCR 9.425 0.73 P 
KBU 10.425 0.74 P 
PRDS 10.699 0.66 P 
89688 11.505 0.80 P 
BRIC 12.105 0.63 P 
B935 12.183 0.70 P 
1591 12.785 0.82 P 
1584B 6.825 0.76 S 
KCT 7.588 0.69 S 
1586 9.985 0.83 S 
B046 10.023 0.70 S 
KMPB 10.098 0.81 S 
89255 10.195 0.74 S 
89462 10.475 0.74 S 
1582 11.315 0.82 S 
1581 11.895 0.71 S 
KCO 11.988 0.72 S 
KPR 15.455 0.73 S 
KNEE 16.029 0.78 S 
KCR 16.705 0.58 S 
PRDS 17.775 0.66 S 
89688 18.495 0.72 S 
B049 18.553 0.81 S 
KBU 20.065 0.53 S 
BRIC 21.065 0.69 S 
B935 21.713 0.75 S 
KMR 21.748 0.77 S 
1591 22.705 0.82 S 
HAYF 29.036 0.54 S 
# 2022 12 20 11 40 44.562 40.3567 -124.2840 20.804 1.277 0.285 0.285 0.787 157 
B046 2.926 0.71 P 
PETL 4.128 0.58 P 
KCO 4.131 0.81 P 
KPR 6.088 0.60 P 
KCR 6.928 0.54 P 
PRDS 7.222 0.59 P 
89688 7.758 0.77 P 
B049 7.986 0.70 P 
BRIC 9.398 0.61 P 
B046 7.336 0.79 S 
PETL 7.938 0.53 S 
KMPB 7.951 0.69 S 
KPR 9.908 0.61 S 
PRDS 11.608 0.52 S 
89688 12.008 0.72 S 
KCR 14.638 0.66 S 
BRIC 14.888 0.61 S 
B049 16.546 0.55 S 
# 2022 12 20 11 41 4.607 40.5127 -124.3709 17.355 0.893 0.238 0.238 0.596 158 
KCT 3.686 0.80 P 
1586 4.963 0.77 P 
1582 5.703 0.72 P 
B046 6.081 0.83 P 
KCO 6.236 0.77 P 
PETL 6.433 0.53 P 
RBOW 7.533 0.76 P 
KPR 8.223 0.54 P 
KNEE 9.563 0.53 P 
KCR 10.263 0.73 P 
KCT 7.926 0.80 S 
B046 9.281 0.72 S 
1586 9.643 0.81 S 
PETL 10.053 0.57 S 
1582 11.053 0.78 S 
KCO 11.566 0.77 S 
KCR 15.783 0.59 S 
B049 18.571 0.75 S 
KBU 18.923 0.75 S 
89688 19.033 0.72 S 
BRIC 21.063 0.58 S 
KMR 21.296 0.60 S 
# 2022 12 20 11 41 24.114 40.5158 -124.3969 17.185 1.488 0.150 0.150 0.478 159 
KCT 4.089 0.69 P 
B046 5.654 0.84 P 
89462 6.046 0.81 P 
KMPB 6.069 0.72 P 
PETL 6.086 0.60 P 
KCO 6.829 0.86 P 
RBOW 7.176 0.66 P 
BJES 8.616 0.82 P 
89781 8.766 0.71 P 
KPR 8.876 0.64 P 
KNEE 9.096 0.71 P 
KCR 9.606 0.64 P 
DMOR 9.936 0.67 P 
PRDS 10.060 0.63 P 
89688 10.416 0.87 P 
KBU 10.596 0.67 P 
B049 10.754 0.85 P 
BRIC 12.216 0.63 P 
KMR 12.339 0.85 P 
B935 12.354 0.85 P 
1584B 6.786 0.65 S 
KCT 7.359 0.53 S 
1023 8.586 0.80 S 
B046 9.984 0.76 S 
1586 10.146 0.69 S 
KMPB 10.719 0.60 S 
PETL 10.776 0.53 S 
89255 10.786 0.66 S 
89462 10.946 0.79 S 
1582 11.406 0.74 S 
1581 11.936 0.77 S 
RBOW 12.066 0.58 S 
KCO 12.149 0.85 S 
89781 13.246 0.76 S 
KPR 15.596 0.70 S 
KNEE 16.336 0.60 S 
KCR 17.456 0.71 S 
PRDS 17.906 0.56 S 
89688 18.236 0.80 S 
KBU 18.976 0.71 S 
DMOR 19.136 0.83 S 
B049 19.194 0.85 S 
BRIC 21.446 0.62 S 
B935 22.184 0.85 S 
KMR 22.189 0.83 S 
1591 22.816 0.78 S 
B934 27.224 0.58 S 
# 2022 12 20 11 41 59.625 40.5408 -124.3566 16.570 2.165 0.142 0.142 0.700 160 
1023 2.765 0.79 P 
1584B 3.875 0.88 P 
KCT 4.248 0.57 P 
1586 5.045 0.83 P 
89255 5.125 0.88 P 
B046 5.563 0.82 P 
89462 5.625 0.90 P 
89781 5.755 0.86 P 
1581 5.825 0.89 P 
KMPB 5.978 0.66 P 
1582 6.175 0.74 P 
PETL 6.505 0.56 P 
RBOW 6.785 0.60 P 
KCO 7.048 0.87 P 
KPR 8.945 0.68 P 
BJES 9.145 0.84 P 
KCR 9.575 0.73 P 
PRDS 10.365 0.62 P 
B049 10.783 0.85 P 
89688 10.865 0.86 P 
KMR 11.118 0.61 P 
KHMB 12.138 0.68 P 
B935 12.313 0.83 P 
BRIC 12.395 0.55 P 
1591 13.025 0.86 P 
KRP 13.628 0.59 P 
KBN 20.095 0.60 P 
1584B 6.665 0.83 S 
KCT 7.358 0.74 S 
1023 8.275 0.56 S 
1582 9.535 0.78 S 
89462 9.815 0.86 S 
1586 9.855 0.52 S 
89781 10.065 0.70 S 
1581 10.345 0.84 S 
B046 10.353 0.84 S 
KMPB 10.358 0.66 S 
PETL 11.145 0.60 S 
RBOW 11.735 0.56 S 
KCO 12.458 0.84 S 
BJES 14.765 0.64 S 
KPR 15.665 0.63 S 
KNEE 16.059 0.51 S 
KCR 16.585 0.65 S 
PRDS 18.125 0.53 S 
DMOR 18.825 0.60 S 
89688 18.865 0.81 S 
KBU 18.885 0.66 S 
B049 18.953 0.80 S 
KMR 19.478 0.74 S 
BRIC 21.505 0.61 S 
KHMB 21.668 0.62 S 
B935 22.113 0.59 S 
1591 22.905 0.78 S 
# 2022 12 20 11 42 54.534 40.5172 -124.3500 17.854 3.697 0.121 0.121 0.461 161 
1584B 3.656 0.89 P 
KCT 4.179 0.59 P 
1023 4.236 0.91 P 
1586 5.026 0.88 P 
89255 5.196 0.89 P 
89462 5.386 0.86 P 
KMPB 5.569 0.66 P 
1582 5.806 0.87 P 
B046 5.844 0.89 P 
1581 6.176 0.88 P 
PETL 6.346 0.70 P 
RBOW 6.526 0.55 P 
89781 6.956 0.89 P 
KCO 7.009 0.89 P 
BJES 7.906 0.83 P 
KNEE 8.410 0.64 P 
KPR 8.546 0.64 P 
KCR 8.976 0.65 P 
PRDS 10.136 0.59 P 
KBU 10.176 0.61 P 
B049 10.324 0.83 P 
89688 10.426 0.86 P 
KTD 10.636 0.85 P 
KHMB 11.659 0.57 P 
B935 11.744 0.84 P 
KMR 11.909 0.64 P 
BRIC 11.986 0.57 P 
1591 12.456 0.87 P 
KCSB 12.699 0.84 P 
KRP 12.799 0.87 P 
B934 15.444 0.88 P 
KHBB 15.629 0.56 P 
79046 15.676 0.86 P 
KOM 17.679 0.83 P 
RVIT 18.036 0.51 P 
KFP 19.226 0.52 P 
KBN 19.776 0.58 P 
PETY 21.007 0.54 P 
DCMP 21.357 0.66 P 
KRK 22.026 0.80 P 
GNR 23.056 0.85 P 
LBK 23.276 0.78 P 
GWR 24.826 0.80 P 
1584B 6.436 0.81 S 
KCT 7.369 0.74 S 
1023 8.086 0.83 S 
1586 9.396 0.82 S 
89255 9.566 0.80 S 
KMPB 9.749 0.64 S 
89462 9.806 0.83 S 
B046 10.074 0.81 S 
1582 10.726 0.78 S 
PETL 10.986 0.53 S 
RBOW 11.206 0.59 S 
1581 11.436 0.83 S 
KCO 12.159 0.84 S 
89781 12.426 0.83 S 
KPR 14.876 0.68 S 
KNEE 15.176 0.55 S 
KCR 16.056 0.65 S 
PRDS 17.866 0.55 S 
DMOR 17.946 0.83 S 
KBU 18.026 0.83 S 
89688 18.046 0.79 S 
B049 18.284 0.84 S 
BRIC 20.826 0.58 S 
KHMB 20.829 0.68 S 
KMR 20.939 0.63 S 
B935 21.184 0.85 S 
1591 22.156 0.81 S 
KRP 22.429 0.84 S 
KCSB 22.909 0.84 S 
B934 26.564 0.84 S 
79046 27.166 0.83 S 
KHBB 29.279 0.64 S 
RVIT 32.636 0.81 S 
KFP 33.446 0.74 S 
79298 33.876 0.69 S 
MNDO 36.836 0.71 S 
GNR 40.276 0.58 S 
GBL 41.066 0.51 S 
GHO 44.416 0.67 S 
# 2022 12 20 11 43 7.528 39.8180 -123.4076 30.578 3.192 0.409 0.409 1.069 162 
KIP 4.772 0.53 P 
KFP 6.272 0.54 P 
KBN 6.562 0.50 P 
DCMP 8.475 0.58 P 
GROB 10.982 0.75 P 
GTSB 16.282 0.52 P 
GHGB 16.805 0.61 P 
GSR 17.122 0.69 P 
KFP 10.112 0.72 S 
DCMP 12.545 0.55 S 
KBN 12.872 0.54 S 
KRK 14.922 0.62 S 
GROB 17.762 0.72 S 
GVA 18.152 0.59 S 
# 2022 12 20 11 43 45.251 40.5300 -124.3574 27.619 1.747 0.228 0.228 0.550 163 
1582 5.379 0.74 P 
1586 5.609 0.83 P 
1581 5.619 0.76 P 
B046 6.077 0.81 P 
89462 6.279 0.85 P 
PETL 6.309 0.68 P 
KMPB 6.502 0.85 P 
KCO 6.882 0.80 P 
RBOW 7.029 0.71 P 
KNEE 8.633 0.84 P 
KPR 8.649 0.65 P 
KCR 9.289 0.56 P 
DMOR 9.319 0.52 P 
B049 9.587 0.76 P 
PRDS 9.789 0.61 P 
89688 10.149 0.86 P 
KMR 11.022 0.80 P 
BRIC 12.069 0.71 P 
79046 15.319 0.79 P 
B934 15.787 0.84 P 
1584B 8.409 0.84 S 
KCT 9.342 0.55 S 
1023 9.659 0.64 S 
89255 10.369 0.60 S 
1586 10.369 0.84 S 
B046 10.767 0.81 S 
1582 11.209 0.82 S 
KMPB 11.282 0.58 S 
PETL 11.319 0.52 S 
1581 11.529 0.79 S 
89462 11.559 0.75 S 
RBOW 12.449 0.53 S 
BJES 14.129 0.62 S 
KPR 15.239 0.66 S 
KNEE 15.659 0.66 S 
KBU 15.759 0.72 S 
KCR 16.559 0.80 S 
B049 17.287 0.82 S 
PRDS 17.513 0.56 S 
89688 17.759 0.81 S 
KHMB 20.302 0.59 S 
B934 26.567 0.77 S 
79046 26.989 0.82 S 
# 2022 12 20 11 44 15.816 40.5886 -124.0801 14.849 1.198 0.175 0.175 0.496 164 
89462 2.214 0.83 P 
89255 2.914 0.87 P 
KMPB 4.227 0.80 P 
1586 4.344 0.87 P 
1582 4.404 0.87 P 
KNEE 4.934 0.52 P 
89781 5.124 0.87 P 
RBOW 6.424 0.57 P 
KCR 6.474 0.69 P 
B046 7.482 0.86 P 
KBU 7.974 0.84 P 
PETL 7.984 0.81 P 
KCO 8.397 0.82 P 
B049 8.442 0.85 P 
KPR 8.574 0.80 P 
B935 9.202 0.77 P 
PRDS 10.948 0.64 P 
HAYF 13.177 0.71 P 
89255 7.014 0.81 S 
1582 8.164 0.83 S 
1586 8.184 0.84 S 
1581 9.154 0.84 S 
89781 9.234 0.83 S 
KMPB 9.377 0.82 S 
KNEE 9.538 0.77 S 
1584B 9.574 0.67 S 
KCT 10.207 0.68 S 
KCR 10.954 0.58 S 
RBOW 11.314 0.63 S 
DMOR 11.994 0.55 S 
B046 13.072 0.83 S 
KPR 15.034 0.64 S 
KBU 15.944 0.62 S 
B049 16.202 0.82 S 
B935 16.602 0.77 S 
KMR 18.927 0.75 S 
PRDS 18.954 0.52 S 
# 2022 12 20 11 44 58.628 40.5116 -124.3484 16.620 1.928 0.130 0.130 0.482 165 
1584B 3.632 0.85 P 
KCT 4.005 0.62 P 
1586 5.192 0.86 P 
89255 5.332 0.87 P 
89462 5.432 0.85 P 
KMPB 5.525 0.65 P 
B046 5.570 0.85 P 
1582 5.912 0.85 P 
PETL 6.082 0.55 P 
1581 6.282 0.88 P 
RBOW 6.342 0.62 P 
KCO 6.695 0.87 P 
BJES 8.002 0.82 P 
KPR 8.502 0.64 P 
KCR 8.992 0.66 P 
KBU 10.102 0.67 P 
PRDS 10.142 0.59 P 
B049 10.230 0.80 P 
89688 10.322 0.84 P 
KHMB 11.755 0.55 P 
KMR 11.775 0.79 P 
B935 11.790 0.82 P 
BRIC 11.872 0.60 P 
KCSB 12.825 0.83 P 
KRP 13.525 0.67 P 
HAYF 15.345 0.58 P 
KHBB 15.775 0.63 P 
KFP 19.172 0.57 P 
LBK 23.482 0.76 P 
1584B 6.462 0.81 S 
KCT 7.265 0.70 S 
1023 8.112 0.85 S 
1586 9.602 0.79 S 
KMPB 9.675 0.63 S 
B046 9.720 0.76 S 
89255 9.832 0.68 S 
89462 9.862 0.82 S 
PETL 10.602 0.60 S 
1582 10.952 0.76 S 
RBOW 11.032 0.53 S 
1581 11.592 0.84 S 
KCO 11.755 0.83 S 
89781 12.712 0.79 S 
BJES 14.412 0.54 S 
KPR 14.712 0.64 S 
KCR 16.102 0.63 S 
PRDS 17.532 0.54 S 
89688 17.822 0.78 S 
B049 18.150 0.83 S 
KBU 18.242 0.61 S 
DMOR 18.652 0.79 S 
BRIC 20.632 0.60 S 
KMR 20.945 0.54 S 
KHMB 20.975 0.63 S 
B935 21.320 0.83 S 
1591 22.142 0.72 S 
B934 26.310 0.79 S 
HAYF 28.633 0.59 S 
PETY 39.825 0.53 S 
# 2022 12 20 11 46 7.471 40.5990 -124.0491 25.166 2.172 0.169 0.169 0.336 166 
BJES 4.679 0.62 P 
89255 4.789 0.86 P 
1582 5.189 0.81 P 
KNEE 5.319 0.57 P 
1586 5.329 0.78 P 
89781 5.529 0.88 P 
1581 5.549 0.83 P 
KCT 5.662 0.59 P 
KMPB 5.812 0.58 P 
1023 5.819 0.85 P 
1584B 6.099 0.82 P 
KCR 6.439 0.69 P 
RBOW 6.729 0.62 P 
B046 7.637 0.86 P 
KHMB 8.252 0.68 P 
PETL 8.339 0.88 P 
KCO 8.392 0.85 P 
B935 8.417 0.87 P 
KPR 8.499 0.63 P 
KBU 8.619 0.66 P 
B049 8.647 0.86 P 
PRDS 8.659 0.67 P 
KCSB 9.242 0.84 P 
KMR 9.862 0.84 P 
KRP 10.562 0.84 P 
HAYF 11.962 0.59 P 
KHBB 12.052 0.66 P 
KOM 14.542 0.82 P 
WEAV 14.629 0.66 P 
TRIN 18.510 0.63 P 
LBK 19.719 0.86 P 
GUMB 22.563 0.52 P 
89255 9.039 0.83 S 
BJES 9.209 0.59 S 
89462 9.279 0.80 S 
KNEE 9.779 0.55 S 
1582 9.889 0.80 S 
1586 10.019 0.78 S 
89781 10.139 0.83 S 
KMPB 10.462 0.63 S 
1581 10.509 0.81 S 
1023 10.989 0.81 S 
KCR 11.579 0.58 S 
RBOW 11.939 0.54 S 
B046 13.757 0.83 S 
KBU 14.689 0.65 S 
KCO 14.782 0.83 S 
PETL 14.909 0.58 S 
KHMB 14.982 0.63 S 
KPR 15.089 0.65 S 
B935 15.177 0.82 S 
B049 15.567 0.79 S 
KCSB 16.612 0.81 S 
KMR 17.832 0.62 S 
KRP 19.142 0.78 S 
89688 19.239 0.56 S 
KHBB 21.222 0.64 S 
HAYF 21.302 0.58 S 
B934 25.547 0.63 S 
WEAV 25.639 0.62 S 
TRIN 32.490 0.63 S 
LBK 34.179 0.76 S 
# 2022 12 20 11 46 19.517 40.5428 -124.2373 19.191 1.840 0.160 0.160 0.482 167 
1584B 4.623 0.58 P 
KCT 4.926 0.83 P 
1586 4.973 0.85 P 
RBOW 5.843 0.64 P 
B046 6.001 0.84 P 
KCO 6.976 0.86 P 
KNEE 7.093 0.67 P 
KCR 7.613 0.71 P 
DMOR 7.813 0.54 P 
KPR 8.013 0.70 P 
KBU 9.173 0.69 P 
B049 9.311 0.80 P 
KHMB 10.326 0.66 P 
KMR 10.936 0.67 P 
BRIC 11.403 0.60 P 
1591 11.633 0.85 P 
1584B 7.533 0.72 S 
1023 7.853 0.84 S 
89255 7.953 0.84 S 
89462 8.333 0.83 S 
1586 8.353 0.80 S 
KCT 8.696 0.58 S 
1582 9.253 0.80 S 
1581 10.103 0.82 S 
RBOW 10.333 0.51 S 
B046 10.621 0.80 S 
89781 10.883 0.82 S 
BJES 11.703 0.63 S 
KCO 12.406 0.83 S 
KCR 13.813 0.56 S 
KPR 14.133 0.61 S 
KBU 16.733 0.61 S 
B049 16.781 0.80 S 
89688 17.733 0.78 S 
KHMB 18.706 0.64 S 
B935 18.821 0.72 S 
KMR 19.856 0.61 S 
BRIC 20.263 0.57 S 
KCSB 20.606 0.67 S 
1591 20.893 0.81 S 
KRP 21.206 0.77 S 
99700 23.483 0.61 S 
B934 25.901 0.82 S 
KHBB 26.426 0.55 S 
79046 27.013 0.78 S 
# 2022 12 20 11 47 1.913 40.7144 -123.9713 19.493 2.067 0.148 0.148 0.845 168 
KNEE 4.077 0.52 P 
DMOR 4.397 0.59 P 
89781 4.647 0.92 P 
1582 5.007 0.71 P 
1581 5.247 0.87 P 
BJES 5.507 0.66 P 
1586 5.807 0.75 P 
KHMB 6.500 0.64 P 
KCR 7.507 0.54 P 
B935 8.465 0.76 P 
KCSB 9.060 0.83 P 
B046 9.525 0.76 P 
RBOW 10.657 0.65 P 
PETL 11.087 0.80 P 
KHBB 11.440 0.67 P 
HAYF 11.920 0.64 P 
KOM 13.060 0.81 P 
WEAV 13.727 0.71 P 
PRDS 14.567 0.57 P 
LBK 18.777 0.81 P 
SCOT 18.820 0.80 P 
KNEE 7.621 0.68 S 
89781 8.537 0.86 S 
DMOR 9.277 0.57 S 
1582 9.817 0.83 S 
1581 9.927 0.82 S 
BJES 10.077 0.60 S 
1586 11.097 0.82 S 
KHMB 11.770 0.67 S 
1023 11.807 0.77 S 
KCR 13.257 0.54 S 
KMPB 13.330 0.56 S 
89462 13.487 0.72 S 
1584B 13.777 0.66 S 
RBOW 15.137 0.50 S 
B046 15.145 0.62 S 
B935 15.225 0.82 S 
KCSB 16.100 0.84 S 
KRP 16.780 0.67 S 
KCO 17.110 0.77 S 
KHBB 20.420 0.60 S 
KMR 20.790 0.53 S 
HAYF 20.860 0.54 S 
BRIC 22.867 0.51 S 
89688 22.977 0.62 S 
KOM 23.100 0.78 S 
WEAV 25.007 0.60 S 
TRIN 33.340 0.58 S 
# 2022 12 20 11 47 18.800 40.5205 -124.2582 14.135 1.515 0.155 0.155 1.259 169 
89255 4.140 0.84 P 
89462 5.330 0.85 P 
PETL 6.010 0.69 P 
89781 7.360 0.83 P 
KCO 7.713 0.85 P 
KBU 7.720 0.50 P 
B049 7.858 0.54 P 
KPR 9.430 0.68 P 
PRDS 10.834 0.51 P 
89688 11.160 0.83 P 
KHMB 12.803 0.65 P 
B935 12.888 0.61 P 
KCT 4.293 0.64 S 
1023 5.250 0.87 S 
1586 6.830 0.78 S 
89255 7.260 0.84 S 
89462 7.410 0.75 S 
1582 8.120 0.79 S 
B046 10.818 0.82 S 
PETL 11.650 0.61 S 
KCO 12.773 0.81 S 
KPR 12.850 0.72 S 
89781 13.620 0.51 S 
KCR 14.020 0.68 S 
BJES 15.330 0.70 S 
PRDS 15.404 0.62 S 
KBU 16.040 0.80 S 
B049 16.058 0.78 S 
KHMB 18.643 0.53 S 
KMR 19.043 0.50 S 
B935 19.178 0.67 S 
1591 20.250 0.80 S 
HAYF 26.373 0.54 S 
# 2022 12 20 11 48 33.757 40.5162 -124.4113 17.075 3.311 0.119 0.119 0.570 170 
1584B 4.003 0.88 P 
KCT 4.196 0.59 P 
1586 5.643 0.89 P 
B046 5.931 0.87 P 
89255 5.993 0.86 P 
89462 6.223 0.87 P 
KMPB 6.286 0.64 P 
1582 6.323 0.87 P 
PETL 6.393 0.60 P 
1581 6.623 0.88 P 
KCO 7.086 0.88 P 
RBOW 7.093 0.54 P 
89781 7.443 0.89 P 
BJES 8.793 0.80 P 
KPR 9.093 0.62 P 
KNEE 9.207 0.53 P 
KCR 9.823 0.60 P 
DMOR 10.103 0.60 P 
PRDS 10.313 0.61 P 
89688 10.593 0.85 P 
KBU 10.833 0.64 P 
B049 10.941 0.82 P 
KTD 11.093 0.88 P 
KHMB 12.316 0.58 P 
KMR 12.486 0.59 P 
B935 12.541 0.84 P 
KRP 12.976 0.85 P 
1591 13.033 0.84 P 
KCSB 13.436 0.84 P 
B934 15.901 0.83 P 
79046 16.093 0.87 P 
KIP 18.123 0.56 P 
KOM 18.316 0.87 P 
KFP 19.743 0.52 P 
KBN 20.153 0.87 P 
DCMP 21.864 0.69 P 
KRK 22.563 0.83 P 
GNR 23.403 0.68 P 
TRIN 23.656 0.51 P 
LBK 24.013 0.78 P 
GBL 24.233 0.54 P 
GROB 24.893 0.79 P 
GWR 25.173 0.86 P 
LRB 25.173 0.58 P 
GVA 25.483 0.83 P 
GHO 25.713 0.91 P 
GTSB 30.127 0.57 P 
GSR 30.893 0.91 P 
GHGB 30.896 0.81 P 
1584B 7.013 0.82 S 
KCT 7.456 0.72 S 
1023 8.723 0.71 S 
B046 10.301 0.82 S 
1586 10.323 0.83 S 
89255 10.883 0.72 S 
KMPB 10.946 0.65 S 
PETL 11.083 0.55 S 
89462 11.163 0.80 S 
1582 11.643 0.79 S 
1581 12.063 0.84 S 
RBOW 12.213 0.58 S 
KCO 12.406 0.84 S 
89781 13.333 0.82 S 
BJES 15.653 0.82 S 
KPR 15.973 0.68 S 
KNEE 16.573 0.61 S 
KCR 17.593 0.69 S 
PRDS 18.233 0.53 S 
89688 18.353 0.78 S 
KBU 19.253 0.65 S 
DMOR 19.293 0.82 S 
B049 19.461 0.80 S 
KTD 19.973 0.83 S 
KHMB 21.496 0.67 S 
BRIC 21.683 0.65 S 
KMR 22.376 0.65 S 
B935 22.641 0.83 S 
1591 23.063 0.84 S 
KCSB 24.126 0.82 S 
B934 27.291 0.85 S 
79046 27.833 0.83 S 
KOM 31.196 0.71 S 
KIP 32.173 0.85 S 
79298 34.093 0.68 S 
RVIT 34.333 0.59 S 
KFP 34.613 0.82 S 
MNDO 37.273 0.66 S 
79668 40.453 0.83 S 
GNR 40.693 0.56 S 
PETY 41.206 0.55 S 
GBL 41.493 0.76 S 
GVA 42.903 0.75 S 
GWR 44.213 0.80 S 
GHO 44.933 0.56 S 
GTSB 52.527 0.55 S 
# 2022 12 20 11 49 9.403 40.5165 -124.3410 16.856 1.456 0.233 0.233 0.369 171 
1584B 3.747 0.85 P 
KCT 4.070 0.63 P 
1586 4.927 0.86 P 
89255 5.157 0.86 P 
KPR 8.007 0.74 P 
KCR 8.927 0.71 P 
B049 10.095 0.71 P 
PRDS 10.347 0.56 P 
89688 10.487 0.82 P 
1584B 6.367 0.83 S 
KCT 7.180 0.66 S 
1586 9.177 0.82 S 
89255 9.477 0.81 S 
1582 10.577 0.79 S 
KBU 17.867 0.76 S 
89688 18.117 0.80 S 
B049 18.175 0.51 S 
PRDS 18.287 0.64 S 
