# 2022 12 20 10 39 2.299 40.5215 -124.1779 27.242 4.595 0.130 0.130 0.468 20 
1584B.NP 4.861 0.90 P 
89462.CE 5.001 0.97 P 
KMPB.NC 5.124 0.40 P 
1023.NP 5.161 0.99 P 
1586.NP 5.341 0.97 P 
B045.PB 5.439 0.90 P 
KCT.NC 5.504 0.48 P 
1582.NP 5.681 0.95 P 
RBOW.BK 5.841 0.52 P 
1581.NP 6.041 0.89 P 
B046.PB 6.059 0.99 P 
B932.PB 6.329 0.88 P 
BJES.BK 6.341 0.74 P 
89781.CE 6.401 0.93 P 
B047.PB 6.769 0.95 P 
KCO.NC 6.884 0.89 P 
PETL.BK 6.971 0.58 P 
KNEE.BK 7.091 0.52 P 
KCR.NC 7.241 0.72 P 
KPR.NC 7.591 0.64 P 
1580.NP 7.621 0.96 P 
DMOR.BK 7.741 0.35 P 
KBU.NC 8.521 0.69 P 
B049.PB 8.589 0.95 P 
PRDS.BK 9.381 0.63 P 
89688.CE 9.521 0.82 P 
B935.PB 9.689 1.02 P 
KTD.NC 10.001 1.00 P 
KHMB.NC 10.114 0.66 P 
KMR.NC 10.134 0.65 P 
KCSB.NC 10.554 0.99 P 
BRIC.BK 10.611 0.40 P 
1591.NP 10.771 1.00 P 
KRP.NC 11.974 0.93 P 
99700.CE 13.301 0.65 P 
HAYF.BK 13.344 0.57 P 
KHBB.NC 13.714 0.67 P 
B934.PB 14.019 0.89 P 
79046.CE 14.461 0.94 P 
RVIT.BK 16.171 0.88 P 
WEAV.BK 16.291 0.45 P 
KOM.NC 16.294 0.47 P 
KFP.NC 18.111 0.67 P 
79036.CE 18.311 0.93 P 
79298.CE 18.431 0.97 P 
MNDO.BK 20.021 0.99 P 
TRIN.BK 20.294 0.41 P 
KRK.NC 20.741 0.53 P 
LSF.NC 21.311 1.03 P 
79668.CE 21.391 1.05 P 
LBK.NC 21.561 1.05 P 
SCOT.BK 22.072 0.34 P 
LRB.NC 22.671 0.58 P 
GBL.NC 22.711 0.58 P 
GVA.NC 23.031 0.66 P 
GWR.NC 23.591 0.36 P 
GUMB.BK 24.091 0.34 P 
GHO.NC 24.111 0.66 P 
GCWB.NC 25.831 0.38 P 
1584B.NP 8.791 0.97 S 
89462.CE 9.151 0.84 S 
KMPB.NC 9.164 0.69 S 
B045.PB 9.719 0.93 S 
1023.NP 9.831 0.59 S 
1586.NP 10.001 0.89 S 
KCT.NC 10.234 0.66 S 
RBOW.BK 10.451 0.39 S 
1582.NP 10.671 0.90 S 
B046.PB 11.009 0.95 S 
1581.NP 11.301 0.97 S 
BJES.BK 11.451 0.46 S 
89781.CE 11.711 0.94 S 
B047.PB 12.079 0.91 S 
PETL.BK 12.181 0.33 S 
KCO.NC 12.644 0.92 S 
KCR.NC 12.771 0.46 S 
KNEE.BK 12.885 0.40 S 
1580.NP 13.771 0.93 S 
KPR.NC 14.071 0.51 S 
DMOR.BK 14.591 0.90 S 
B049.PB 15.309 0.93 S 
KBU.NC 15.431 0.54 S 
89688.CE 16.901 0.85 S 
B935.PB 17.389 0.94 S 
KHMB.NC 17.874 0.59 S 
KTD.NC 18.041 0.94 S 
KMR.NC 18.074 0.52 S 
BRIC.BK 18.401 0.47 S 
KCSB.NC 18.904 0.95 S 
1591.NP 19.001 0.91 S 
KRP.NC 21.304 0.92 S 
99700.CE 23.751 0.88 S 
KHBB.NC 23.954 0.51 S 
B934.PB 24.459 0.93 S 
79046.CE 25.431 0.96 S 
KOM.NC 28.354 0.95 S 
RVIT.BK 28.511 0.35 S 
WEAV.BK 28.611 0.46 S 
KFP.NC 31.481 0.51 S 
79298.CE 31.901 0.54 S 
PETY.BK 32.654 0.73 S 
DCMP.BK 34.984 0.61 S 
MNDO.BK 35.351 0.98 S 
TRIN.BK 35.362 0.40 S 
SCOT.BK 37.964 0.50 S 
LSF.NC 38.631 0.72 S 
GBL.NC 40.371 0.73 S 
GWR.NC 40.731 0.90 S 
GUMB.BK 42.281 0.49 S 
GHO.NC 42.711 0.50 S 
GCWB.NC 44.261 0.65 S 
GTSB.BK 47.671 0.57 S 
# 2022 12 20 10 39 46.228 40.5358 -124.3314 16.681 2.826 0.164 0.164 0.371 21 
KCT.NC 4.035 0.69 P 
1586.NP 4.792 1.02 P 
89462.CE 5.292 0.96 P 
1582.NP 5.492 0.93 P 
KMPB.NC 5.495 0.63 P 
B046.PB 5.850 0.94 P 
1581.NP 5.882 0.93 P 
PETL.BK 6.382 0.45 P 
RBOW.BK 6.382 0.94 P 
B045.PB 6.530 0.95 P 
89781.CE 6.592 0.97 P 
KCO.NC 6.985 0.92 P 
B047.PB 7.190 0.97 P 
1580.NP 8.172 0.99 P 
KNEE.BK 8.366 0.36 P 
KPR.NC 8.522 0.58 P 
KCR.NC 9.002 0.86 P 
PRDS.BK 10.042 0.61 P 
KBU.NC 10.172 0.80 P 
B049.PB 10.270 0.88 P 
89688.CE 10.442 0.77 P 
KHMB.NC 11.455 0.87 P 
BRIC.BK 12.052 0.88 P 
1584B.NP 6.392 0.92 S 
KCT.NC 7.585 0.60 S 
1586.NP 9.022 0.95 S 
89462.CE 9.692 0.86 S 
KMPB.NC 9.715 0.61 S 
B046.PB 10.350 0.89 S 
PETL.BK 11.212 0.51 S 
RBOW.BK 11.252 0.57 S 
B045.PB 11.500 0.72 S 
89781.CE 12.222 0.83 S 
KCO.NC 12.265 0.78 S 
B047.PB 12.690 0.83 S 
1580.NP 14.642 0.94 S 
KPR.NC 15.342 0.61 S 
BJES.BK 15.372 0.75 S 
DMOR.BK 17.822 0.75 S 
PRDS.BK 18.062 0.42 S 
B049.PB 18.280 0.73 S 
KHMB.NC 20.605 0.83 S 
BRIC.BK 20.792 0.76 S 
# 2022 12 20 10 40 3.545 40.6174 -124.0975 19.528 2.726 0.180 0.180 0.435 22 
1586.NP 4.475 0.93 P 
1581.NP 4.685 0.89 P 
BJES.BK 4.705 0.93 P 
89781.CE 4.815 0.89 P 
89462.CE 4.855 0.94 P 
B045.PB 4.983 0.78 P 
KNEE.BK 5.455 0.53 P 
1584B.NP 5.485 0.93 P 
1580.NP 6.005 0.93 P 
KCR.NC 6.355 0.85 P 
KMPB.NC 6.448 0.53 P 
RBOW.BK 6.805 0.48 P 
B047.PB 8.213 0.88 P 
KHMB.NC 8.408 0.58 P 
KCO.NC 8.458 0.92 P 
KPR.NC 8.665 0.60 P 
B935.PB 9.093 0.97 P 
KBU.NC 9.265 0.55 P 
B049.PB 9.323 0.77 P 
KCSB.NC 10.028 0.85 P 
KMR.NC 10.768 0.82 P 
BRIC.BK 11.815 0.78 P 
KHBB.NC 12.568 0.84 P 
1586.NP 8.595 0.85 S 
89462.CE 8.985 0.85 S 
1581.NP 8.985 0.81 S 
89781.CE 8.985 0.75 S 
1023.NP 9.705 0.91 S 
KNEE.BK 9.785 0.46 S 
BJES.BK 9.945 0.90 S 
1584B.NP 10.025 0.75 S 
B045.PB 10.293 0.63 S 
KMPB.NC 10.388 0.60 S 
1580.NP 10.935 0.82 S 
RBOW.BK 12.095 0.50 S 
KCR.NC 12.675 0.85 S 
B046.PB 13.483 0.76 S 
B047.PB 14.563 0.86 S 
PETL.BK 14.715 0.41 S 
KCO.NC 15.068 0.89 S 
KHMB.NC 15.308 0.56 S 
KPR.NC 15.785 0.61 S 
KBU.NC 16.345 0.62 S 
B935.PB 16.673 0.89 S 
B049.PB 16.713 0.86 S 
KMR.NC 19.518 0.58 S 
BRIC.BK 21.175 0.79 S 
# 2022 12 20 10 40 16.908 40.5175 -124.4007 16.303 2.691 0.148 0.148 0.473 23 
KCT.NC 3.165 0.64 P 
1023.NP 4.622 0.98 P 
B046.PB 5.550 0.92 P 
89462.CE 5.602 0.93 P 
1586.NP 5.602 0.92 P 
PETL.BK 6.052 0.38 P 
KMPB.NC 6.165 0.59 P 
1581.NP 6.632 0.95 P 
RBOW.BK 6.912 0.33 P 
KCO.NC 6.995 0.91 P 
B045.PB 7.070 0.78 P 
B047.PB 7.550 0.89 P 
KPR.NC 8.862 0.48 P 
1580.NP 8.922 0.95 P 
KCR.NC 9.722 0.46 P 
DMOR.BK 10.182 0.89 P 
PRDS.BK 10.492 0.41 P 
89688.CE 10.622 0.86 P 
KBU.NC 10.762 0.70 P 
B049.PB 10.910 0.92 P 
BRIC.BK 12.262 0.33 P 
B935.PB 12.490 0.83 P 
1591.NP 12.692 0.90 P 
KMR.NC 12.725 0.80 P 
KHMB.NC 13.425 0.78 P 
1584B.NP 6.932 0.91 S 
KCT.NC 7.455 0.57 S 
1023.NP 8.742 0.85 S 
B046.PB 10.020 0.47 S 
1586.NP 10.292 0.51 S 
KMPB.NC 10.895 0.54 S 
PETL.BK 10.902 0.49 S 
89462.CE 11.182 0.77 S 
RBOW.BK 12.012 0.48 S 
1581.NP 12.112 0.74 S 
KCO.NC 12.305 0.80 S 
B047.PB 13.010 0.51 S 
89781.CE 13.422 0.59 S 
KPR.NC 15.912 0.64 S 
1580.NP 15.932 0.91 S 
KNEE.BK 16.652 0.34 S 
KCR.NC 17.502 0.75 S 
PRDS.BK 18.136 0.46 S 
89688.CE 18.532 0.75 S 
B049.PB 19.260 0.67 S 
DMOR.BK 19.342 0.83 S 
BRIC.BK 21.672 0.46 S 
1591.NP 22.982 0.78 S 
B934.PB 27.390 0.60 S 
79046.CE 27.662 0.55 S 
# 2022 12 20 10 40 29.882 40.5035 -124.4359 18.726 2.563 0.212 0.212 0.460 24 
1584B.NP 4.568 0.75 P 
KCT.NC 4.621 0.59 P 
89462.CE 5.038 0.41 P 
B046.PB 5.816 0.76 P 
PETL.BK 5.988 0.56 P 
1586.NP 6.028 0.65 P 
KMPB.NC 6.521 0.53 P 
KCO.NC 6.701 0.70 P 
RBOW.BK 7.148 0.41 P 
B047.PB 7.406 0.80 P 
KPR.NC 8.808 0.50 P 
PRDS.BK 9.888 0.54 P 
1584B.NP 8.218 0.81 S 
KCT.NC 8.621 0.54 S 
1023.NP 9.608 0.76 S 
B046.PB 10.326 0.77 S 
1586.NP 11.258 0.74 S 
KMPB.NC 11.501 0.48 S 
89462.CE 12.118 0.51 S 
KCO.NC 12.291 0.74 S 
1581.NP 12.528 0.51 S 
RBOW.BK 12.588 0.36 S 
B047.PB 12.976 0.79 S 
B045.PB 13.446 0.76 S 
KPR.NC 15.678 0.50 S 
B049.PB 19.516 0.51 S 
BRIC.BK 21.508 0.58 S 
# 2022 12 20 10 40 44.574 40.5371 -124.1505 28.827 2.386 0.216 0.216 0.714 25 
B045.PB 4.464 0.88 P 
89462.CE 5.286 0.94 P 
KMPB.NC 5.409 0.65 P 
1586.NP 5.626 0.86 P 
89781.CE 6.016 0.82 P 
RBOW.BK 6.026 0.45 P 
1581.NP 6.246 0.90 P 
B046.PB 6.354 0.92 P 
PETL.BK 7.036 0.78 P 
B047.PB 7.064 0.91 P 
1584B.NP 7.076 0.65 P 
KCO.NC 7.199 0.89 P 
KNEE.BK 7.316 0.34 P 
KBU.NC 7.376 0.76 P 
KCR.NC 7.406 0.46 P 
KPR.NC 7.836 0.65 P 
B049.PB 8.884 0.92 P 
DMOR.BK 9.106 0.40 P 
PRDS.BK 9.650 0.50 P 
89688.CE 9.916 0.89 P 
B935.PB 9.984 0.57 P 
KHBB.NC 10.019 0.46 P 
KHMB.NC 10.379 0.59 P 
BRIC.BK 10.876 0.86 P 
KMPB.NC 9.439 0.61 S 
B045.PB 9.444 0.81 S 
89462.CE 9.506 0.86 S 
1023.NP 10.036 0.75 S 
1586.NP 10.226 0.89 S 
RBOW.BK 10.596 0.47 S 
B046.PB 10.814 0.84 S 
1581.NP 11.476 0.91 S 
89781.CE 11.486 0.88 S 
BJES.BK 11.586 0.42 S 
B047.PB 12.234 0.86 S 
1580.NP 12.456 0.79 S 
KCO.NC 12.519 0.86 S 
KCR.NC 13.316 0.52 S 
KPR.NC 14.006 0.53 S 
KBU.NC 15.396 0.42 S 
PRDS.BK 16.276 0.42 S 
89688.CE 17.386 0.82 S 
BRIC.BK 18.406 0.73 S 
B934.PB 24.474 0.57 S 
79046.CE 25.516 0.36 S 
# 2022 12 20 10 41 6.381 40.3536 -124.2574 13.683 1.888 0.224 0.224 0.868 26 
KCT.NC 4.182 0.73 P 
PETL.BK 4.839 0.52 P 
1584B.NP 5.059 0.70 P 
1586.NP 7.759 0.48 P 
KHBB.NC 16.162 0.36 P 
B046.PB 4.277 0.66 S 
RBOW.BK 5.689 0.65 S 
KCO.NC 6.312 0.62 S 
B047.PB 6.907 0.77 S 
KPR.NC 8.969 0.46 S 
1584B.NP 9.329 0.63 S 
1023.NP 10.779 0.60 S 
1586.NP 11.839 0.60 S 
89688.CE 12.789 0.50 S 
KCR.NC 15.909 0.33 S 
# 2022 12 20 10 41 12.039 40.5624 -123.9033 25.586 2.056 0.277 0.277 0.886 27 
BJES.BK 4.171 0.57 P 
KMPB.NC 4.394 0.50 P 
KCR.NC 5.921 0.49 P 
B935.PB 6.639 0.94 P 
PETL.BK 6.921 0.73 P 
KCSB.NC 7.554 0.92 P 
HAYF.BK 10.302 0.39 P 
KHBB.NC 10.534 0.49 P 
1591.NP 10.731 0.63 P 
89688.CE 11.361 0.70 P 
BJES.BK 9.221 0.52 S 
KCR.NC 10.001 0.58 S 
KNEE.BK 11.131 0.64 S 
B935.PB 11.499 0.65 S 
1581.NP 12.711 0.67 S 
KCSB.NC 12.884 0.73 S 
B049.PB 13.099 0.88 S 
KHMB.NC 14.894 0.39 S 
KMR.NC 16.014 0.82 S 
1591.NP 17.261 0.64 S 
HAYF.BK 17.694 0.41 S 
KHBB.NC 18.224 0.51 S 
BRIC.BK 18.831 0.50 S 
89688.CE 19.401 0.55 S 
# 2022 12 20 10 41 33.478 40.6471 -124.0563 23.213 2.197 0.252 0.252 0.534 28 
1581.NP 4.632 0.77 P 
89781.CE 4.652 0.80 P 
1586.NP 4.892 0.76 P 
1580.NP 5.622 0.85 P 
DMOR.BK 5.652 0.37 P 
B045.PB 6.140 0.75 P 
KMPB.NC 6.275 0.58 P 
KCR.NC 7.282 0.51 P 
B935.PB 7.710 0.56 P 
B049.PB 8.970 0.37 P 
KCSB.NC 9.445 0.76 P 
KRP.NC 9.745 0.59 P 
KOM.NC 13.885 0.68 P 
89781.CE 8.762 0.75 S 
1581.NP 9.212 0.79 S 
1586.NP 9.382 0.74 S 
1580.NP 10.132 0.77 S 
BJES.BK 10.282 0.76 S 
1023.NP 10.632 0.64 S 
1584B.NP 11.032 0.72 S 
B045.PB 11.120 0.70 S 
KMPB.NC 11.365 0.55 S 
DMOR.BK 11.632 0.76 S 
KCR.NC 12.982 0.43 S 
KHMB.NC 14.135 0.72 S 
B049.PB 15.620 0.58 S 
B935.PB 16.100 0.71 S 
KMR.NC 19.005 0.33 S 
KOM.NC 26.295 0.34 S 
# 2022 12 20 10 41 41.472 40.4774 -124.3292 30.421 2.400 0.217 0.217 1.081 29 
RBOW.BK 5.598 0.34 P 
KCT.NC 6.341 0.56 P 
1586.NP 6.368 0.93 P 
B047.PB 6.536 0.89 P 
PETL.BK 6.548 0.69 P 
KCO.NC 6.721 0.86 P 
89462.CE 7.038 0.91 P 
1581.NP 7.158 1.02 P 
KPR.NC 7.328 0.58 P 
KMPB.NC 7.331 0.75 P 
89781.CE 7.738 0.98 P 
B045.PB 8.086 0.93 P 
KBU.NC 8.288 0.85 P 
BJES.BK 9.048 0.74 P 
PRDS.BK 9.178 0.69 P 
89688.CE 9.378 0.89 P 
KCR.NC 10.198 0.74 P 
BRIC.BK 10.458 0.45 P 
KMR.NC 10.931 0.46 P 
79046.CE 14.378 0.84 P 
HAYF.BK 16.389 0.38 P 
1584B.NP 9.108 0.80 S 
1023.NP 9.698 0.84 S 
KCT.NC 9.981 0.54 S 
RBOW.BK 10.038 0.39 S 
1586.NP 10.608 0.86 S 
PETL.BK 11.598 0.59 S 
89462.CE 11.658 0.82 S 
B047.PB 11.706 0.89 S 
1581.NP 11.998 0.89 S 
B046.PB 12.506 0.85 S 
KNEE.BK 12.532 0.56 S 
B045.PB 13.226 0.91 S 
KPR.NC 13.458 0.84 S 
B049.PB 14.926 0.68 S 
KBU.NC 14.978 0.78 S 
BJES.BK 15.138 0.75 S 
PRDS.BK 15.972 0.42 S 
89688.CE 16.858 0.78 S 
BRIC.BK 17.868 0.49 S 
KCR.NC 18.698 0.37 S 
KHMB.NC 20.631 0.75 S 
KCSB.NC 23.121 0.65 S 
79046.CE 24.578 0.75 S 
# 2022 12 20 10 42 25.581 40.5461 -124.1531 23.620 1.804 0.232 0.232 0.478 30 
89462.CE 4.689 0.96 P 
KMPB.NC 4.722 0.65 P 
B045.PB 5.097 0.88 P 
1023.NP 5.149 0.94 P 
1584B.NP 5.279 0.91 P 
1581.NP 5.659 0.91 P 
BJES.BK 5.889 0.82 P 
89781.CE 6.029 0.83 P 
RBOW.BK 6.229 0.55 P 
KNEE.BK 6.489 0.53 P 
B046.PB 6.787 0.92 P 
KCR.NC 7.199 0.72 P 
B047.PB 7.427 0.95 P 
89688.CE 8.529 0.48 P 
KBU.NC 8.589 0.93 P 
B049.PB 8.717 0.97 P 
B935.PB 9.537 0.89 P 
BRIC.BK 11.329 0.46 P 
KHBB.NC 13.132 0.48 P 
KMPB.NC 8.682 0.48 S 
89462.CE 8.809 0.85 S 
1586.NP 9.349 0.86 S 
1584B.NP 9.409 0.91 S 
1023.NP 9.669 0.85 S 
B045.PB 9.697 0.90 S 
BJES.BK 10.589 0.39 S 
89781.CE 10.819 0.85 S 
RBOW.BK 11.009 0.39 S 
KNEE.BK 11.709 0.38 S 
KCR.NC 12.579 0.44 S 
KCO.NC 12.612 0.76 S 
B047.PB 13.007 0.88 S 
PRDS.BK 16.189 0.40 S 
B049.PB 16.637 0.40 S 
B935.PB 16.817 0.89 S 
# 2022 12 20 10 42 58.442 40.5599 -124.2233 22.799 1.908 0.263 0.263 0.406 31 
1584B.NP 4.688 0.40 P 
1586.NP 4.808 0.56 P 
1581.NP 5.348 0.68 P 
89781.CE 5.738 0.67 P 
B045.PB 6.066 0.80 P 
BJES.BK 6.578 0.68 P 
RBOW.BK 6.638 0.51 P 
KNEE.BK 6.798 0.43 P 
B047.PB 7.596 0.66 P 
KCO.NC 7.731 0.68 P 
KCR.NC 7.808 0.56 P 
1580.NP 8.158 0.76 P 
KBU.NC 9.348 0.52 P 
B935.PB 10.276 0.74 P 
89688.CE 10.358 0.64 P 
KHMB.NC 11.561 0.72 P 
KHBB.NC 13.911 0.44 P 
1023.NP 8.058 0.56 S 
1586.NP 8.908 0.72 S 
89462.CE 9.488 0.70 S 
KMPB.NC 9.751 0.73 S 
1581.NP 9.898 0.78 S 
89781.CE 10.328 0.74 S 
B045.PB 10.706 0.80 S 
RBOW.BK 11.368 0.65 S 
BJES.BK 11.868 0.46 S 
KCR.NC 13.838 0.47 S 
KPR.NC 15.048 0.76 S 
B049.PB 16.576 0.70 S 
KBU.NC 16.598 0.78 S 
89688.CE 18.188 0.57 S 
# 2022 12 20 10 43 9.318 40.5268 -124.3575 17.000 2.033 0.159 0.159 0.618 32 
1584B.NP 3.842 1.01 P 
KCT.NC 4.305 0.58 P 
1586.NP 4.492 0.99 P 
KMPB.NC 5.805 0.61 P 
RBOW.BK 6.652 0.56 P 
B045.PB 6.900 0.99 P 
89781.CE 7.132 1.03 P 
KNEE.BK 7.602 0.90 P 
B047.PB 7.840 0.99 P 
KPR.NC 8.932 0.60 P 
KCR.NC 8.952 0.51 P 
KBU.NC 9.512 0.96 P 
DMOR.BK 9.652 0.61 P 
BRIC.BK 9.772 0.69 P 
B049.PB 10.440 0.97 P 
B935.PB 12.080 0.98 P 
1584B.NP 6.682 0.87 S 
KCT.NC 7.485 0.66 S 
1023.NP 8.242 0.85 S 
1586.NP 9.612 0.94 S 
B046.PB 9.780 0.84 S 
KMPB.NC 10.065 0.55 S 
PETL.BK 11.032 0.84 S 
1581.NP 11.472 0.66 S 
RBOW.BK 11.592 0.39 S 
B045.PB 11.930 0.58 S 
KCO.NC 12.395 0.91 S 
89781.CE 12.622 0.97 S 
B047.PB 13.040 0.84 S 
1580.NP 15.232 0.83 S 
KPR.NC 15.452 0.58 S 
KNEE.BK 15.812 0.53 S 
KCR.NC 16.312 0.90 S 
DMOR.BK 18.152 0.96 S 
KBU.NC 18.612 0.94 S 
B049.PB 18.620 0.94 S 
B935.PB 21.650 0.94 S 
1591.NP 22.602 0.79 S 
KHBB.NC 29.805 0.39 S 
# 2022 12 20 10 43 39.458 40.5167 -124.4175 15.249 2.850 0.115 0.115 0.609 33 
1584B.NP 4.052 1.01 P 
KCT.NC 4.155 0.57 P 
1023.NP 4.772 1.04 P 
1586.NP 5.852 1.03 P 
B046.PB 5.980 1.01 P 
PETL.BK 6.322 0.41 P 
89462.CE 6.412 0.94 P 
KMPB.NC 6.435 0.59 P 
1581.NP 6.912 1.04 P 
RBOW.BK 7.122 0.48 P 
KCO.NC 7.175 1.01 P 
B045.PB 7.660 0.94 P 
89781.CE 7.682 1.04 P 
B047.PB 7.700 1.01 P 
BJES.BK 8.962 0.64 P 
KPR.NC 9.232 0.65 P 
1580.NP 9.252 0.98 P 
KNEE.BK 9.302 0.56 P 
KCR.NC 10.052 0.56 P 
PRDS.BK 10.432 0.49 P 
89688.CE 10.692 0.90 P 
KBU.NC 11.042 0.56 P 
B049.PB 11.170 0.90 P 
KTD.NC 11.472 0.53 P 
BRIC.BK 12.662 0.38 P 
KHMB.NC 12.675 0.39 P 
B935.PB 12.820 0.92 P 
KMR.NC 12.935 0.80 P 
1591.NP 13.232 0.90 P 
KCSB.NC 13.675 0.89 P 
B934.PB 15.800 0.87 P 
79046.CE 16.172 0.98 P 
HAYF.BK 16.625 0.39 P 
KIP.NC 18.462 0.47 P 
KOM.NC 18.505 0.94 P 
KFP.NC 20.032 0.53 P 
DCMP.BK 22.163 0.50 P 
PETY.BK 22.683 1.02 P 
TRIN.BK 23.123 0.45 P 
LSF.NC 23.492 0.59 P 
GNR.NC 23.572 0.34 P 
GBL.NC 24.422 0.88 P 
LBK.NC 24.472 1.09 P 
SCOT.BK 24.915 0.63 P 
GVA.NC 25.622 0.70 P 
GUMB.BK 27.306 0.68 P 
1584B.NP 7.032 0.84 S 
KCT.NC 7.475 0.65 S 
1023.NP 8.952 0.93 S 
B046.PB 10.240 0.83 S 
1586.NP 10.582 0.88 S 
PETL.BK 10.962 0.53 S 
KMPB.NC 11.125 0.53 S 
89462.CE 11.432 0.88 S 
1581.NP 12.422 0.95 S 
KCO.NC 12.435 0.91 S 
RBOW.BK 13.002 0.45 S 
B047.PB 13.240 0.80 S 
B045.PB 13.240 0.81 S 
89781.CE 13.762 0.94 S 
BJES.BK 16.032 0.38 S 
1580.NP 16.282 0.94 S 
KPR.NC 16.612 0.55 S 
KNEE.BK 17.142 0.46 S 
KCR.NC 18.012 0.61 S 
PRDS.BK 18.302 0.40 S 
89688.CE 18.622 0.66 S 
KBU.NC 19.592 0.60 S 
DMOR.BK 19.592 0.34 S 
B049.PB 19.640 0.90 S 
BRIC.BK 21.952 0.52 S 
KHMB.NC 22.065 0.88 S 
KMR.NC 22.385 0.63 S 
KRP.NC 22.455 0.45 S 
B935.PB 22.740 0.95 S 
1591.NP 23.312 0.94 S 
KCSB.NC 24.435 0.91 S 
B934.PB 27.240 0.95 S 
79046.CE 28.272 0.95 S 
HAYF.BK 30.475 0.77 S 
KOM.NC 31.695 0.94 S 
KIP.NC 32.232 0.92 S 
KFP.NC 34.792 0.66 S 
KBN.NC 37.972 0.60 S 
DCMP.BK 38.445 0.41 S 
GNR.NC 41.472 0.38 S 
PETY.BK 41.633 0.55 S 
GBL.NC 42.332 0.33 S 
SCOT.BK 42.693 0.59 S 
TRIN.BK 43.605 0.69 S 
GUMB.BK 47.186 0.62 S 
# 2022 12 20 10 44 28.273 40.5087 -124.3485 17.391 2.087 0.150 0.150 0.590 34 
1584B.NP 3.927 0.97 P 
KCT.NC 4.410 0.56 P 
1023.NP 4.467 1.05 P 
1586.NP 5.407 1.03 P 
89462.CE 5.657 0.90 P 
KMPB.NC 5.760 0.78 P 
RBOW.BK 6.357 0.63 P 
B045.PB 6.425 0.90 P 
89781.CE 7.207 1.05 P 
KPR.NC 8.007 0.56 P 
BJES.BK 8.097 0.97 P 
KCR.NC 8.817 0.58 P 
KNEE.BK 8.817 0.72 P 
1580.NP 8.917 0.98 P 
89688.CE 9.487 0.84 P 
B049.PB 9.695 0.87 P 
KBU.NC 10.377 0.90 P 
BRIC.BK 11.087 0.95 P 
B935.PB 11.525 0.89 P 
KMR.NC 11.860 0.91 P 
KHMB.NC 12.040 0.50 P 
1584B.NP 6.307 0.55 S 
KCT.NC 7.800 0.66 S 
1023.NP 8.267 0.92 S 
1586.NP 9.687 0.82 S 
KMPB.NC 9.890 0.50 S 
PETL.BK 11.167 0.90 S 
RBOW.BK 11.507 0.59 S 
B045.PB 11.715 0.74 S 
89781.CE 12.737 0.96 S 
BJES.BK 14.277 0.59 S 
KPR.NC 14.737 0.93 S 
1580.NP 15.407 0.99 S 
KNEE.BK 15.497 0.37 S 
KCR.NC 16.317 0.65 S 
89688.CE 17.297 0.92 S 
KBU.NC 18.047 0.50 S 
B049.PB 18.105 0.89 S 
KHMB.NC 20.280 0.87 S 
BRIC.BK 20.367 0.94 S 
KMR.NC 21.480 0.50 S 
B935.PB 21.505 0.96 S 
1591.NP 22.267 0.97 S 
B934.PB 26.765 0.53 S 
KHBB.NC 30.220 0.35 S 
# 2022 12 20 10 44 39.651 40.8748 -124.9336 10.731 2.862 1.319 1.319 0.567 35 
1586.NP 12.779 0.71 P 
KPR.NC 16.269 0.42 P 
B049.PB 18.307 0.74 P 
1023.NP 22.429 0.69 S 
1586.NP 22.559 0.35 S 
KMPB.NC 25.202 0.49 S 
KRP.NC 25.762 0.58 S 
B045.PB 26.567 0.80 S 
RBOW.BK 26.809 0.36 S 
B047.PB 28.137 0.66 S 
KCR.NC 30.059 0.48 S 
KPR.NC 30.159 0.54 S 
B049.PB 32.627 0.66 S 
89688.CE 32.959 0.61 S 
B934.PB 41.327 0.65 S 
79046.CE 42.109 0.65 S 
RVIT.BK 45.959 0.61 S 
KIP.NC 46.059 0.63 S 
KFP.NC 48.359 0.43 S 
# 2022 12 20 10 44 46.817 40.5205 -124.4104 13.732 2.651 0.164 0.164 0.392 36 
1584B.NP 3.793 0.40 P 
B046.PB 5.981 0.80 P 
89462.CE 6.183 0.71 P 
KMPB.NC 6.256 0.59 P 
PETL.BK 6.423 0.49 P 
RBOW.BK 7.023 0.90 P 
KCO.NC 7.226 0.90 P 
89781.CE 7.563 0.96 P 
B047.PB 7.671 0.90 P 
KPR.NC 9.093 0.64 P 
1580.NP 9.133 0.96 P 
KCR.NC 9.953 0.80 P 
PRDS.BK 10.493 0.51 P 
89688.CE 10.743 0.72 P 
KBU.NC 10.983 0.51 P 
KTD.NC 11.433 0.76 P 
BRIC.BK 12.623 0.42 P 
1591.NP 13.113 0.88 P 
KHMB.NC 13.156 0.40 P 
KRP.NC 13.376 0.81 P 
79046.CE 16.193 0.84 P 
KIP.NC 18.273 0.76 P 
1584B.NP 6.593 0.58 S 
1023.NP 8.373 0.41 S 
1586.NP 10.183 0.90 S 
B046.PB 10.231 0.76 S 
PETL.BK 11.023 0.48 S 
KCO.NC 12.546 0.88 S 
B047.PB 13.171 0.87 S 
89781.CE 13.563 0.90 S 
KPR.NC 16.113 0.49 S 
1580.NP 16.113 0.86 S 
PRDS.BK 18.593 0.35 S 
89688.CE 18.803 0.88 S 
KBU.NC 19.623 0.61 S 
BRIC.BK 21.873 0.43 S 
1591.NP 23.843 0.87 S 
79046.CE 28.273 0.88 S 
# 2022 12 20 10 44 54.315 40.4197 -124.1945 38.067 3.082 0.338 0.338 1.066 37 
89462.CE 5.295 0.77 P 
B046.PB 6.243 0.86 P 
RBOW.BK 6.655 0.77 P 
PETL.BK 6.765 0.84 P 
KNEE.BK 7.165 0.37 P 
BJES.BK 7.245 0.56 P 
KCO.NC 7.298 0.84 P 
KCR.NC 8.585 0.49 P 
B935.PB 10.943 0.77 P 
KCSB.NC 11.698 0.66 P 
89462.CE 10.085 0.87 S 
KMPB.NC 10.468 0.42 S 
B046.PB 11.383 0.78 S 
RBOW.BK 12.155 0.37 S 
PETL.BK 12.175 0.43 S 
KCO.NC 13.328 0.81 S 
BJES.BK 13.405 0.78 S 
BRIC.BK 14.445 0.33 S 
KCR.NC 15.455 0.47 S 
B935.PB 19.953 0.57 S 
B934.PB 20.243 0.72 S 
# 2022 12 20 10 45 22.272 40.5320 -124.3478 15.677 1.963 0.168 0.168 0.604 38 
KCT.NC 4.241 0.43 P 
1586.NP 4.928 0.96 P 
89462.CE 5.438 1.01 P 
KMPB.NC 5.801 0.66 P 
B046.PB 6.076 0.98 P 
RBOW.BK 6.498 0.62 P 
PETL.BK 6.598 0.67 P 
B045.PB 6.696 0.98 P 
89781.CE 6.718 0.93 P 
KCO.NC 7.181 0.93 P 
B047.PB 7.446 0.98 P 
BJES.BK 7.848 0.88 P 
KPR.NC 8.278 0.35 P 
1580.NP 8.358 0.97 P 
KCR.NC 9.038 0.66 P 
KBU.NC 9.498 0.92 P 
B049.PB 9.506 0.86 P 
89688.CE 10.678 0.92 P 
1584B.NP 5.778 0.63 S 
KCT.NC 6.871 0.60 S 
1023.NP 7.758 0.83 S 
1586.NP 9.138 0.87 S 
PETL.BK 9.458 0.45 S 
89462.CE 9.858 0.93 S 
KMPB.NC 10.161 0.55 S 
B046.PB 10.556 0.77 S 
RBOW.BK 11.358 0.60 S 
KCO.NC 12.481 0.80 S 
B047.PB 12.856 0.82 S 
1580.NP 14.858 0.97 S 
KPR.NC 15.958 0.82 S 
KCR.NC 16.178 0.56 S 
B049.PB 17.786 0.93 S 
PRDS.BK 18.058 0.44 S 
KBU.NC 18.358 0.89 S 
BRIC.BK 21.138 0.55 S 
B934.PB 29.046 0.33 S 
# 2022 12 20 10 45 38.040 40.5432 -124.3152 16.492 1.783 0.258 0.258 0.373 39 
1584B.NP 3.510 1.03 P 
1586.NP 4.460 0.95 P 
1023.NP 4.550 0.97 P 
89462.CE 4.950 0.99 P 
KCO.NC 7.163 0.88 P 
KPR.NC 8.630 0.90 P 
89688.CE 10.770 0.86 P 
1584B.NP 6.550 0.96 S 
1023.NP 7.540 0.91 S 
89462.CE 9.080 0.91 S 
PETL.BK 11.680 0.39 S 
KCO.NC 12.543 0.84 S 
1580.NP 14.240 0.36 S 
89688.CE 20.050 0.65 S 
KMR.NC 21.053 0.33 S 
