# 2022 12 20 11 27 45.403 40.7104 -123.8581 22.650 1.705 0.183 0.183 0.817 134 
DMOR 3.777 0.68 P 
KNEE 3.901 0.44 P 
KHMB 5.490 0.62 P 
89781 6.357 1.03 P 
1586 6.727 0.89 P 
B935 7.495 0.99 P 
1584B 8.007 0.49 P 
KCSB 8.080 0.88 P 
KCR 8.147 0.80 P 
RBOW 9.887 0.98 P 
KPR 10.267 0.59 P 
KHBB 10.330 0.61 P 
B049 10.575 0.75 P 
HAYF 10.890 0.55 P 
B046 11.675 0.74 P 
PRDS 11.727 0.44 P 
WEAV 12.267 0.62 P 
TRIN 16.410 0.62 P 
LBK 17.487 1.05 P 
KNEE 8.407 0.58 S 
KHMB 10.210 0.60 S 
KCR 10.647 0.34 S 
1586 11.007 0.60 S 
89781 11.267 0.92 S 
1582 12.317 0.90 S 
1581 12.697 0.90 S 
B935 13.575 0.94 S 
KMPB 15.610 0.58 S 
RBOW 16.747 0.49 S 
KRP 17.170 0.55 S 
KPR 17.177 0.50 S 
KHBB 17.590 0.64 S 
KBU 18.247 0.49 S 
HAYF 18.498 0.49 S 
B049 18.655 0.66 S 
PRDS 20.137 0.42 S 
WEAV 21.737 0.63 S 
TRIN 28.768 0.60 S 
LBK 30.807 0.92 S 
PETY 32.490 0.34 S 
GUMB 35.841 0.36 S 
# 2022 12 20 11 28 3.570 40.4799 -124.4227 13.603 1.543 0.161 0.161 0.827 135 
1584B 2.740 0.72 P 
B046 3.568 0.69 P 
KCT 3.963 0.62 P 
1023 4.920 0.91 P 
1586 5.560 0.54 P 
89255 5.980 0.97 P 
KMPB 6.033 0.61 P 
89462 6.550 0.97 P 
RBOW 6.930 0.55 P 
KPR 9.020 0.56 P 
PRDS 10.120 0.83 P 
KBU 10.900 0.52 P 
B049 10.978 0.78 P 
KCR 12.280 0.33 P 
BRIC 12.380 0.51 P 
B935 12.778 0.79 P 
KHBB 16.603 0.89 P 
HAYF 16.743 0.62 P 
KCT 7.383 0.57 S 
B046 8.148 0.89 S 
PETL 9.040 0.59 S 
KCO 10.083 0.88 S 
1586 10.760 0.62 S 
89255 11.100 0.84 S 
KMPB 11.103 0.60 S 
89462 11.520 0.92 S 
RBOW 12.400 0.60 S 
1582 13.660 0.35 S 
BJES 15.020 0.65 S 
89781 15.990 0.56 S 
KPR 16.240 0.60 S 
KNEE 16.654 0.41 S 
89688 18.680 0.68 S 
KBU 19.600 0.54 S 
B049 19.608 0.83 S 
BRIC 21.640 0.61 S 
KMR 22.803 0.47 S 
# 2022 12 20 11 28 42.399 40.5257 -124.3544 18.483 1.579 0.156 0.156 0.665 136 
KCT 3.844 0.63 P 
1586 5.191 1.01 P 
B046 5.589 1.02 P 
1582 5.611 1.01 P 
KCO 5.734 0.96 P 
PETL 6.051 0.85 P 
RBOW 6.131 0.71 P 
KNEE 7.891 0.51 P 
KPR 8.691 0.79 P 
KCR 9.411 0.89 P 
PRDS 10.251 0.91 P 
KBU 10.411 0.55 P 
89688 10.471 0.80 P 
B049 10.599 0.89 P 
BRIC 12.091 0.35 P 
B935 12.099 0.96 P 
KMR 12.254 0.95 P 
HAYF 15.742 0.79 P 
KHBB 16.094 0.47 P 
WEAV 18.331 0.56 P 
1584B 6.541 0.91 S 
KCT 7.144 0.61 S 
1023 7.971 0.88 S 
1586 9.731 0.92 S 
89462 9.851 0.94 S 
B046 10.019 0.89 S 
89255 10.411 0.59 S 
1582 10.511 0.95 S 
PETL 10.661 0.38 S 
1581 10.991 0.87 S 
KCO 12.134 0.89 S 
BJES 15.091 0.91 S 
KNEE 15.111 0.75 S 
KPR 15.521 0.74 S 
KCR 16.251 0.49 S 
PRDS 17.931 0.38 S 
B049 18.009 0.68 S 
KBU 18.131 0.53 S 
89688 18.371 0.68 S 
B935 19.739 0.87 S 
KMR 21.124 0.81 S 
BRIC 21.241 0.54 S 
HAYF 24.582 0.40 S 
B934 26.809 0.40 S 
# 2022 12 20 11 29 5.746 40.5585 -124.2131 17.610 1.580 0.141 0.141 0.461 137 
89255 3.834 1.07 P 
1584B 4.074 1.08 P 
1586 4.114 1.06 P 
1582 4.334 1.06 P 
KCT 4.637 1.07 P 
89462 4.824 1.02 P 
89781 5.674 1.05 P 
RBOW 5.944 0.46 P 
PETL 6.174 0.75 P 
B046 6.372 1.03 P 
KNEE 6.838 0.99 P 
KCO 7.387 1.05 P 
KCR 7.544 0.71 P 
DMOR 7.624 0.71 P 
KPR 8.204 0.74 P 
KBU 9.224 0.50 P 
B049 9.422 0.99 P 
PRDS 9.928 0.56 P 
BRIC 10.244 0.58 P 
B935 10.272 0.95 P 
KMR 10.747 0.98 P 
HAYF 14.027 0.56 P 
KHBB 14.187 0.99 P 
WEAV 16.774 0.95 P 
89255 7.294 0.97 S 
1584B 7.474 0.98 S 
1023 7.624 0.52 S 
1586 7.754 0.93 S 
89462 7.904 0.82 S 
KCT 8.587 0.99 S 
1582 8.664 0.96 S 
KMPB 8.727 0.86 S 
1581 9.694 0.71 S 
89781 10.464 1.00 S 
RBOW 10.634 0.41 S 
BJES 11.084 0.59 S 
B046 11.362 0.98 S 
PETL 12.464 0.51 S 
KCO 13.247 0.96 S 
KCR 13.554 0.59 S 
KPR 14.454 0.54 S 
DMOR 15.204 0.98 S 
KBU 16.394 0.90 S 
B049 16.552 0.95 S 
PRDS 17.814 0.45 S 
KHMB 18.287 0.34 S 
89688 18.464 0.97 S 
B935 18.832 1.01 S 
KMR 19.817 0.58 S 
BRIC 20.224 0.49 S 
1591 21.304 0.82 S 
HAYF 25.585 0.61 S 
KHBB 25.907 0.82 S 
# 2022 12 20 11 29 38.924 40.5312 -123.8905 22.121 1.811 0.149 0.149 0.467 138 
BJES 4.326 0.40 P 
KCR 4.856 0.39 P 
KNEE 5.610 0.44 P 
89462 5.646 1.00 P 
89255 6.186 0.91 P 
1586 6.206 0.64 P 
B935 6.444 0.86 P 
RBOW 6.606 0.49 P 
B049 7.084 0.69 P 
1582 7.106 0.91 P 
KBU 7.176 0.67 P 
89781 7.356 0.91 P 
KCSB 7.359 0.86 P 
1581 7.516 0.97 P 
KPR 7.916 0.61 P 
KCT 8.169 0.59 P 
B046 8.174 0.90 P 
KMR 8.269 0.59 P 
KHMB 8.329 0.96 P 
KCO 8.719 0.91 P 
PETL 8.986 0.60 P 
PRDS 9.546 0.56 P 
HAYF 10.469 0.54 P 
KHBB 10.819 0.64 P 
89688 11.866 0.68 P 
B934 12.854 0.47 P 
KFP 16.966 0.33 P 
BJES 8.006 0.56 S 
KCR 8.706 0.67 S 
KNEE 10.396 0.47 S 
89462 10.476 0.86 S 
KMPB 10.819 0.41 S 
89255 11.496 0.90 S 
B935 11.654 0.89 S 
B049 12.564 0.78 S 
KBU 12.736 0.42 S 
1582 12.856 0.83 S 
1586 13.326 0.70 S 
89781 13.326 0.80 S 
KCSB 13.329 0.90 S 
KCT 13.739 0.47 S 
1581 13.926 0.86 S 
KPR 14.046 0.55 S 
1023 14.226 0.74 S 
B046 14.534 0.86 S 
KMR 14.769 0.49 S 
KHMB 15.269 0.82 S 
KCO 15.659 0.88 S 
1591 17.286 0.75 S 
BRIC 18.046 0.49 S 
KHBB 19.289 0.50 S 
B934 23.344 0.64 S 
RVIT 26.106 0.67 S 
# 2022 12 20 11 30 3.067 40.7461 -123.8247 18.507 1.909 0.187 0.187 0.582 139 
DMOR 3.253 0.59 P 
KNEE 4.117 0.39 P 
KHMB 5.366 0.56 P 
BJES 5.773 0.92 P 
89781 5.983 1.00 P 
1581 6.803 0.98 P 
B935 7.621 0.99 P 
KCSB 7.666 1.00 P 
KHBB 9.896 0.53 P 
HAYF 10.666 0.59 P 
WEAV 12.443 0.57 P 
TRIN 16.706 0.95 P 
DMOR 7.283 0.36 S 
KNEE 8.083 0.62 S 
KHMB 9.666 0.65 S 
89781 10.933 0.91 S 
1581 12.663 0.82 S 
B935 13.751 0.91 S 
KCSB 13.826 0.93 S 
KHBB 17.386 0.58 S 
HAYF 18.516 0.39 S 
KOM 21.066 0.37 S 
WEAV 21.783 0.62 S 
TRIN 28.554 0.54 S 
LBK 30.423 0.58 S 
PETY 32.126 0.35 S 
LSF 34.283 0.50 S 
# 2022 12 20 11 30 28.520 40.5065 -124.4396 15.242 2.941 0.117 0.117 0.557 140 
1584B 4.250 0.90 P 
KCT 4.323 0.43 P 
1023 5.050 0.91 P 
B046 6.088 0.88 P 
1586 6.150 0.89 P 
89255 6.510 0.92 P 
KMPB 6.653 0.51 P 
89462 6.780 0.89 P 
1582 6.870 0.90 P 
KCO 7.323 0.88 P 
RBOW 7.330 0.48 P 
89781 8.060 0.97 P 
KPR 9.300 0.63 P 
BJES 9.360 0.78 P 
KNEE 9.930 0.48 P 
KCR 10.340 0.53 P 
PRDS 10.580 0.54 P 
89688 10.830 0.64 P 
KBU 11.270 0.42 P 
B049 11.398 0.80 P 
KTD 11.920 0.95 P 
BRIC 12.780 0.42 P 
KHMB 12.913 0.34 P 
KMR 12.973 0.52 P 
B935 13.078 0.82 P 
1591 13.340 0.87 P 
KRP 13.753 0.92 P 
KCSB 13.993 0.84 P 
B934 16.198 0.90 P 
79046 16.310 0.90 P 
KHBB 16.993 0.38 P 
KIP 18.590 0.40 P 
KOM 18.843 0.40 P 
KFP 20.110 0.50 P 
KBN 20.610 0.38 P 
PETY 22.371 0.42 P 
KRK 22.860 0.85 P 
GNR 23.680 0.46 P 
LBK 24.650 1.00 P 
GVA 25.000 0.90 P 
GROB 25.280 0.72 P 
LSF 25.430 0.72 P 
GWR 25.490 0.93 P 
LRB 25.950 0.77 P 
GHO 25.980 0.36 P 
GCWB 27.790 0.93 P 
GHGB 30.413 0.87 P 
GSR 30.670 0.73 P 
1584B 7.330 0.87 S 
KCT 7.663 0.70 S 
1023 9.250 0.87 S 
B046 10.338 0.86 S 
PETL 10.980 0.53 S 
1586 11.000 0.91 S 
KMPB 11.383 0.46 S 
89255 11.610 0.84 S 
89462 11.770 0.82 S 
1582 12.500 0.90 S 
KCO 12.523 0.87 S 
89781 14.090 0.91 S 
KPR 16.590 0.45 S 
KNEE 17.424 0.45 S 
KCR 18.090 0.62 S 
89688 18.810 0.80 S 
KBU 19.810 0.86 S 
B049 20.018 0.78 S 
DMOR 20.210 0.82 S 
KTD 20.650 0.88 S 
BRIC 22.150 0.43 S 
KHMB 22.563 0.83 S 
KMR 22.953 0.50 S 
1591 23.530 0.86 S 
B935 23.538 0.89 S 
KCSB 25.253 0.89 S 
B934 27.828 0.89 S 
79046 28.130 0.87 S 
HAYF 30.731 0.50 S 
KHBB 31.673 0.74 S 
KIP 31.930 0.88 S 
KOM 32.133 0.89 S 
KFP 35.210 0.55 S 
MNDO 37.880 0.75 S 
KBN 38.290 0.44 S 
DCMP 38.673 0.42 S 
GNR 41.290 0.47 S 
PETY 41.963 0.44 S 
GBL 42.070 0.33 S 
LBK 42.690 0.87 S 
SCOT 43.133 0.59 S 
GVA 43.710 0.58 S 
GHO 45.850 0.43 S 
# 2022 12 20 11 30 50.672 40.5864 -124.1430 17.526 1.982 0.216 0.216 0.453 141 
89255 3.648 0.82 P 
1586 4.118 0.99 P 
1582 4.278 0.99 P 
1023 4.458 0.98 P 
1584B 4.938 1.01 P 
89781 5.048 1.00 P 
KMPB 5.191 0.55 P 
RBOW 6.328 0.86 P 
B046 6.966 1.01 P 
PETL 7.778 0.66 P 
KCO 7.981 0.94 P 
KBU 9.028 0.75 P 
B049 9.126 0.63 P 
89255 7.098 0.92 S 
1586 7.648 0.99 S 
1582 8.108 0.98 S 
KCT 8.521 0.97 S 
1023 8.658 0.63 S 
1584B 8.918 0.89 S 
1581 8.958 0.93 S 
89781 9.268 0.93 S 
KMPB 9.301 0.53 S 
BJES 9.688 0.41 S 
B046 12.626 0.89 S 
PETL 13.888 0.46 S 
B049 16.226 0.66 S 
BRIC 20.318 0.46 S 
# 2022 12 20 11 31 21.969 40.5652 -124.2040 17.561 2.085 0.129 0.129 0.512 142 
89462 3.401 0.87 P 
KCT 3.904 0.52 P 
1023 3.981 1.03 P 
1586 4.071 1.03 P 
1584B 4.181 1.01 P 
1582 4.481 1.03 P 
89255 4.561 1.03 P 
KMPB 4.824 0.56 P 
1581 4.991 1.01 P 
89781 5.561 1.02 P 
BJES 6.001 0.80 P 
RBOW 6.021 0.52 P 
B046 6.479 1.05 P 
KNEE 7.081 0.56 P 
PETL 7.151 0.46 P 
KCR 7.421 0.63 P 
KCO 7.464 1.03 P 
KPR 8.271 0.72 P 
KBU 9.211 0.43 P 
B049 9.359 0.94 P 
KHMB 9.874 0.96 P 
PRDS 9.995 0.48 P 
B935 10.119 0.94 P 
89688 10.501 0.97 P 
KMR 10.904 0.41 P 
KCSB 11.054 0.99 P 
KRP 11.604 0.87 P 
1591 11.641 0.99 P 
BRIC 11.721 0.34 P 
HAYF 13.884 0.42 P 
B934 13.969 0.50 P 
KHBB 14.044 0.57 P 
WEAV 16.661 0.34 P 
LBK 21.801 1.02 P 
SCOT 22.332 0.37 P 
89255 7.151 0.98 S 
1584B 7.521 0.99 S 
1586 7.681 0.99 S 
1023 7.761 0.87 S 
89462 7.821 0.97 S 
1582 8.521 0.93 S 
KMPB 8.644 0.61 S 
KCT 8.644 0.62 S 
1581 9.391 0.95 S 
89781 10.201 0.93 S 
RBOW 10.651 0.42 S 
BJES 10.801 0.74 S 
B046 11.479 0.93 S 
KNEE 12.001 0.37 S 
PETL 12.681 0.52 S 
KCR 13.381 0.55 S 
KCO 13.504 0.91 S 
KPR 15.071 0.37 S 
KBU 16.331 0.87 S 
B049 16.529 0.83 S 
PRDS 17.875 0.44 S 
KHMB 18.204 0.78 S 
89688 18.491 0.97 S 
B935 18.629 0.93 S 
KMR 19.884 0.60 S 
BRIC 20.231 0.45 S 
1591 21.301 0.69 S 
HAYF 23.242 0.57 S 
KHBB 23.444 0.58 S 
B934 27.459 0.44 S 
79046 27.751 0.54 S 
WEAV 30.181 0.52 S 
RVIT 31.721 0.49 S 
TRIN 37.674 0.55 S 
GUMB 43.161 0.40 S 
# 2022 12 20 11 31 56.552 40.5634 -124.2208 20.002 2.245 0.150 0.150 0.360 143 
89255 4.258 0.91 P 
1586 4.358 0.96 P 
89462 4.678 0.95 P 
1582 4.728 0.97 P 
KCT 4.821 0.45 P 
1581 5.128 0.95 P 
KMPB 5.371 0.53 P 
89781 5.618 0.97 P 
RBOW 6.188 0.49 P 
B046 6.406 0.96 P 
BJES 6.738 0.57 P 
KNEE 6.938 0.50 P 
PETL 7.078 0.50 P 
KCO 7.361 0.95 P 
KCR 7.648 0.60 P 
KPR 8.248 0.61 P 
KBU 9.258 0.49 P 
B049 9.356 0.87 P 
PRDS 9.888 0.50 P 
KHMB 9.981 0.61 P 
B935 10.246 0.93 P 
89688 10.338 0.82 P 
KMR 10.941 0.57 P 
KCSB 11.161 0.89 P 
BRIC 11.318 0.34 P 
KRP 11.361 0.86 P 
1591 12.208 0.94 P 
HAYF 13.821 0.45 P 
KHBB 13.971 0.62 P 
WEAV 16.448 0.41 P 
LBK 21.568 0.95 P 
SCOT 22.141 0.41 P 
1584B 7.788 0.80 S 
89255 8.088 0.96 S 
1023 8.258 0.87 S 
1586 8.258 0.93 S 
89462 8.708 0.94 S 
KCT 8.861 0.63 S 
1582 9.008 0.92 S 
KMPB 9.341 0.58 S 
1581 9.658 0.91 S 
89781 10.448 0.91 S 
RBOW 11.018 0.37 S 
B046 11.346 0.90 S 
KNEE 12.412 0.43 S 
PETL 12.458 0.38 S 
KCO 13.101 0.89 S 
KCR 13.738 0.52 S 
KPR 14.648 0.47 S 
DMOR 14.898 0.86 S 
KBU 16.568 0.69 S 
B049 16.726 0.84 S 
PRDS 17.738 0.36 S 
KHMB 18.101 0.57 S 
89688 18.138 0.88 S 
B935 18.506 0.91 S 
KMR 19.371 0.49 S 
BRIC 19.978 0.52 S 
KRP 20.141 0.85 S 
KCSB 20.181 0.89 S 
1591 21.438 0.63 S 
HAYF 24.389 0.53 S 
KHBB 24.881 0.47 S 
B934 25.766 0.62 S 
WEAV 29.358 0.86 S 
# 2022 12 20 11 32 25.528 40.4684 -124.5444 16.587 1.783 0.193 0.193 0.505 144 
KCT 5.495 0.67 P 
PETL 6.342 0.56 P 
B046 6.370 0.89 P 
KCO 7.105 0.88 P 
1586 7.632 0.88 P 
KMPB 7.865 0.79 P 
1582 8.192 0.89 P 
RBOW 8.272 0.64 P 
1581 8.462 0.95 P 
KPR 9.602 0.66 P 
PRDS 10.652 0.61 P 
BJES 10.672 0.94 P 
89688 10.692 0.91 P 
KCR 11.502 0.69 P 
KBU 12.112 0.91 P 
B049 12.190 0.90 P 
BRIC 13.062 0.62 P 
B935 14.090 0.88 P 
KMR 14.155 0.93 P 
B934 16.330 0.87 P 
KHBB 18.255 0.71 P 
WEAV 20.772 0.50 P 
KCT 9.965 0.40 S 
1584B 10.222 0.90 S 
PETL 11.082 0.35 S 
B046 11.130 0.92 S 
1023 12.342 0.63 S 
KCO 12.665 0.92 S 
KMPB 13.645 0.49 S 
1586 13.872 0.96 S 
89255 14.932 0.79 S 
1582 15.082 0.89 S 
1581 15.162 0.93 S 
KPR 17.002 0.68 S 
89688 18.572 0.94 S 
PRDS 18.626 0.41 S 
KCR 20.202 0.57 S 
KBU 21.352 0.58 S 
B049 21.560 0.88 S 
BRIC 22.682 0.49 S 
KMR 23.935 0.89 S 
B935 25.280 0.93 S 
B934 30.400 0.66 S 
KHBB 30.845 0.78 S 
# 2022 12 20 11 32 56.158 40.6313 -124.0172 18.641 1.779 0.182 0.182 0.564 145 
KNEE 3.866 0.82 P 
1582 4.682 0.76 P 
1586 4.992 0.65 P 
89781 5.022 0.94 P 
1581 5.132 0.85 P 
89255 5.372 0.86 P 
KMPB 5.875 0.59 P 
KCR 6.352 0.61 P 
RBOW 7.042 0.40 P 
KHMB 7.755 0.45 P 
B935 8.340 0.85 P 
KPR 8.882 0.78 P 
KBU 9.032 0.51 P 
B049 9.070 0.81 P 
KMR 10.495 0.84 P 
KRP 10.675 0.65 P 
PRDS 10.732 0.52 P 
BRIC 11.732 0.51 P 
WEAV 13.092 0.67 P 
LSF 20.402 0.48 P 
89255 8.342 0.75 S 
1582 8.822 0.83 S 
89781 9.062 0.87 S 
1586 9.402 0.78 S 
1581 9.582 0.82 S 
KMPB 10.675 0.38 S 
1023 11.012 0.62 S 
KCR 11.332 0.47 S 
1584B 11.492 0.48 S 
RBOW 12.452 0.41 S 
KHMB 13.935 0.58 S 
B935 15.020 0.83 S 
KTD 15.752 0.77 S 
B049 15.990 0.82 S 
KBU 16.092 0.55 S 
KPR 16.172 0.49 S 
KMR 18.495 0.50 S 
89688 19.072 0.39 S 
KRP 19.155 0.44 S 
1591 20.902 0.71 S 
BRIC 21.162 0.38 S 
KHBB 21.925 0.55 S 
WEAV 26.052 0.45 S 
B934 27.340 0.63 S 
RVIT 29.467 0.46 S 
# 2022 12 20 11 33 7.395 40.5160 -124.4165 16.456 1.617 0.164 0.164 0.478 146 
KCT 4.198 0.94 P 
PETL 4.815 0.45 P 
1586 5.745 0.80 P 
B046 5.893 0.95 P 
KMPB 6.318 0.67 P 
1582 6.405 0.83 P 
1581 6.725 0.77 P 
RBOW 7.035 0.53 P 
KCO 7.098 0.98 P 
KPR 9.015 0.60 P 
KCR 9.895 0.64 P 
PRDS 10.435 0.90 P 
KBU 10.855 0.62 P 
B049 11.023 0.88 P 
B935 13.263 0.71 P 
1584B 7.105 0.86 S 
KCT 7.548 0.42 S 
1023 8.875 0.85 S 
B046 10.213 0.84 S 
1586 10.435 0.90 S 
PETL 10.885 0.40 S 
KMPB 11.028 0.58 S 
89255 11.095 0.68 S 
1582 11.885 0.89 S 
KCO 12.208 0.94 S 
1581 12.255 0.79 S 
RBOW 12.365 0.44 S 
KNEE 15.529 0.44 S 
KPR 16.045 0.58 S 
KCR 17.455 0.66 S 
PRDS 18.245 0.36 S 
89688 18.735 0.81 S 
B049 19.403 0.74 S 
KBU 19.695 0.57 S 
BRIC 21.765 0.40 S 
B935 22.583 0.57 S 
1591 23.375 0.81 S 
B934 27.383 0.37 S 
# 2022 12 20 11 33 19.772 40.5189 -124.3990 17.494 1.385 0.201 0.201 0.362 147 
1586 5.468 0.85 P 
B046 5.726 0.90 P 
KMPB 6.051 0.56 P 
1582 6.218 0.88 P 
KCO 6.801 0.88 P 
KPR 8.878 0.57 P 
KCR 9.708 0.52 P 
KBU 10.598 0.55 P 
B049 10.726 0.77 P 
KCT 7.331 0.46 S 
1023 8.518 0.76 S 
B046 10.056 0.85 S 
1586 10.128 0.78 S 
PETL 10.678 0.33 S 
KMPB 10.691 0.60 S 
1582 11.428 0.75 S 
1581 11.958 0.57 S 
KCO 12.131 0.77 S 
KPR 15.668 0.59 S 
KNEE 16.558 0.37 S 
KCR 17.458 0.53 S 
PRDS 17.992 0.49 S 
KBU 19.028 0.60 S 
DMOR 19.078 0.36 S 
B049 19.286 0.58 S 
BRIC 21.468 0.47 S 
B935 21.946 0.56 S 
# 2022 12 20 11 33 44.387 40.5959 -124.1112 16.514 1.407 0.182 0.182 0.692 148 
1586 4.403 0.92 P 
1582 4.503 0.78 P 
KCT 5.186 0.56 P 
89781 5.373 0.93 P 
1584B 5.683 0.92 P 
BJES 5.903 0.45 P 
DMOR 6.293 0.34 P 
KCR 7.403 0.63 P 
B046 7.491 0.95 P 
KCO 8.546 0.96 P 
KPR 8.863 0.97 P 
KBU 9.063 0.65 P 
B049 9.171 0.97 P 
B935 9.321 0.93 P 
89688 10.563 0.74 P 
KMR 10.726 0.95 P 
PRDS 10.803 0.58 P 
BRIC 11.863 0.84 P 
HAYF 13.074 0.62 P 
KHBB 13.776 0.93 P 
89255 6.733 0.82 S 
1584B 8.013 0.42 S 
1582 8.273 0.88 S 
BJES 8.943 0.56 S 
89781 9.343 0.75 S 
KCR 11.163 0.41 S 
B046 11.591 0.56 S 
RBOW 13.093 0.53 S 
KCO 14.006 0.76 S 
KPR 15.183 0.84 S 
KBU 15.703 0.79 S 
PRDS 18.973 0.43 S 
BRIC 20.383 0.56 S 
89688 20.433 0.96 S 
HAYF 22.484 0.46 S 
KHBB 22.706 0.85 S 
# 2022 12 20 11 34 10.043 40.5192 -124.3356 16.159 1.779 0.132 0.132 0.426 149 
1584B 3.227 0.97 P 
KCT 3.850 0.64 P 
1023 4.837 1.02 P 
1586 4.837 0.81 P 
89255 4.977 0.93 P 
KMPB 5.360 0.70 P 
1582 5.587 0.69 P 
B046 5.655 1.00 P 
PETL 6.207 0.49 P 
RBOW 6.267 0.62 P 
KCO 6.840 1.00 P 
89781 7.067 0.89 P 
KNEE 8.321 0.65 P 
KPR 8.387 0.63 P 
KCR 8.867 0.64 P 
KBU 10.037 0.45 P 
PRDS 10.167 0.53 P 
B049 10.195 0.93 P 
89688 10.467 0.96 P 
KHMB 11.570 0.62 P 
B935 11.635 0.84 P 
KMR 11.710 0.83 P 
BRIC 11.857 0.44 P 
HAYF 15.330 0.58 P 
KHBB 15.570 0.92 P 
WEAV 18.087 0.94 P 
KBN 19.677 0.39 P 
1584B 6.087 0.92 S 
KCT 6.890 0.61 S 
1023 7.717 0.96 S 
1586 9.127 0.91 S 
89255 9.297 0.95 S 
KMPB 9.450 0.60 S 
89462 9.527 0.95 S 
B046 10.065 0.89 S 
1582 10.417 0.83 S 
PETL 10.857 0.51 S 
RBOW 11.137 0.43 S 
KCO 11.980 0.91 S 
BJES 13.877 0.78 S 
KPR 14.707 0.73 S 
KNEE 15.127 0.40 S 
KCR 15.917 0.59 S 
PRDS 17.687 0.46 S 
89688 17.947 0.89 S 
KBU 18.167 0.70 S 
B049 18.175 0.90 S 
BRIC 20.707 0.46 S 
KMR 20.780 0.66 S 
KHMB 20.890 0.88 S 
B935 21.155 0.83 S 
1591 22.167 0.58 S 
B934 26.575 0.66 S 
HAYF 28.290 0.59 S 
KHBB 29.010 0.93 S 
# 2022 12 20 11 34 24.494 40.5599 -124.2324 16.559 1.656 0.145 0.145 0.360 150 
1023 3.616 0.76 P 
89255 3.696 0.70 P 
1584B 3.756 0.82 P 
1586 3.976 0.75 P 
89462 4.226 0.89 P 
1582 4.556 0.98 P 
89781 5.776 1.00 P 
RBOW 6.076 0.84 P 
B046 6.324 1.02 P 
PETL 6.996 0.91 P 
KNEE 7.196 0.76 P 
KCO 7.419 1.01 P 
KCR 7.846 0.65 P 
KPR 8.396 0.63 P 
KBU 9.436 0.66 P 
B049 9.644 1.00 P 
KHMB 10.429 0.42 P 
B935 10.604 0.99 P 
89688 10.756 0.98 P 
KMR 10.779 0.96 P 
1584B 6.846 0.90 S 
1023 7.076 0.90 S 
89255 7.086 0.85 S 
1586 7.446 0.90 S 
89462 7.836 0.98 S 
1582 8.576 0.92 S 
1581 8.606 0.90 S 
RBOW 10.436 0.81 S 
89781 10.496 0.90 S 
B046 11.174 0.96 S 
BJES 11.446 0.37 S 
PETL 12.346 0.80 S 
KNEE 12.836 0.36 S 
KCO 13.129 0.90 S 
KCR 13.996 0.62 S 
KPR 14.736 0.62 S 
DMOR 15.786 0.93 S 
KBU 16.826 0.67 S 
B049 17.044 0.91 S 
89688 18.756 0.98 S 
KHMB 18.999 0.71 S 
B935 19.444 0.95 S 
BRIC 20.256 0.35 S 
KMR 20.309 0.90 S 
1591 21.646 0.69 S 
# 2022 12 20 11 34 44.188 40.5446 -124.2209 23.074 1.623 0.224 0.224 0.759 151 
89255 4.962 0.88 P 
KMPB 5.085 0.61 P 
89462 5.292 0.97 P 
B046 5.380 0.66 P 
1581 5.562 1.02 P 
89781 6.112 1.01 P 
RBOW 6.192 0.46 P 
PETL 6.202 0.42 P 
1582 6.292 0.36 P 
BJES 6.672 0.42 P 
KNEE 7.136 0.48 P 
KCO 7.205 0.88 P 
KCR 7.612 0.86 P 
KPR 8.092 0.42 P 
KBU 9.202 0.49 P 
1591 9.292 0.43 P 
B049 9.430 0.91 P 
B935 9.930 0.97 P 
PRDS 9.932 0.89 P 
KMR 10.575 0.90 P 
1023 6.092 0.40 S 
1586 7.622 0.78 S 
89255 7.682 0.93 S 
89462 9.052 0.83 S 
KMPB 9.415 0.57 S 
1581 10.452 0.94 S 
RBOW 10.872 0.45 S 
89781 11.192 0.95 S 
BJES 12.052 0.82 S 
PETL 12.062 0.44 S 
KNEE 13.016 0.45 S 
KCR 13.942 0.62 S 
KPR 14.462 0.88 S 
KBU 16.562 0.60 S 
B935 16.590 0.87 S 
KMR 16.745 0.64 S 
HAYF 23.713 0.39 S 
# 2022 12 20 11 35 7.815 40.5122 -124.3072 19.549 1.428 0.178 0.178 1.110 152 
KCT 2.818 0.92 P 
B046 4.513 0.97 P 
PETL 4.885 0.56 P 
1586 4.905 0.87 P 
KMPB 5.258 0.63 P 
KCO 5.738 0.95 P 
KNEE 6.775 0.75 P 
89781 6.815 0.89 P 
1582 6.825 0.71 P 
1581 7.105 0.84 P 
KPR 7.815 0.92 P 
KCR 8.485 0.50 P 
PRDS 8.955 0.54 P 
89688 9.255 0.93 P 
KBU 9.735 0.54 P 
B049 9.853 0.88 P 
KHMB 9.928 0.79 P 
KMR 12.398 0.44 P 
KRP 13.038 0.41 P 
KCT 6.248 0.45 S 
B046 8.833 0.92 S 
1586 9.635 0.86 S 
KMPB 10.068 0.64 S 
89255 10.435 0.71 S 
1582 10.795 0.67 S 
KCO 10.908 0.85 S 
RBOW 11.405 0.42 S 
BJES 11.485 0.75 S 
1581 11.605 0.59 S 
KCR 13.765 0.73 S 
KPR 14.955 0.52 S 
PRDS 17.029 0.36 S 
89688 17.415 0.87 S 
B049 17.563 0.65 S 
KBU 17.595 0.52 S 
KMR 20.268 0.35 S 
BRIC 20.495 0.47 S 
KRP 21.048 0.36 S 
1591 22.235 0.63 S 
KHBB 23.678 0.53 S 
HAYF 24.046 0.36 S 
# 2022 12 20 11 35 27.071 40.5813 -124.2428 22.052 1.879 0.206 0.206 0.852 153 
1586 4.099 1.04 P 
89255 4.269 0.96 P 
1584B 4.389 1.06 P 
1582 4.389 1.07 P 
1581 4.609 1.05 P 
KCT 4.892 0.62 P 
89781 5.169 1.06 P 
B046 6.697 1.02 P 
RBOW 6.839 0.56 P 
BJES 6.909 0.89 P 
KNEE 6.939 0.57 P 
PETL 7.329 0.61 P 
KCO 7.682 0.98 P 
DMOR 7.709 0.56 P 
KCR 8.349 0.72 P 
KPR 8.819 0.72 P 
89688 8.889 0.40 P 
KBU 10.139 0.81 P 
B049 10.237 0.89 P 
B935 10.627 0.96 P 
KRP 10.852 0.82 P 
BRIC 11.659 0.36 P 
B934 13.847 0.57 P 
HAYF 14.220 0.40 P 
KHBB 14.222 0.48 P 
KOM 15.742 0.85 P 
KIP 16.519 0.93 P 
LBK 21.639 0.81 P 
1586 7.919 1.00 S 
1023 8.139 0.84 S 
1584B 8.169 1.01 S 
1582 8.459 0.82 S 
89255 8.549 0.99 S 
1581 8.859 0.93 S 
KCT 9.012 0.78 S 
89781 9.589 0.96 S 
B046 12.027 0.94 S 
RBOW 12.309 0.45 S 
KNEE 12.773 0.47 S 
PETL 12.939 0.42 S 
KCO 14.032 0.97 S 
KCR 14.979 0.62 S 
KMR 15.942 0.77 S 
DMOR 15.959 0.96 S 
KPR 16.079 0.68 S 
KBU 16.809 0.82 S 
B935 19.147 1.01 S 
KRP 20.822 0.85 S 
B934 24.067 0.56 S 
KHBB 24.902 0.91 S 
