# 2022 12 20 11 16 53.812 40.5473 -123.9563 20.445 1.838 0.158 0.158 0.414 111 
KNEE 5.232 0.89 P 
KCR 5.258 0.63 P 
RBOW 6.378 0.47 P 
89781 6.508 0.91 P 
1581 6.578 0.92 P 
B935 7.166 1.00 P 
KBU 7.558 0.49 P 
B049 7.606 1.00 P 
B046 7.736 0.70 P 
KPR 7.998 0.99 P 
KHMB 8.311 0.62 P 
KCO 8.581 0.97 P 
KMR 8.841 0.56 P 
PRDS 9.588 0.43 P 
89688 9.938 0.67 P 
1591 10.068 0.91 P 
BRIC 10.518 0.39 P 
HAYF 11.301 0.45 P 
KHBB 11.481 0.58 P 
KRP 11.781 0.46 P 
B934 14.086 0.83 P 
KFP 17.618 0.52 P 
BJES 7.638 0.89 S 
89462 9.228 0.64 S 
KCR 9.438 0.54 S 
KMPB 10.171 0.45 S 
RBOW 11.278 0.48 S 
1581 12.348 0.75 S 
KBU 12.608 0.50 S 
B935 13.086 0.94 S 
B049 13.496 0.85 S 
KPR 13.758 0.84 S 
KCSB 14.801 0.81 S 
KHMB 14.911 0.63 S 
KMR 15.921 0.62 S 
1591 16.668 0.83 S 
PRDS 17.208 0.54 S 
89688 18.178 0.67 S 
BRIC 18.398 0.41 S 
HAYF 19.959 0.44 S 
KHBB 20.271 0.62 S 
B934 24.506 0.80 S 
WEAV 25.398 0.47 S 
RVIT 27.603 0.43 S 
# 2022 12 20 11 17 3.188 40.5044 -124.4350 14.752 1.789 0.157 0.157 0.483 112 
1584B 3.092 0.85 P 
KCT 4.205 0.61 P 
B046 4.540 0.82 P 
1586 6.082 0.95 P 
PETL 6.242 0.44 P 
KMPB 6.575 0.61 P 
89462 6.612 0.97 P 
1581 7.122 1.01 P 
KCO 7.135 0.99 P 
RBOW 7.232 0.66 P 
KPR 9.182 0.62 P 
KCR 10.262 0.63 P 
KBU 11.062 0.62 P 
B049 11.250 0.89 P 
1591 13.702 0.91 P 
1584B 7.382 0.95 S 
KCT 7.625 0.68 S 
1023 9.372 0.76 S 
B046 10.080 0.84 S 
PETL 10.732 0.54 S 
1586 11.032 0.89 S 
KMPB 11.275 0.61 S 
89462 11.782 0.91 S 
KCO 12.265 0.89 S 
RBOW 12.662 0.35 S 
1581 12.872 0.93 S 
89781 14.442 0.83 S 
KPR 16.032 0.62 S 
KCR 18.072 0.60 S 
PRDS 18.382 0.43 S 
89688 18.652 0.62 S 
KBU 19.692 0.61 S 
B049 19.800 0.71 S 
BRIC 21.782 0.42 S 
1591 23.662 0.82 S 
79046 28.062 0.62 S 
# 2022 12 20 11 17 25.423 40.6088 -124.0694 16.197 2.106 0.137 0.137 0.411 113 
89462 4.147 0.99 P 
1586 4.387 1.02 P 
BJES 4.657 0.41 P 
1581 4.827 1.03 P 
KNEE 4.867 0.51 P 
89781 4.977 1.06 P 
KMPB 5.370 0.90 P 
DMOR 5.907 0.42 P 
KCT 6.240 0.62 P 
KCR 6.437 0.61 P 
RBOW 6.517 0.38 P 
B046 7.655 1.01 P 
KCO 8.460 1.03 P 
KHMB 8.510 0.62 P 
KPR 8.567 0.86 P 
B935 8.855 1.01 P 
KBU 8.937 0.60 P 
B049 9.065 0.96 P 
KCSB 9.810 1.02 P 
KMR 10.480 0.62 P 
PRDS 10.617 0.44 P 
BRIC 11.667 0.49 P 
HAYF 12.820 0.43 P 
KHBB 12.850 0.46 P 
B934 15.555 0.95 P 
KIP 16.937 0.92 P 
TRIN 18.630 0.49 P 
KFP 18.847 0.69 P 
LBK 20.607 0.75 P 
89462 7.707 0.92 S 
BJES 8.377 0.65 S 
1586 8.407 0.91 S 
89781 9.017 0.91 S 
KNEE 9.067 0.58 S 
1581 9.127 0.93 S 
KMPB 9.520 0.55 S 
1023 9.547 0.88 S 
1584B 10.017 0.66 S 
KCT 11.240 0.56 S 
KCR 11.467 0.57 S 
RBOW 11.897 0.70 S 
B046 13.565 0.87 S 
KHMB 15.070 0.60 S 
PETL 15.417 0.39 S 
KCO 15.550 0.92 S 
B935 15.705 0.93 S 
KBU 15.997 0.69 S 
B049 16.085 0.85 S 
KPR 16.887 0.43 S 
KCSB 17.590 0.88 S 
KMR 18.750 0.57 S 
PRDS 19.037 0.49 S 
89688 19.987 0.65 S 
BRIC 20.457 0.39 S 
1591 20.707 0.90 S 
KHBB 23.060 0.89 S 
HAYF 23.190 0.48 S 
B934 26.705 0.97 S 
KFP 34.207 0.63 S 
# 2022 12 20 11 17 57.363 41.4082 -124.5564 6.639 1.393 2.487 2.487 0.508 114 
DMOR 18.557 0.57 P 
KBU 22.107 0.56 P 
KPR 22.167 0.41 P 
B049 22.245 0.55 P 
KMR 23.130 0.37 P 
PRDS 23.547 0.59 P 
BRIC 24.847 0.60 P 
KMPB 33.820 0.34 S 
KPR 38.337 0.45 S 
BRIC 43.237 0.44 S 
# 2022 12 20 11 18 22.450 40.5356 -124.0721 21.802 1.592 0.209 0.209 0.452 115 
89462 4.470 1.04 P 
KMPB 4.853 0.53 P 
1584B 5.000 0.89 P 
BJES 5.160 0.93 P 
1586 5.310 1.03 P 
RBOW 5.660 0.45 P 
KCT 6.083 0.67 P 
KNEE 6.100 0.53 P 
KCR 6.130 0.61 P 
DMOR 6.380 0.60 P 
B046 6.618 1.01 P 
KCO 7.383 1.00 P 
PETL 7.400 0.90 P 
KPR 7.480 0.65 P 
KBU 7.900 0.58 P 
B049 7.978 1.01 P 
BRIC 8.320 0.52 P 
B935 8.548 1.03 P 
PRDS 9.180 0.49 P 
KCSB 9.473 1.01 P 
KMR 9.483 0.99 P 
KHBB 12.603 0.97 P 
HAYF 12.763 0.56 P 
WEAV 14.980 1.06 P 
LBK 20.980 0.64 P 
89462 8.330 0.94 S 
KMPB 8.753 0.62 S 
1584B 9.960 0.92 S 
1586 10.150 0.92 S 
1023 10.470 0.53 S 
KCR 11.050 0.55 S 
KNEE 11.160 0.47 S 
KCT 11.243 0.54 S 
1581 11.330 0.69 S 
B046 11.768 0.88 S 
DMOR 12.800 0.89 S 
KCO 13.203 0.90 S 
KPR 13.630 0.57 S 
KBU 14.130 0.74 S 
B049 14.168 0.87 S 
B935 15.348 0.92 S 
PRDS 16.400 0.46 S 
KMR 17.083 0.47 S 
KCSB 17.263 0.92 S 
BRIC 18.080 0.58 S 
HAYF 21.823 0.59 S 
KHBB 22.203 0.97 S 
WEAV 27.200 0.53 S 
# 2022 12 20 11 18 56.524 40.5435 -123.9662 20.718 1.422 0.182 0.182 0.456 116 
89462 4.796 0.98 P 
KCR 5.236 0.54 P 
KMPB 5.379 0.96 P 
KNEE 5.400 0.89 P 
RBOW 6.196 0.43 P 
KCT 7.289 0.75 P 
KBU 7.566 0.75 P 
B046 7.604 0.85 P 
PRDS 9.526 0.67 P 
KMR 9.529 0.90 P 
BRIC 10.666 0.57 P 
HAYF 11.527 0.63 P 
KHBB 11.639 0.52 P 
WEAV 14.346 0.54 P 
89462 9.126 0.91 S 
KCR 9.496 0.57 S 
KMPB 9.829 0.91 S 
RBOW 10.946 0.54 S 
1586 12.186 0.79 S 
KCT 12.329 0.39 S 
B935 12.854 0.87 S 
B049 13.404 0.81 S 
KBU 13.456 0.53 S 
B046 13.584 0.75 S 
KPR 13.826 0.86 S 
PETL 15.006 0.67 S 
KCO 15.049 0.85 S 
KMR 15.879 0.85 S 
PRDS 17.166 0.35 S 
BRIC 18.196 0.63 S 
HAYF 20.249 0.37 S 
KHBB 20.679 0.84 S 
B934 24.284 0.53 S 
WEAV 25.206 0.43 S 
# 2022 12 20 11 19 16.460 40.7055 -123.9500 19.897 1.657 0.175 0.175 0.377 117 
KNEE 4.050 0.49 P 
DMOR 4.350 0.51 P 
1581 5.250 0.96 P 
BJES 5.410 0.90 P 
1586 5.840 0.77 P 
KHMB 6.413 0.53 P 
KCR 7.390 0.62 P 
RBOW 8.310 0.49 P 
B935 8.378 0.95 P 
KCSB 8.543 0.88 P 
KRP 9.313 0.90 P 
B046 9.558 0.34 P 
KMR 11.193 0.83 P 
KHBB 11.563 0.74 P 
HAYF 11.863 0.34 P 
WEAV 13.990 0.53 P 
KNEE 7.624 0.44 S 
89781 8.650 0.94 S 
DMOR 9.080 0.43 S 
BJES 9.990 0.36 S 
1581 10.110 0.87 S 
1586 11.040 0.75 S 
89462 11.590 0.38 S 
KHMB 11.743 0.60 S 
KCR 13.070 0.53 S 
B935 15.018 0.86 S 
KRP 16.993 0.73 S 
B046 17.098 0.51 S 
B049 17.828 0.44 S 
KMR 20.063 0.62 S 
KHBB 20.263 0.73 S 
HAYF 20.613 0.55 S 
KOM 22.953 0.46 S 
WEAV 24.120 0.47 S 
# 2022 12 20 11 19 28.801 40.5027 -124.4051 16.567 1.789 0.190 0.190 0.820 118 
1586 5.289 0.86 P 
B046 5.537 0.91 P 
PETL 5.789 0.51 P 
KMPB 5.922 0.95 P 
KCO 6.682 0.95 P 
KPR 8.649 0.58 P 
PRDS 9.399 0.66 P 
B049 9.877 0.65 P 
89688 10.239 0.79 P 
BRIC 12.029 0.38 P 
KHBB 17.792 0.52 P 
WEAV 20.259 0.50 P 
1584B 6.729 0.72 S 
1023 8.589 0.86 S 
B046 9.877 0.89 S 
1586 10.129 0.76 S 
PETL 10.529 0.45 S 
KMPB 10.642 0.45 S 
89462 10.889 0.82 S 
KCO 11.962 0.86 S 
RBOW 12.149 0.41 S 
KPR 15.699 0.59 S 
KCR 17.409 0.62 S 
PRDS 17.809 0.33 S 
B049 18.057 0.59 S 
89688 18.289 0.73 S 
BJES 18.479 0.35 S 
KBU 18.879 0.47 S 
BRIC 21.079 0.66 S 
HAYF 26.452 0.44 S 
B934 26.997 0.34 S 
# 2022 12 20 11 19 36.511 40.7449 -123.8254 20.600 2.081 0.150 0.150 0.453 119 
DMOR 3.449 0.55 P 
KHMB 5.452 0.57 P 
89781 6.089 0.97 P 
1581 6.859 0.99 P 
BJES 7.579 0.45 P 
1586 7.649 0.90 P 
89462 7.699 0.62 P 
KCSB 7.822 0.98 P 
B935 7.827 0.93 P 
KCR 7.979 0.93 P 
KMPB 8.882 0.65 P 
KRP 9.302 0.74 P 
KHBB 10.122 0.55 P 
HAYF 10.692 0.52 P 
KMR 11.012 0.66 P 
WEAV 12.559 0.60 P 
TRIN 16.362 0.62 P 
DMOR 7.419 0.46 S 
KNEE 8.479 0.59 S 
KHMB 9.782 0.63 S 
BJES 10.849 0.44 S 
89781 10.849 0.68 S 
1581 13.019 0.92 S 
B935 13.917 0.91 S 
89462 13.979 0.88 S 
KCR 14.139 0.50 S 
KCSB 14.212 0.96 S 
KTD 15.159 0.78 S 
KMPB 15.762 0.56 S 
KRP 16.902 0.87 S 
KHBB 17.502 0.67 S 
B049 18.387 0.66 S 
HAYF 18.680 0.45 S 
KCT 18.992 0.47 S 
KMR 20.302 0.44 S 
KOM 20.822 0.55 S 
WEAV 21.899 0.61 S 
TRIN 28.762 0.45 S 
LBK 31.099 0.77 S 
SCOT 31.100 0.36 S 
GUMB 35.329 0.51 S 
# 2022 12 20 11 19 47.972 40.5223 -124.4035 17.414 2.021 0.166 0.166 0.409 120 
1584B 4.018 0.90 P 
KCT 4.281 0.62 P 
1586 5.678 0.97 P 
1581 5.938 0.39 P 
B046 5.946 0.98 P 
89462 6.218 0.98 P 
KMPB 6.291 0.63 P 
PETL 6.368 0.54 P 
KCO 7.141 0.86 P 
BJES 8.878 0.76 P 
KPR 9.078 0.66 P 
KCR 9.818 0.62 P 
PRDS 9.948 0.60 P 
89688 10.748 0.78 P 
KBU 10.878 0.61 P 
B049 11.026 0.94 P 
BRIC 11.878 0.85 P 
B935 12.716 0.71 P 
1584B 7.008 0.92 S 
KCT 7.471 0.69 S 
1023 8.808 0.98 S 
B046 10.286 0.94 S 
1586 10.408 0.92 S 
PETL 10.918 0.41 S 
KMPB 10.981 0.51 S 
89462 11.178 0.93 S 
1581 12.238 0.87 S 
KCO 12.401 0.90 S 
BJES 15.718 0.39 S 
KPR 16.278 0.54 S 
KCR 16.658 0.58 S 
89688 18.508 0.91 S 
B049 19.366 0.90 S 
DMOR 19.438 0.79 S 
KBU 19.468 0.62 S 
B935 22.436 0.89 S 
KMR 22.731 0.55 S 
1591 23.088 0.79 S 
B934 27.406 0.70 S 
79046 27.838 0.40 S 
# 2022 12 20 11 20 25.317 40.5463 -124.4360 16.893 1.713 0.369 0.369 0.826 121 
1586 4.533 0.97 P 
KMPB 4.556 0.47 P 
KCT 4.956 0.93 P 
RBOW 6.493 0.65 P 
B046 6.611 0.97 P 
KCO 7.786 0.97 P 
KPR 9.763 0.57 P 
PRDS 11.213 0.90 P 
89688 11.413 0.89 P 
B049 11.751 0.91 P 
BRIC 13.123 0.48 P 
B934 15.691 0.83 P 
1023 9.773 0.81 S 
KMPB 11.746 0.45 S 
KCO 13.056 0.70 S 
KPR 16.473 0.52 S 
PRDS 18.853 0.35 S 
89688 19.283 0.84 S 
KBU 20.363 0.41 S 
BRIC 22.373 0.41 S 
B934 27.941 0.78 S 
# 2022 12 20 11 20 50.513 40.5987 -124.0645 17.800 1.875 0.196 0.196 0.557 122 
89462 4.287 0.58 P 
1586 4.487 0.86 P 
BJES 4.687 0.65 P 
1581 4.917 0.99 P 
89781 5.007 0.96 P 
KNEE 5.011 0.75 P 
KCR 6.357 0.60 P 
RBOW 6.537 0.43 P 
KPR 8.497 0.83 P 
B935 8.685 0.94 P 
KBU 8.737 0.61 P 
B049 8.845 0.95 P 
KHMB 9.180 0.68 P 
KMR 10.100 0.59 P 
1591 11.277 0.89 P 
HAYF 12.560 0.50 P 
KHBB 12.580 0.43 P 
WEAV 15.497 0.94 P 
89462 8.057 0.63 S 
BJES 8.587 0.43 S 
1586 8.617 0.83 S 
89781 9.147 0.88 S 
1581 9.357 0.89 S 
KCR 11.497 0.47 S 
1584B 12.087 0.65 S 
DMOR 14.957 0.38 S 
KBU 15.737 0.61 S 
B049 15.795 0.86 S 
B935 15.825 0.91 S 
KCSB 17.380 0.88 S 
KMR 18.470 0.57 S 
BRIC 20.217 0.81 S 
KHBB 22.260 0.59 S 
HAYF 22.800 0.37 S 
# 2022 12 20 11 20 56.622 40.4905 -124.2665 16.015 1.874 0.203 0.203 0.525 123 
KCT 3.491 0.65 P 
1023 3.658 0.95 P 
1584B 4.008 0.94 P 
B046 5.056 0.91 P 
RBOW 5.348 0.34 P 
PETL 5.548 0.66 P 
KCO 6.211 0.93 P 
89781 7.568 0.77 P 
KNEE 8.182 0.38 P 
89688 9.628 0.82 P 
89462 6.688 0.38 S 
KCT 6.791 0.52 S 
1023 7.588 0.91 S 
1586 9.088 0.79 S 
B046 9.276 0.87 S 
KCO 9.541 0.64 S 
PETL 10.138 0.39 S 
1581 10.998 0.82 S 
89781 12.028 0.45 S 
BJES 13.858 0.54 S 
KNEE 15.248 0.36 S 
89688 17.708 0.66 S 
DMOR 17.708 0.80 S 
KRP 23.301 0.60 S 
# 2022 12 20 11 21 39.911 40.5898 -124.2800 20.747 2.826 0.160 0.160 0.384 124 
1023 4.289 1.05 P 
1586 4.349 1.04 P 
1584B 4.359 1.03 P 
KCT 4.852 0.60 P 
1581 5.029 1.01 P 
89462 5.359 1.06 P 
89781 5.649 1.03 P 
KMPB 5.992 0.64 P 
B046 6.737 1.04 P 
RBOW 6.869 0.49 P 
BJES 7.209 0.55 P 
KNEE 7.213 0.44 P 
PETL 7.269 0.63 P 
KCO 7.712 1.05 P 
DMOR 8.119 0.53 P 
KCR 8.549 0.71 P 
KPR 8.759 0.64 P 
KTD 9.319 1.03 P 
KBU 9.879 0.50 P 
PRDS 10.169 0.59 P 
KHMB 10.192 0.59 P 
B049 10.327 0.98 P 
89688 10.659 0.91 P 
B935 10.877 0.97 P 
KRP 11.322 0.99 P 
KCSB 11.682 0.84 P 
BRIC 11.899 0.40 P 
1591 12.329 0.78 P 
KHBB 14.582 0.58 P 
B934 15.097 0.86 P 
79046 15.819 0.98 P 
KOM 16.212 0.90 P 
KFP 19.169 0.54 P 
TRIN 20.850 0.36 P 
LBK 21.929 1.07 P 
GUMB 24.689 0.41 P 
1584B 7.829 0.90 S 
1586 8.229 0.97 S 
1023 8.249 0.89 S 
KCT 8.782 0.62 S 
1581 9.409 0.91 S 
89462 9.929 0.89 S 
89781 10.229 0.93 S 
KMPB 10.382 0.55 S 
B046 11.827 0.89 S 
RBOW 12.179 0.47 S 
PETL 12.819 0.46 S 
BJES 13.079 0.46 S 
KNEE 13.533 0.47 S 
KCO 13.782 0.94 S 
KCR 15.209 0.56 S 
DMOR 15.689 0.96 S 
KPR 15.859 0.58 S 
KTD 16.999 0.96 S 
KBU 17.819 0.94 S 
KHMB 18.002 0.63 S 
B049 18.447 0.95 S 
PRDS 18.513 0.41 S 
89688 19.139 0.91 S 
B935 19.187 0.98 S 
KRP 20.102 0.95 S 
BRIC 21.149 0.64 S 
KHBB 25.452 0.67 S 
HAYF 25.612 0.79 S 
79046 27.519 0.89 S 
TRIN 36.750 0.59 S 
GUMB 43.533 0.52 S 
# 2022 12 20 11 22 39.662 40.5387 -124.3182 17.355 1.696 0.146 0.146 0.672 125 
KCT 4.011 0.57 P 
1586 4.658 1.05 P 
KMPB 4.811 0.84 P 
89462 5.148 1.05 P 
1582 5.338 1.02 P 
1023 5.388 0.77 P 
1581 5.728 1.02 P 
B046 5.906 1.03 P 
RBOW 6.238 0.43 P 
89781 6.448 1.04 P 
PETL 6.458 0.53 P 
KCO 7.041 1.00 P 
KPR 8.568 0.58 P 
DMOR 8.688 0.44 P 
KCR 8.778 0.90 P 
KBU 10.048 0.62 P 
PRDS 10.058 0.55 P 
B049 10.196 0.95 P 
89688 10.508 0.96 P 
KHMB 11.251 0.94 P 
B935 11.496 0.97 P 
KMR 11.811 0.93 P 
BRIC 11.978 0.63 P 
KRP 12.301 0.91 P 
KHBB 15.351 0.89 P 
1584B 6.458 0.98 S 
KCT 7.321 0.69 S 
1023 7.598 0.91 S 
1586 8.748 0.95 S 
89462 9.478 0.95 S 
KMPB 9.971 0.35 S 
B046 10.476 0.94 S 
RBOW 11.158 0.49 S 
PETL 11.358 0.47 S 
89781 11.698 0.97 S 
KCO 12.381 0.92 S 
BJES 12.468 0.41 S 
KPR 15.248 0.58 S 
KCR 15.988 0.45 S 
DMOR 17.468 0.94 S 
PRDS 17.802 0.41 S 
KBU 18.108 0.61 S 
B049 18.176 0.90 S 
89688 18.208 0.88 S 
KHMB 19.691 0.86 S 
KMR 20.071 0.53 S 
B935 20.596 0.94 S 
BRIC 20.948 0.45 S 
HAYF 27.751 0.41 S 
WEAV 34.208 0.42 S 
# 2022 12 20 11 23 43.746 40.5311 -124.4104 18.164 2.742 0.135 0.135 0.714 126 
1584B 4.364 1.05 P 
KCT 4.467 0.54 P 
1023 5.004 1.02 P 
B046 5.822 1.01 P 
1586 5.844 1.03 P 
PETL 6.034 0.54 P 
KMPB 6.327 0.54 P 
89462 6.404 1.05 P 
1582 6.414 1.01 P 
1581 6.654 1.06 P 
KCO 6.757 1.03 P 
RBOW 6.984 0.44 P 
89781 7.404 1.04 P 
KPR 8.754 0.59 P 
BJES 8.764 1.00 P 
KNEE 9.208 0.49 P 
KCR 9.654 0.61 P 
PRDS 9.994 0.41 P 
DMOR 10.014 0.46 P 
89688 10.254 0.95 P 
KBU 10.484 0.59 P 
B049 10.542 0.93 P 
KTD 10.624 0.90 P 
KHMB 12.067 0.98 P 
BRIC 12.194 0.47 P 
B935 12.242 0.95 P 
KMR 12.507 0.61 P 
KRP 12.767 0.89 P 
KCSB 13.107 0.95 P 
1591 13.184 0.96 P 
99700 13.984 0.67 P 
HAYF 16.077 0.92 P 
KHBB 16.227 0.50 P 
79046 16.604 1.03 P 
B934 17.092 0.75 P 
KBN 20.024 0.85 P 
TRIN 22.097 1.01 P 
GNR 22.974 0.33 P 
LBK 23.894 1.02 P 
SCOT 24.227 0.48 P 
GUMB 26.538 0.67 P 
1584B 7.904 0.90 S 
KCT 8.357 0.66 S 
1023 9.594 0.92 S 
B046 10.242 0.74 S 
1586 10.884 0.91 S 
PETL 10.894 0.42 S 
KMPB 11.277 0.62 S 
89462 11.784 0.87 S 
1582 12.014 0.92 S 
KCO 12.237 0.96 S 
1581 12.334 0.98 S 
RBOW 12.504 0.50 S 
89781 13.574 0.98 S 
KPR 15.664 0.55 S 
KNEE 16.444 0.49 S 
KCR 17.494 0.60 S 
PRDS 17.534 0.46 S 
89688 17.814 0.45 S 
DMOR 18.704 0.95 S 
KBU 19.144 0.58 S 
B049 19.512 0.96 S 
BRIC 21.224 0.50 S 
KHMB 21.227 0.54 S 
B935 22.072 0.98 S 
KRP 22.617 0.67 S 
KMR 22.827 0.92 S 
1591 23.194 0.88 S 
KCSB 23.697 0.93 S 
KHBB 28.687 0.81 S 
B934 28.872 1.00 S 
79046 29.784 0.97 S 
KOM 31.127 0.67 S 
79298 39.054 0.41 S 
LBK 41.424 0.99 S 
SCOT 41.755 0.52 S 
GUMB 46.698 0.58 S 
# 2022 12 20 11 24 49.583 40.5948 -124.0936 16.252 1.643 0.156 0.156 0.453 127 
1586 4.357 0.83 P 
1582 4.437 0.90 P 
BJES 4.897 0.71 P 
KNEE 5.021 0.53 P 
89781 5.097 1.01 P 
DMOR 6.057 0.57 P 
RBOW 6.487 0.57 P 
KCR 6.537 0.72 P 
B046 7.475 0.83 P 
KPR 8.387 0.60 P 
KCO 8.410 0.85 P 
KHMB 8.730 0.41 P 
KBU 9.047 0.57 P 
B935 9.055 0.97 P 
B049 9.105 0.94 P 
KCSB 9.940 0.94 P 
KMR 10.390 0.56 P 
PRDS 10.507 0.53 P 
89688 11.147 0.83 P 
BRIC 11.747 0.62 P 
KHBB 13.110 0.60 P 
WEAV 15.937 0.50 P 
89462 7.667 0.67 S 
1582 8.157 0.91 S 
1586 8.297 0.93 S 
BJES 8.697 0.53 S 
1581 9.157 0.79 S 
89781 9.207 0.93 S 
KNEE 9.347 0.52 S 
KMPB 9.410 0.33 S 
B046 11.765 0.50 S 
KCR 11.787 0.40 S 
KCO 14.110 0.73 S 
KPR 15.037 0.62 S 
KHMB 15.710 0.63 S 
KBU 15.867 0.61 S 
B049 16.165 0.86 S 
B935 16.505 0.87 S 
KCSB 17.990 0.58 S 
KMR 18.830 0.60 S 
PRDS 18.877 0.39 S 
BRIC 20.447 0.41 S 
1591 20.727 0.64 S 
B934 26.685 0.39 S 
WEAV 28.227 0.54 S 
# 2022 12 20 11 25 32.345 40.5483 -124.2371 19.420 1.607 0.171 0.171 0.402 128 
KCT 4.708 0.90 P 
1581 4.845 0.89 P 
KMPB 5.028 0.94 P 
1582 5.045 1.02 P 
89781 5.805 1.00 P 
RBOW 6.075 0.54 P 
B046 6.213 0.96 P 
PETL 6.555 0.48 P 
KNEE 6.939 0.69 P 
KCO 7.208 0.94 P 
KCR 7.815 0.67 P 
KPR 8.195 0.54 P 
KBU 9.185 0.56 P 
B049 9.433 0.93 P 
PRDS 9.575 0.49 P 
KHMB 10.428 0.54 P 
KMR 11.068 0.48 P 
BRIC 11.525 0.50 P 
89255 8.235 0.77 S 
1586 8.495 0.77 S 
KCT 8.508 0.50 S 
89462 8.625 0.82 S 
KMPB 9.088 0.44 S 
1582 9.425 0.91 S 
1581 10.155 0.97 S 
RBOW 10.675 0.41 S 
B046 10.873 0.81 S 
89781 10.985 0.95 S 
BJES 11.955 0.78 S 
PETL 11.995 0.48 S 
KCO 12.678 0.72 S 
KNEE 13.049 0.57 S 
KCR 13.985 0.59 S 
KPR 14.375 0.81 S 
KBU 16.825 0.59 S 
B049 16.833 0.88 S 
PRDS 17.495 0.45 S 
89688 17.945 0.75 S 
KHMB 18.108 0.92 S 
B935 18.813 0.58 S 
KMR 19.868 0.74 S 
BRIC 20.615 0.64 S 
# 2022 12 20 11 25 47.130 40.5485 -123.9533 20.029 1.652 0.143 0.143 0.445 129 
KCR 5.140 0.59 P 
DMOR 5.190 0.58 P 
KMPB 5.443 0.57 P 
RBOW 6.210 0.54 P 
1586 6.230 0.99 P 
1582 6.510 1.02 P 
1581 6.860 1.00 P 
B935 7.188 0.93 P 
KCT 7.353 0.99 P 
KBU 7.480 0.60 P 
B049 7.488 0.94 P 
B046 7.638 0.98 P 
KPR 7.760 0.66 P 
KHMB 8.363 0.37 P 
KCO 8.403 0.67 P 
PETL 8.440 0.91 P 
KMR 8.723 0.61 P 
PRDS 9.640 0.72 P 
HAYF 11.161 0.50 P 
KHBB 11.453 0.56 P 
WEAV 13.960 0.64 P 
PETY 18.091 0.43 P 
BJES 7.640 0.97 S 
89462 9.180 0.95 S 
KCR 9.310 0.62 S 
89255 9.840 0.90 S 
KNEE 9.840 0.47 S 
KMPB 9.923 0.44 S 
RBOW 11.040 0.37 S 
1582 11.400 0.92 S 
1586 11.630 0.94 S 
89781 12.020 0.89 S 
1581 12.280 0.88 S 
B935 12.968 0.92 S 
B049 13.258 0.77 S 
B046 13.598 0.85 S 
KBU 13.710 0.58 S 
KPR 13.720 0.53 S 
KCT 13.963 0.36 S 
KCO 15.073 0.89 S 
PETL 15.490 0.46 S 
KMR 15.723 0.92 S 
PRDS 16.850 0.36 S 
BRIC 18.190 0.53 S 
1591 18.560 0.87 S 
HAYF 19.993 0.47 S 
KHBB 20.413 0.87 S 
B934 24.188 0.33 S 
WEAV 25.160 0.58 S 
PETY 32.051 0.43 S 
# 2022 12 20 11 26 15.397 40.7404 -123.8816 24.326 1.692 0.313 0.313 1.126 130 
89255 6.093 0.41 P 
DMOR 6.433 0.56 P 
1586 6.733 0.68 P 
1582 6.923 0.70 P 
B935 8.261 0.78 P 
KCSB 8.326 0.79 P 
KCT 9.706 0.43 P 
B046 9.771 0.48 P 
KHBB 10.466 0.55 P 
HAYF 10.614 0.56 P 
PETL 10.803 0.50 P 
KBU 11.553 0.57 P 
B049 11.721 0.96 P 
KCO 11.846 0.87 P 
KMR 12.076 0.91 P 
WEAV 13.013 0.40 P 
BRIC 14.203 0.65 P 
DMOR 8.973 0.54 S 
1586 10.373 0.73 S 
1582 10.893 0.73 S 
1581 11.693 0.83 S 
BJES 11.743 0.39 S 
89781 11.983 0.90 S 
B935 12.621 0.81 S 
1584B 13.833 0.78 S 
KCR 14.823 0.59 S 
HAYF 16.336 0.35 S 
KPR 17.713 0.69 S 
B049 18.501 0.85 S 
KBU 18.703 0.60 S 
PRDS 21.207 0.73 S 
BRIC 22.243 0.48 S 
# 2022 12 20 11 26 42.927 40.5396 -124.3539 18.456 1.542 0.171 0.171 0.829 131 
KCT 4.196 0.63 P 
B046 5.051 1.02 P 
1586 5.113 0.98 P 
89255 5.383 0.76 P 
1582 5.803 0.99 P 
KPR 8.933 0.66 P 
KCR 9.163 0.69 P 
B935 9.891 0.75 P 
PRDS 10.397 0.46 P 
KBU 10.423 0.56 P 
B049 10.501 0.94 P 
89688 10.763 0.89 P 
KHMB 11.906 0.59 P 
KMR 11.916 0.96 P 
BRIC 12.313 0.53 P 
HAYF 12.674 0.34 P 
1584B 6.483 0.94 S 
KCT 7.286 0.67 S 
1023 8.033 0.76 S 
1586 9.403 0.90 S 
89255 9.733 0.60 S 
B046 10.381 0.94 S 
1582 10.673 0.86 S 
PETL 11.203 0.34 S 
1581 11.403 0.91 S 
BJES 14.403 0.42 S 
KCR 15.703 0.39 S 
KPR 16.123 0.58 S 
PRDS 18.203 0.49 S 
B049 18.541 0.92 S 
89688 18.553 0.56 S 
KBU 18.563 0.69 S 
B935 19.631 0.33 S 
BRIC 21.223 0.64 S 
KMR 21.376 0.93 S 
1591 22.883 0.56 S 
B934 27.011 0.54 S 
# 2022 12 20 11 27 11.585 40.5722 -124.2220 18.148 1.426 0.213 0.213 0.583 132 
1584B 4.295 0.79 P 
1582 4.685 0.95 P 
PETL 6.325 0.74 P 
B046 6.453 0.95 P 
KCR 7.545 0.62 P 
DMOR 7.575 0.40 P 
KPR 8.335 0.89 P 
KBU 9.325 0.91 P 
B049 9.333 0.93 P 
B935 10.463 0.88 P 
KMR 10.938 0.88 P 
89255 7.305 0.73 S 
1584B 7.675 0.91 S 
1586 7.895 0.72 S 
1582 8.745 0.91 S 
KCT 8.868 0.89 S 
1581 9.585 0.82 S 
B046 11.473 0.91 S 
PETL 12.705 0.38 S 
RBOW 13.095 0.38 S 
KCR 13.415 0.40 S 
KCO 13.678 0.71 S 
KPR 15.125 0.50 S 
KBU 16.335 0.53 S 
KMR 19.878 0.84 S 
BRIC 20.135 0.52 S 
1591 20.965 0.74 S 
KHBB 25.858 0.40 S 
B934 27.433 0.47 S 
# 2022 12 20 11 27 28.805 40.5153 -124.3317 15.234 1.128 0.204 0.204 0.427 133 
1584B 3.465 0.77 P 
KCT 3.468 0.52 P 
1586 4.675 0.66 P 
KPR 8.405 0.72 P 
KCR 9.055 0.74 P 
1584B 5.955 0.74 S 
KCT 6.718 0.53 S 
1586 9.235 0.73 S 
89255 9.545 0.64 S 
B046 9.603 0.56 S 
KMPB 9.658 0.58 S 
PETL 10.335 0.40 S 
RBOW 10.995 0.34 S 
KCR 15.205 0.62 S 
KBU 17.675 0.65 S 
B049 18.333 0.63 S 
BRIC 20.675 0.34 S 
