# 2022 12 20 10 40 16.908 40.5175 -124.4007 16.303 2.691 0.148 0.148 0.473 23 
KCT 3.165 0.64 P 
1023 4.622 0.98 P 
B046 5.550 0.92 P 
89462 5.602 0.93 P 
1586 5.602 0.92 P 
PETL 6.052 0.38 P 
KMPB 6.165 0.59 P 
1581 6.632 0.95 P 
RBOW 6.912 0.33 P 
KCO 6.995 0.91 P 
B045 7.070 0.78 P 
B047 7.550 0.89 P 
KPR 8.862 0.48 P 
1580 8.922 0.95 P 
KCR 9.722 0.46 P 
DMOR 10.182 0.89 P 
PRDS 10.492 0.41 P 
89688 10.622 0.86 P 
KBU 10.762 0.70 P 
B049 10.910 0.92 P 
BRIC 12.262 0.33 P 
B935 12.490 0.83 P 
1591 12.692 0.90 P 
KMR 12.725 0.80 P 
KHMB 13.425 0.78 P 
1584B 6.932 0.91 S 
KCT 7.455 0.57 S 
1023 8.742 0.85 S 
B046 10.020 0.47 S 
1586 10.292 0.51 S 
KMPB 10.895 0.54 S 
PETL 10.902 0.49 S 
89462 11.182 0.77 S 
RBOW 12.012 0.48 S 
1581 12.112 0.74 S 
KCO 12.305 0.80 S 
B047 13.010 0.51 S 
89781 13.422 0.59 S 
KPR 15.912 0.64 S 
1580 15.932 0.91 S 
KNEE 16.652 0.34 S 
KCR 17.502 0.75 S 
PRDS 18.136 0.46 S 
89688 18.532 0.75 S 
B049 19.260 0.67 S 
DMOR 19.342 0.83 S 
BRIC 21.672 0.46 S 
1591 22.982 0.78 S 
B934 27.390 0.60 S 
79046 27.662 0.55 S 
# 2022 12 20 10 40 29.882 40.5035 -124.4359 18.726 2.563 0.212 0.212 0.460 24 
1584B 4.568 0.75 P 
KCT 4.621 0.59 P 
89462 5.038 0.41 P 
B046 5.816 0.76 P 
PETL 5.988 0.56 P 
1586 6.028 0.65 P 
KMPB 6.521 0.53 P 
KCO 6.701 0.70 P 
RBOW 7.148 0.41 P 
B047 7.406 0.80 P 
KPR 8.808 0.50 P 
PRDS 9.888 0.54 P 
1584B 8.218 0.81 S 
KCT 8.621 0.54 S 
1023 9.608 0.76 S 
B046 10.326 0.77 S 
1586 11.258 0.74 S 
KMPB 11.501 0.48 S 
89462 12.118 0.51 S 
KCO 12.291 0.74 S 
1581 12.528 0.51 S 
RBOW 12.588 0.36 S 
B047 12.976 0.79 S 
B045 13.446 0.76 S 
KPR 15.678 0.50 S 
B049 19.516 0.51 S 
BRIC 21.508 0.58 S 
# 2022 12 20 10 40 44.574 40.5371 -124.1505 28.827 2.386 0.216 0.216 0.714 25 
B045 4.464 0.88 P 
89462 5.286 0.94 P 
KMPB 5.409 0.65 P 
1586 5.626 0.86 P 
89781 6.016 0.82 P 
RBOW 6.026 0.45 P 
1581 6.246 0.90 P 
B046 6.354 0.92 P 
PETL 7.036 0.78 P 
B047 7.064 0.91 P 
1584B 7.076 0.65 P 
KCO 7.199 0.89 P 
KNEE 7.316 0.34 P 
KBU 7.376 0.76 P 
KCR 7.406 0.46 P 
KPR 7.836 0.65 P 
B049 8.884 0.92 P 
DMOR 9.106 0.40 P 
PRDS 9.650 0.50 P 
89688 9.916 0.89 P 
B935 9.984 0.57 P 
KHBB 10.019 0.46 P 
KHMB 10.379 0.59 P 
BRIC 10.876 0.86 P 
KMPB 9.439 0.61 S 
B045 9.444 0.81 S 
89462 9.506 0.86 S 
1023 10.036 0.75 S 
1586 10.226 0.89 S 
RBOW 10.596 0.47 S 
B046 10.814 0.84 S 
1581 11.476 0.91 S 
89781 11.486 0.88 S 
BJES 11.586 0.42 S 
B047 12.234 0.86 S 
1580 12.456 0.79 S 
KCO 12.519 0.86 S 
KCR 13.316 0.52 S 
KPR 14.006 0.53 S 
KBU 15.396 0.42 S 
PRDS 16.276 0.42 S 
89688 17.386 0.82 S 
BRIC 18.406 0.73 S 
B934 24.474 0.57 S 
79046 25.516 0.36 S 
# 2022 12 20 10 41 6.381 40.3536 -124.2574 13.683 1.888 0.224 0.224 0.868 26 
KCT 4.182 0.73 P 
PETL 4.839 0.52 P 
1584B 5.059 0.70 P 
1586 7.759 0.48 P 
KHBB 16.162 0.36 P 
B046 4.277 0.66 S 
RBOW 5.689 0.65 S 
KCO 6.312 0.62 S 
B047 6.907 0.77 S 
KPR 8.969 0.46 S 
1584B 9.329 0.63 S 
1023 10.779 0.60 S 
1586 11.839 0.60 S 
89688 12.789 0.50 S 
KCR 15.909 0.33 S 
# 2022 12 20 10 41 12.039 40.5624 -123.9033 25.586 2.056 0.277 0.277 0.886 27 
BJES 4.171 0.57 P 
KMPB 4.394 0.50 P 
KCR 5.921 0.49 P 
B935 6.639 0.94 P 
PETL 6.921 0.73 P 
KCSB 7.554 0.92 P 
HAYF 10.302 0.39 P 
KHBB 10.534 0.49 P 
1591 10.731 0.63 P 
89688 11.361 0.70 P 
BJES 9.221 0.52 S 
KCR 10.001 0.58 S 
KNEE 11.131 0.64 S 
B935 11.499 0.65 S 
1581 12.711 0.67 S 
KCSB 12.884 0.73 S 
B049 13.099 0.88 S 
KHMB 14.894 0.39 S 
KMR 16.014 0.82 S 
1591 17.261 0.64 S 
HAYF 17.694 0.41 S 
KHBB 18.224 0.51 S 
BRIC 18.831 0.50 S 
89688 19.401 0.55 S 
# 2022 12 20 10 41 33.478 40.6471 -124.0563 23.213 2.197 0.252 0.252 0.534 28 
1581 4.632 0.77 P 
89781 4.652 0.80 P 
1586 4.892 0.76 P 
1580 5.622 0.85 P 
DMOR 5.652 0.37 P 
B045 6.140 0.75 P 
KMPB 6.275 0.58 P 
KCR 7.282 0.51 P 
B935 7.710 0.56 P 
B049 8.970 0.37 P 
KCSB 9.445 0.76 P 
KRP 9.745 0.59 P 
KOM 13.885 0.68 P 
89781 8.762 0.75 S 
1581 9.212 0.79 S 
1586 9.382 0.74 S 
1580 10.132 0.77 S 
BJES 10.282 0.76 S 
1023 10.632 0.64 S 
1584B 11.032 0.72 S 
B045 11.120 0.70 S 
KMPB 11.365 0.55 S 
DMOR 11.632 0.76 S 
KCR 12.982 0.43 S 
KHMB 14.135 0.72 S 
B049 15.620 0.58 S 
B935 16.100 0.71 S 
KMR 19.005 0.33 S 
KOM 26.295 0.34 S 
# 2022 12 20 10 41 41.472 40.4774 -124.3292 30.421 2.400 0.217 0.217 1.081 29 
RBOW 5.598 0.34 P 
KCT 6.341 0.56 P 
1586 6.368 0.93 P 
B047 6.536 0.89 P 
PETL 6.548 0.69 P 
KCO 6.721 0.86 P 
89462 7.038 0.91 P 
1581 7.158 1.02 P 
KPR 7.328 0.58 P 
KMPB 7.331 0.75 P 
89781 7.738 0.98 P 
B045 8.086 0.93 P 
KBU 8.288 0.85 P 
BJES 9.048 0.74 P 
PRDS 9.178 0.69 P 
89688 9.378 0.89 P 
KCR 10.198 0.74 P 
BRIC 10.458 0.45 P 
KMR 10.931 0.46 P 
79046 14.378 0.84 P 
HAYF 16.389 0.38 P 
1584B 9.108 0.80 S 
1023 9.698 0.84 S 
KCT 9.981 0.54 S 
RBOW 10.038 0.39 S 
1586 10.608 0.86 S 
PETL 11.598 0.59 S 
89462 11.658 0.82 S 
B047 11.706 0.89 S 
1581 11.998 0.89 S 
B046 12.506 0.85 S 
KNEE 12.532 0.56 S 
B045 13.226 0.91 S 
KPR 13.458 0.84 S 
B049 14.926 0.68 S 
KBU 14.978 0.78 S 
BJES 15.138 0.75 S 
PRDS 15.972 0.42 S 
89688 16.858 0.78 S 
BRIC 17.868 0.49 S 
KCR 18.698 0.37 S 
KHMB 20.631 0.75 S 
KCSB 23.121 0.65 S 
79046 24.578 0.75 S 
# 2022 12 20 10 42 25.581 40.5461 -124.1531 23.620 1.804 0.232 0.232 0.478 30 
89462 4.689 0.96 P 
KMPB 4.722 0.65 P 
B045 5.097 0.88 P 
1023 5.149 0.94 P 
1584B 5.279 0.91 P 
1581 5.659 0.91 P 
BJES 5.889 0.82 P 
89781 6.029 0.83 P 
RBOW 6.229 0.55 P 
KNEE 6.489 0.53 P 
B046 6.787 0.92 P 
KCR 7.199 0.72 P 
B047 7.427 0.95 P 
89688 8.529 0.48 P 
KBU 8.589 0.93 P 
B049 8.717 0.97 P 
B935 9.537 0.89 P 
BRIC 11.329 0.46 P 
KHBB 13.132 0.48 P 
KMPB 8.682 0.48 S 
89462 8.809 0.85 S 
1586 9.349 0.86 S 
1584B 9.409 0.91 S 
1023 9.669 0.85 S 
B045 9.697 0.90 S 
BJES 10.589 0.39 S 
89781 10.819 0.85 S 
RBOW 11.009 0.39 S 
KNEE 11.709 0.38 S 
KCR 12.579 0.44 S 
KCO 12.612 0.76 S 
B047 13.007 0.88 S 
PRDS 16.189 0.40 S 
B049 16.637 0.40 S 
B935 16.817 0.89 S 
# 2022 12 20 10 42 58.442 40.5599 -124.2233 22.799 1.908 0.263 0.263 0.406 31 
1584B 4.688 0.40 P 
1586 4.808 0.56 P 
1581 5.348 0.68 P 
89781 5.738 0.67 P 
B045 6.066 0.80 P 
BJES 6.578 0.68 P 
RBOW 6.638 0.51 P 
KNEE 6.798 0.43 P 
B047 7.596 0.66 P 
KCO 7.731 0.68 P 
KCR 7.808 0.56 P 
1580 8.158 0.76 P 
KBU 9.348 0.52 P 
B935 10.276 0.74 P 
89688 10.358 0.64 P 
KHMB 11.561 0.72 P 
KHBB 13.911 0.44 P 
1023 8.058 0.56 S 
1586 8.908 0.72 S 
89462 9.488 0.70 S 
KMPB 9.751 0.73 S 
1581 9.898 0.78 S 
89781 10.328 0.74 S 
B045 10.706 0.80 S 
RBOW 11.368 0.65 S 
BJES 11.868 0.46 S 
KCR 13.838 0.47 S 
KPR 15.048 0.76 S 
B049 16.576 0.70 S 
KBU 16.598 0.78 S 
89688 18.188 0.57 S 
# 2022 12 20 10 43 9.318 40.5268 -124.3575 17.000 2.033 0.159 0.159 0.618 32 
1584B 3.842 1.01 P 
KCT 4.305 0.58 P 
1586 4.492 0.99 P 
KMPB 5.805 0.61 P 
RBOW 6.652 0.56 P 
B045 6.900 0.99 P 
89781 7.132 1.03 P 
KNEE 7.602 0.90 P 
B047 7.840 0.99 P 
KPR 8.932 0.60 P 
KCR 8.952 0.51 P 
KBU 9.512 0.96 P 
DMOR 9.652 0.61 P 
BRIC 9.772 0.69 P 
B049 10.440 0.97 P 
B935 12.080 0.98 P 
1584B 6.682 0.87 S 
KCT 7.485 0.66 S 
1023 8.242 0.85 S 
1586 9.612 0.94 S 
B046 9.780 0.84 S 
KMPB 10.065 0.55 S 
PETL 11.032 0.84 S 
1581 11.472 0.66 S 
RBOW 11.592 0.39 S 
B045 11.930 0.58 S 
KCO 12.395 0.91 S 
89781 12.622 0.97 S 
B047 13.040 0.84 S 
1580 15.232 0.83 S 
KPR 15.452 0.58 S 
KNEE 15.812 0.53 S 
KCR 16.312 0.90 S 
DMOR 18.152 0.96 S 
KBU 18.612 0.94 S 
B049 18.620 0.94 S 
B935 21.650 0.94 S 
1591 22.602 0.79 S 
KHBB 29.805 0.39 S 
# 2022 12 20 10 43 39.458 40.5167 -124.4175 15.249 2.850 0.115 0.115 0.609 33 
1584B 4.052 1.01 P 
KCT 4.155 0.57 P 
1023 4.772 1.04 P 
1586 5.852 1.03 P 
B046 5.980 1.01 P 
PETL 6.322 0.41 P 
89462 6.412 0.94 P 
KMPB 6.435 0.59 P 
1581 6.912 1.04 P 
RBOW 7.122 0.48 P 
KCO 7.175 1.01 P 
B045 7.660 0.94 P 
89781 7.682 1.04 P 
B047 7.700 1.01 P 
BJES 8.962 0.64 P 
KPR 9.232 0.65 P 
1580 9.252 0.98 P 
KNEE 9.302 0.56 P 
KCR 10.052 0.56 P 
PRDS 10.432 0.49 P 
89688 10.692 0.90 P 
KBU 11.042 0.56 P 
B049 11.170 0.90 P 
KTD 11.472 0.53 P 
BRIC 12.662 0.38 P 
KHMB 12.675 0.39 P 
B935 12.820 0.92 P 
KMR 12.935 0.80 P 
1591 13.232 0.90 P 
KCSB 13.675 0.89 P 
B934 15.800 0.87 P 
79046 16.172 0.98 P 
HAYF 16.625 0.39 P 
KIP 18.462 0.47 P 
KOM 18.505 0.94 P 
KFP 20.032 0.53 P 
DCMP 22.163 0.50 P 
PETY 22.683 1.02 P 
TRIN 23.123 0.45 P 
LSF 23.492 0.59 P 
GNR 23.572 0.34 P 
GBL 24.422 0.88 P 
LBK 24.472 1.09 P 
SCOT 24.915 0.63 P 
GVA 25.622 0.70 P 
GUMB 27.306 0.68 P 
1584B 7.032 0.84 S 
KCT 7.475 0.65 S 
1023 8.952 0.93 S 
B046 10.240 0.83 S 
1586 10.582 0.88 S 
PETL 10.962 0.53 S 
KMPB 11.125 0.53 S 
89462 11.432 0.88 S 
1581 12.422 0.95 S 
KCO 12.435 0.91 S 
RBOW 13.002 0.45 S 
B047 13.240 0.80 S 
B045 13.240 0.81 S 
89781 13.762 0.94 S 
BJES 16.032 0.38 S 
1580 16.282 0.94 S 
KPR 16.612 0.55 S 
KNEE 17.142 0.46 S 
KCR 18.012 0.61 S 
PRDS 18.302 0.40 S 
89688 18.622 0.66 S 
KBU 19.592 0.60 S 
DMOR 19.592 0.34 S 
B049 19.640 0.90 S 
BRIC 21.952 0.52 S 
KHMB 22.065 0.88 S 
KMR 22.385 0.63 S 
KRP 22.455 0.45 S 
B935 22.740 0.95 S 
1591 23.312 0.94 S 
KCSB 24.435 0.91 S 
B934 27.240 0.95 S 
79046 28.272 0.95 S 
HAYF 30.475 0.77 S 
KOM 31.695 0.94 S 
KIP 32.232 0.92 S 
KFP 34.792 0.66 S 
KBN 37.972 0.60 S 
DCMP 38.445 0.41 S 
GNR 41.472 0.38 S 
PETY 41.633 0.55 S 
GBL 42.332 0.33 S 
SCOT 42.693 0.59 S 
TRIN 43.605 0.69 S 
GUMB 47.186 0.62 S 
# 2022 12 20 10 44 28.273 40.5087 -124.3485 17.391 2.087 0.150 0.150 0.590 34 
1584B 3.927 0.97 P 
KCT 4.410 0.56 P 
1023 4.467 1.05 P 
1586 5.407 1.03 P 
89462 5.657 0.90 P 
KMPB 5.760 0.78 P 
RBOW 6.357 0.63 P 
B045 6.425 0.90 P 
89781 7.207 1.05 P 
KPR 8.007 0.56 P 
BJES 8.097 0.97 P 
KCR 8.817 0.58 P 
KNEE 8.817 0.72 P 
1580 8.917 0.98 P 
89688 9.487 0.84 P 
B049 9.695 0.87 P 
KBU 10.377 0.90 P 
BRIC 11.087 0.95 P 
B935 11.525 0.89 P 
KMR 11.860 0.91 P 
KHMB 12.040 0.50 P 
1584B 6.307 0.55 S 
KCT 7.800 0.66 S 
1023 8.267 0.92 S 
1586 9.687 0.82 S 
KMPB 9.890 0.50 S 
PETL 11.167 0.90 S 
RBOW 11.507 0.59 S 
B045 11.715 0.74 S 
89781 12.737 0.96 S 
BJES 14.277 0.59 S 
KPR 14.737 0.93 S 
1580 15.407 0.99 S 
KNEE 15.497 0.37 S 
KCR 16.317 0.65 S 
89688 17.297 0.92 S 
KBU 18.047 0.50 S 
B049 18.105 0.89 S 
KHMB 20.280 0.87 S 
BRIC 20.367 0.94 S 
KMR 21.480 0.50 S 
B935 21.505 0.96 S 
1591 22.267 0.97 S 
B934 26.765 0.53 S 
KHBB 30.220 0.35 S 
# 2022 12 20 10 44 39.651 40.8748 -124.9336 10.731 2.862 1.319 1.319 0.567 35 
1586 12.779 0.71 P 
KPR 16.269 0.42 P 
B049 18.307 0.74 P 
1023 22.429 0.69 S 
1586 22.559 0.35 S 
KMPB 25.202 0.49 S 
KRP 25.762 0.58 S 
B045 26.567 0.80 S 
RBOW 26.809 0.36 S 
B047 28.137 0.66 S 
KCR 30.059 0.48 S 
KPR 30.159 0.54 S 
B049 32.627 0.66 S 
89688 32.959 0.61 S 
B934 41.327 0.65 S 
79046 42.109 0.65 S 
RVIT 45.959 0.61 S 
KIP 46.059 0.63 S 
KFP 48.359 0.43 S 
# 2022 12 20 10 44 46.817 40.5205 -124.4104 13.732 2.651 0.164 0.164 0.392 36 
1584B 3.793 0.40 P 
B046 5.981 0.80 P 
89462 6.183 0.71 P 
KMPB 6.256 0.59 P 
PETL 6.423 0.49 P 
RBOW 7.023 0.90 P 
KCO 7.226 0.90 P 
89781 7.563 0.96 P 
B047 7.671 0.90 P 
KPR 9.093 0.64 P 
1580 9.133 0.96 P 
KCR 9.953 0.80 P 
PRDS 10.493 0.51 P 
89688 10.743 0.72 P 
KBU 10.983 0.51 P 
KTD 11.433 0.76 P 
BRIC 12.623 0.42 P 
1591 13.113 0.88 P 
KHMB 13.156 0.40 P 
KRP 13.376 0.81 P 
79046 16.193 0.84 P 
KIP 18.273 0.76 P 
1584B 6.593 0.58 S 
1023 8.373 0.41 S 
1586 10.183 0.90 S 
B046 10.231 0.76 S 
PETL 11.023 0.48 S 
KCO 12.546 0.88 S 
B047 13.171 0.87 S 
89781 13.563 0.90 S 
KPR 16.113 0.49 S 
1580 16.113 0.86 S 
PRDS 18.593 0.35 S 
89688 18.803 0.88 S 
KBU 19.623 0.61 S 
BRIC 21.873 0.43 S 
1591 23.843 0.87 S 
79046 28.273 0.88 S 
# 2022 12 20 10 44 54.315 40.4197 -124.1945 38.067 3.082 0.338 0.338 1.066 37 
89462 5.295 0.77 P 
B046 6.243 0.86 P 
RBOW 6.655 0.77 P 
PETL 6.765 0.84 P 
KNEE 7.165 0.37 P 
BJES 7.245 0.56 P 
KCO 7.298 0.84 P 
KCR 8.585 0.49 P 
B935 10.943 0.77 P 
KCSB 11.698 0.66 P 
89462 10.085 0.87 S 
KMPB 10.468 0.42 S 
B046 11.383 0.78 S 
RBOW 12.155 0.37 S 
PETL 12.175 0.43 S 
KCO 13.328 0.81 S 
BJES 13.405 0.78 S 
BRIC 14.445 0.33 S 
KCR 15.455 0.47 S 
B935 19.953 0.57 S 
B934 20.243 0.72 S 
# 2022 12 20 10 45 22.272 40.5320 -124.3478 15.677 1.963 0.168 0.168 0.604 38 
KCT 4.241 0.43 P 
1586 4.928 0.96 P 
89462 5.438 1.01 P 
KMPB 5.801 0.66 P 
B046 6.076 0.98 P 
RBOW 6.498 0.62 P 
PETL 6.598 0.67 P 
B045 6.696 0.98 P 
89781 6.718 0.93 P 
KCO 7.181 0.93 P 
B047 7.446 0.98 P 
BJES 7.848 0.88 P 
KPR 8.278 0.35 P 
1580 8.358 0.97 P 
KCR 9.038 0.66 P 
KBU 9.498 0.92 P 
B049 9.506 0.86 P 
89688 10.678 0.92 P 
1584B 5.778 0.63 S 
KCT 6.871 0.60 S 
1023 7.758 0.83 S 
1586 9.138 0.87 S 
PETL 9.458 0.45 S 
89462 9.858 0.93 S 
KMPB 10.161 0.55 S 
B046 10.556 0.77 S 
RBOW 11.358 0.60 S 
KCO 12.481 0.80 S 
B047 12.856 0.82 S 
1580 14.858 0.97 S 
KPR 15.958 0.82 S 
KCR 16.178 0.56 S 
B049 17.786 0.93 S 
PRDS 18.058 0.44 S 
KBU 18.358 0.89 S 
BRIC 21.138 0.55 S 
B934 29.046 0.33 S 
# 2022 12 20 10 45 38.040 40.5432 -124.3152 16.492 1.783 0.258 0.258 0.373 39 
1584B 3.510 1.03 P 
1586 4.460 0.95 P 
1023 4.550 0.97 P 
89462 4.950 0.99 P 
KCO 7.163 0.88 P 
KPR 8.630 0.90 P 
89688 10.770 0.86 P 
1584B 6.550 0.96 S 
1023 7.540 0.91 S 
89462 9.080 0.91 S 
PETL 11.680 0.39 S 
KCO 12.543 0.84 S 
1580 14.240 0.36 S 
89688 20.050 0.65 S 
KMR 21.053 0.33 S 
# 2022 12 20 10 46 4.463 40.5096 -124.0120 21.630 1.616 0.252 0.252 0.388 40 
B045 4.275 0.38 P 
KMPB 4.750 0.71 P 
KCR 5.427 0.70 P 
RBOW 5.507 0.42 P 
B046 6.625 0.80 P 
1023 6.697 0.79 P 
B047 6.895 0.87 P 
KPR 7.197 0.50 P 
KCO 7.390 0.72 P 
B935 7.735 0.83 P 
89781 8.067 0.72 P 
B045 8.115 0.49 S 
89462 8.347 0.63 S 
KMPB 9.010 0.84 S 
KCR 10.227 0.44 S 
RBOW 10.547 0.40 S 
1023 10.687 0.59 S 
B046 12.195 0.69 S 
B047 12.585 0.75 S 
KCO 13.140 0.66 S 
KPR 13.267 0.44 S 
B935 14.275 0.73 S 
PRDS 16.587 0.58 S 
# 2022 12 20 10 46 15.872 40.5359 -124.3038 16.275 1.797 0.140 0.140 0.413 41 
1584B 3.418 0.94 P 
1023 3.718 0.99 P 
KCT 3.881 0.64 P 
89462 4.968 0.96 P 
1586 5.138 1.05 P 
B046 5.746 1.03 P 
1581 5.838 1.04 P 
B045 6.096 0.78 P 
RBOW 6.108 0.58 P 
89781 6.438 0.98 P 
KCO 6.861 0.98 P 
B047 7.026 0.93 P 
BJES 7.458 0.38 P 
1580 7.878 0.89 P 
KNEE 8.252 0.73 P 
KPR 8.348 0.58 P 
KCR 8.428 0.65 P 
KBU 9.778 0.65 P 
PRDS 9.892 0.62 P 
B049 9.906 0.91 P 
KMR 11.541 0.38 P 
BRIC 11.698 0.44 P 
1584B 6.228 0.94 S 
KCT 7.201 0.67 S 
1023 7.388 0.96 S 
1586 8.498 0.99 S 
KMPB 9.171 0.47 S 
89462 9.178 0.98 S 
B046 10.296 0.96 S 
1581 10.418 0.96 S 
RBOW 10.848 0.35 S 
B045 10.956 0.80 S 
PETL 11.058 0.40 S 
89781 11.908 0.94 S 
KCO 12.201 0.95 S 
B047 12.466 0.83 S 
1580 14.088 0.91 S 
KNEE 14.578 0.48 S 
KPR 14.898 0.60 S 
KCR 15.658 0.50 S 
DMOR 17.098 0.77 S 
KBU 17.778 0.55 S 
B049 17.826 0.93 S 
PRDS 17.898 0.35 S 
B935 20.286 0.67 S 
BRIC 20.418 0.54 S 
KMR 20.591 0.84 S 
1591 22.158 0.75 S 
HAYF 27.701 0.37 S 
# 2022 12 20 10 46 36.842 40.5122 -124.3410 16.517 1.656 0.172 0.172 0.454 42 
1584B 3.608 0.92 P 
KCT 3.951 0.54 P 
1586 5.118 0.94 P 
KMPB 5.211 0.50 P 
89462 5.238 0.94 P 
KCO 5.761 0.92 P 
RBOW 6.198 0.37 P 
B045 6.536 0.90 P 
1584B 6.338 0.54 S 
KCT 7.211 0.54 S 
1023 7.928 0.86 S 
KMPB 9.571 0.46 S 
1586 9.638 0.75 S 
B046 9.696 0.88 S 
89462 9.928 0.88 S 
PETL 10.608 0.47 S 
B045 11.446 0.66 S 
1581 11.448 0.63 S 
KCO 11.741 0.88 S 
KPR 14.808 0.81 S 
KCR 16.228 0.83 S 
B049 18.006 0.42 S 
KBU 18.008 0.50 S 
89688 18.218 0.72 S 
BRIC 20.598 0.48 S 
B935 21.096 0.76 S 
1591 22.288 0.55 S 
# 2022 12 20 10 46 53.868 40.5175 -124.3195 17.024 2.044 0.169 0.169 0.926 43 
1023 3.202 0.67 P 
KCT 3.865 0.61 P 
KMPB 5.225 0.45 P 
B046 5.500 0.87 P 
RBOW 6.242 0.37 P 
B045 6.420 0.83 P 
PETL 6.712 0.65 P 
B047 6.950 0.84 P 
KPR 8.362 0.82 P 
DMOR 9.212 0.41 P 
KBU 9.982 0.33 P 
B049 10.160 0.85 P 
KHMB 11.575 0.81 P 
KHBB 15.425 0.61 P 
1584B 6.102 0.78 S 
KCT 7.145 0.56 S 
1586 9.242 0.81 S 
KCO 9.365 0.75 S 
B046 9.760 0.79 S 
89462 9.782 0.80 S 
PETL 10.622 0.36 S 
1581 11.212 0.78 S 
B045 11.420 0.78 S 
89781 12.302 0.86 S 
BJES 14.062 0.57 S 
KPR 14.932 0.72 S 
KCR 14.982 0.54 S 
1580 14.982 0.74 S 
B935 17.610 0.42 S 
B049 18.020 0.83 S 
DMOR 18.022 0.85 S 
KMR 21.175 0.41 S 
1591 22.322 0.52 S 
KHBB 29.285 0.60 S 
# 2022 12 20 10 47 14.033 40.5162 -124.3930 15.986 2.393 0.156 0.156 0.486 44 
1584B 3.857 0.97 P 
KCT 4.020 0.59 P 
1586 5.497 1.00 P 
B046 5.765 0.92 P 
PETL 6.017 0.43 P 
KMPB 6.080 0.55 P 
1581 6.537 1.02 P 
RBOW 6.747 0.45 P 
KCO 6.900 0.91 P 
89781 7.247 0.91 P 
BJES 8.687 0.99 P 
KPR 8.817 0.64 P 
KCR 9.517 0.58 P 
PRDS 10.247 0.36 P 
89688 10.457 0.89 P 
KBU 10.617 0.49 P 
B049 10.785 0.81 P 
BRIC 12.317 0.79 P 
B934 17.445 0.43 P 
1584B 6.857 0.79 S 
KCT 7.380 0.57 S 
1023 8.527 0.74 S 
B046 10.105 0.62 S 
1586 10.207 0.80 S 
PETL 10.687 0.45 S 
KMPB 10.750 0.54 S 
1581 11.987 0.88 S 
RBOW 12.097 0.42 S 
KCO 12.140 0.86 S 
B047 12.785 0.90 S 
89781 13.227 0.85 S 
1580 15.777 0.82 S 
KPR 15.857 0.55 S 
KNEE 16.647 0.80 S 
KCR 17.417 0.60 S 
PRDS 17.937 0.43 S 
89688 18.097 0.65 S 
KBU 19.087 0.57 S 
B049 19.255 0.77 S 
BRIC 21.467 0.58 S 
1591 22.887 0.66 S 
79046 27.577 0.63 S 
# 2022 12 20 10 47 33.941 40.5985 -124.0799 16.196 2.727 0.113 0.113 0.448 45 
89462 4.199 0.99 P 
1586 4.449 1.03 P 
BJES 4.639 0.93 P 
KNEE 4.869 0.52 P 
1581 4.929 1.08 P 
B045 5.017 0.88 P 
1023 5.039 1.04 P 
89781 5.049 1.09 P 
KMPB 5.302 0.63 P 
1584B 5.599 1.01 P 
KCT 6.272 0.67 P 
KCR 6.379 0.70 P 
RBOW 6.539 0.52 P 
B046 7.727 1.02 P 
B047 8.207 1.00 P 
PETL 8.409 0.79 P 
KCO 8.552 1.01 P 
KPR 8.569 0.69 P 
KHMB 8.572 0.61 P 
B935 8.927 1.00 P 
KBU 8.999 0.64 P 
B049 9.097 0.96 P 
KCSB 9.812 1.04 P 
KMR 10.532 0.60 P 
PRDS 10.619 0.48 P 
KRP 11.102 1.07 P 
89688 11.229 0.88 P 
1591 11.599 1.00 P 
BRIC 11.769 0.36 P 
HAYF 12.872 0.46 P 
KHBB 12.882 0.54 P 
B934 14.987 1.03 P 
KOM 15.192 1.04 P 
WEAV 15.309 0.48 P 
KIP 16.939 0.59 P 
KBN 18.149 1.03 P 
RVIT 18.149 0.95 P 
KFP 18.909 0.41 P 
TRIN 19.192 1.01 P 
LBK 20.629 1.00 P 
LSF 22.049 0.61 P 
GROB 23.279 0.85 P 
GVA 23.309 0.36 P 
89462 7.729 0.97 S 
BJES 8.419 0.95 S 
1586 8.509 0.98 S 
B045 8.987 0.93 S 
KNEE 9.103 0.49 S 
89781 9.149 0.99 S 
1581 9.269 0.86 S 
KMPB 9.492 0.51 S 
1023 9.639 0.67 S 
1584B 10.069 0.96 S 
KCT 11.212 0.48 S 
KCR 11.509 0.42 S 
B046 13.597 0.92 S 
B047 14.457 0.91 S 
PETL 15.019 0.34 S 
KPR 15.109 0.48 S 
KCO 15.262 0.96 S 
KHMB 15.282 0.67 S 
B049 16.077 0.86 S 
KBU 16.129 0.52 S 
B935 16.237 0.98 S 
KTD 16.829 0.86 S 
KCSB 17.512 0.94 S 
KMR 18.712 0.48 S 
PRDS 18.983 0.44 S 
89688 19.749 0.98 S 
KRP 19.872 0.92 S 
BRIC 20.489 0.51 S 
1591 20.699 0.89 S 
HAYF 23.132 0.48 S 
KHBB 23.442 0.63 S 
B934 26.637 0.98 S 
KOM 27.152 0.95 S 
79046 27.649 0.64 S 
WEAV 28.959 0.40 S 
RVIT 29.689 1.01 S 
KIP 30.189 0.85 S 
KBN 33.429 0.92 S 
KFP 33.569 0.85 S 
SCOT 37.972 0.79 S 
GNR 40.669 0.40 S 
# 2022 12 20 10 48 1.078 40.6381 -124.0094 18.096 2.246 0.131 0.131 0.467 46 
KNEE 4.652 0.48 P 
DMOR 4.922 0.59 P 
89781 5.082 1.06 P 
1586 5.182 0.39 P 
1581 5.252 1.05 P 
B045 5.590 1.02 P 
1580 5.992 0.95 P 
KMPB 6.215 0.90 P 
KCR 6.442 0.70 P 
RBOW 7.302 0.50 P 
KHMB 7.635 0.54 P 
B935 8.420 1.05 P 
B047 8.780 1.01 P 
KTD 8.912 0.99 P 
KPR 9.052 0.51 P 
KBU 9.162 0.50 P 
B049 9.220 1.00 P 
KCSB 9.245 1.01 P 
KRP 10.475 0.95 P 
KMR 10.565 0.94 P 
PRDS 10.692 0.41 P 
BRIC 11.532 0.54 P 
1591 11.772 0.92 P 
KHBB 12.125 0.51 P 
HAYF 12.135 0.48 P 
WEAV 14.482 0.61 P 
LSF 20.362 0.63 P 
KNEE 8.042 0.62 S 
89781 9.122 0.94 S 
89462 9.262 0.80 S 
1581 9.782 0.95 S 
1586 9.892 0.83 S 
B045 9.910 0.86 S 
DMOR 10.202 0.87 S 
KMPB 11.035 0.38 S 
1584B 11.362 0.67 S 
1023 11.452 0.91 S 
KCR 11.722 0.52 S 
KCT 12.125 0.45 S 
RBOW 12.902 0.55 S 
KHMB 13.645 0.65 S 
B046 14.540 0.88 S 
B935 14.950 0.96 S 
B047 15.780 0.95 S 
KTD 15.852 0.90 S 
B049 16.220 0.83 S 
PETL 16.312 0.54 S 
KCO 16.335 0.95 S 
KBU 16.362 0.85 S 
KCSB 16.395 0.88 S 
KPR 16.432 0.90 S 
KMR 18.745 0.50 S 
KRP 19.005 0.76 S 
PRDS 20.212 0.43 S 
89688 21.052 0.55 S 
1591 21.082 0.87 S 
HAYF 21.165 0.43 S 
BRIC 21.282 0.43 S 
KHBB 21.455 0.65 S 
KOM 25.055 0.62 S 
WEAV 25.912 0.60 S 
B934 27.020 0.76 S 
