# 2022 12 20 11 29 38.910 40.5309 -123.8940 22.667 2.012 0.154 0.154 0.448 129 
BJES 4.340 0.70 P 
KCR 4.870 0.64 P 
KNEE 5.624 0.67 P 
89462 5.660 0.89 P 
89255 6.200 0.87 P 
1586 6.220 0.71 P 
B935 6.458 0.87 P 
RBOW 6.580 0.55 P 
B049 7.098 0.86 P 
1582 7.120 0.88 P 
KBU 7.190 0.61 P 
89781 7.370 0.83 P 
KCSB 7.373 0.88 P 
1581 7.530 0.88 P 
KPR 7.920 0.66 P 
KCT 8.163 0.56 P 
B046 8.188 0.87 P 
KMR 8.283 0.63 P 
KHMB 8.343 0.87 P 
KCO 8.733 0.87 P 
PETL 8.870 0.57 P 
PRDS 9.460 0.60 P 
BRIC 10.170 0.56 P 
HAYF 10.391 0.54 P 
KHBB 10.753 0.64 P 
B934 12.868 0.78 P 
BJES 8.220 0.56 S 
KCR 8.840 0.65 S 
89462 10.490 0.83 S 
89255 11.510 0.83 S 
B935 11.668 0.82 S 
RBOW 11.730 0.59 S 
B049 12.578 0.76 S 
KBU 12.750 0.65 S 
1582 12.870 0.80 S 
1586 13.340 0.81 S 
89781 13.340 0.80 S 
KCSB 13.343 0.84 S 
KCT 13.753 0.56 S 
1581 13.940 0.82 S 
KPR 14.060 0.65 S 
1023 14.240 0.70 S 
B046 14.548 0.83 S 
KMR 14.783 0.64 S 
KHMB 15.283 0.80 S 
KCO 15.673 0.84 S 
PETL 15.950 0.57 S 
PRDS 16.870 0.55 S 
1591 17.300 0.82 S 
BRIC 18.060 0.56 S 
HAYF 18.583 0.56 S 
KHBB 19.263 0.65 S 
B934 23.358 0.74 S 
RVIT 26.120 0.75 S 
# 2022 12 20 11 30 2.998 40.7331 -123.8252 20.052 2.156 0.215 0.215 0.391 130 
DMOR 3.322 0.59 P 
KNEE 4.186 0.54 P 
KHMB 5.435 0.63 P 
BJES 5.842 0.81 P 
89781 6.052 0.85 P 
1581 6.872 0.86 P 
B935 7.690 0.87 P 
KCSB 7.735 0.87 P 
KHBB 9.965 0.65 P 
HAYF 10.523 0.55 P 
WEAV 12.512 0.67 P 
TRIN 16.775 0.83 P 
DMOR 7.352 0.60 S 
KNEE 8.152 0.66 S 
KHMB 9.855 0.66 S 
89781 11.002 0.79 S 
1581 12.732 0.81 S 
B935 13.820 0.84 S 
KCSB 13.895 0.83 S 
KRP 16.975 0.58 S 
KHBB 17.455 0.65 S 
HAYF 18.585 0.58 S 
WEAV 21.852 0.62 S 
TRIN 28.625 0.60 S 
LBK 30.492 0.61 S 
# 2022 12 20 11 30 28.620 40.5070 -124.4362 15.444 3.072 0.117 0.117 0.561 131 
1584B 4.150 0.87 P 
KCT 4.213 0.53 P 
1023 4.950 0.90 P 
B046 5.988 0.84 P 
1586 6.050 0.86 P 
89255 6.410 0.86 P 
KMPB 6.553 0.65 P 
89462 6.680 0.87 P 
1582 6.770 0.86 P 
PETL 7.150 0.50 P 
KCO 7.223 0.85 P 
RBOW 7.230 0.60 P 
89781 7.960 0.88 P 
KPR 9.200 0.66 P 
BJES 9.260 0.75 P 
KNEE 9.694 0.52 P 
KCR 10.240 0.63 P 
PRDS 10.480 0.62 P 
89688 10.730 0.83 P 
KBU 11.170 0.60 P 
B049 11.298 0.77 P 
KTD 11.820 0.87 P 
BRIC 12.680 0.53 P 
KHMB 12.813 0.50 P 
KMR 12.873 0.65 P 
B935 12.978 0.81 P 
1591 13.240 0.84 P 
KRP 13.653 0.77 P 
KCSB 13.893 0.83 P 
B934 16.098 0.85 P 
79046 16.210 0.84 P 
KIP 18.490 0.55 P 
KOM 18.743 0.55 P 
KFP 20.010 0.57 P 
DCMP 22.101 0.51 P 
PETY 22.271 0.56 P 
KRK 22.760 0.82 P 
GNR 23.580 0.68 P 
LBK 24.550 0.93 P 
GVA 24.900 0.83 P 
SCOT 24.953 0.63 P 
GROB 25.180 0.80 P 
LSF 25.330 0.78 P 
GWR 25.390 0.92 P 
LRB 25.850 0.63 P 
GHO 25.880 0.55 P 
GCWB 27.690 0.90 P 
GTSB 29.904 0.63 P 
GHGB 30.313 0.88 P 
GSR 30.570 0.78 P 
1584B 7.230 0.83 S 
KCT 7.563 0.71 S 
1023 9.150 0.80 S 
B046 10.238 0.83 S 
PETL 10.870 0.59 S 
1586 10.900 0.64 S 
KMPB 11.283 0.61 S 
89255 11.510 0.68 S 
89462 11.670 0.81 S 
1582 12.400 0.69 S 
KCO 12.423 0.83 S 
89781 13.990 0.79 S 
KPR 16.440 0.63 S 
KNEE 17.324 0.64 S 
KCR 17.990 0.72 S 
PRDS 18.510 0.51 S 
89688 18.710 0.82 S 
KBU 19.710 0.84 S 
B049 19.918 0.83 S 
DMOR 20.110 0.79 S 
KTD 20.550 0.82 S 
BRIC 22.020 0.61 S 
KHMB 22.463 0.71 S 
KMR 22.893 0.68 S 
1591 23.430 0.81 S 
B935 23.438 0.78 S 
KCSB 25.153 0.80 S 
B934 27.728 0.84 S 
79046 28.030 0.81 S 
HAYF 30.631 0.56 S 
KHBB 31.573 0.63 S 
KIP 31.830 0.84 S 
KOM 32.033 0.84 S 
KFP 35.110 0.65 S 
MNDO 37.780 0.79 S 
KBN 38.190 0.64 S 
DCMP 38.503 0.57 S 
GNR 40.900 0.56 S 
PETY 41.863 0.56 S 
LBK 42.590 0.81 S 
SCOT 42.961 0.62 S 
GVA 43.610 0.70 S 
GHO 45.750 0.70 S 
# 2022 12 20 11 30 50.670 40.5868 -124.1413 17.413 1.282 0.215 0.215 0.473 132 
89255 3.650 0.84 P 
1586 4.120 0.86 P 
1582 4.280 0.87 P 
1023 4.460 0.86 P 
1584B 4.940 0.88 P 
89781 5.050 0.86 P 
KMPB 5.193 0.68 P 
RBOW 6.330 0.84 P 
B046 6.968 0.87 P 
KCO 7.983 0.83 P 
PETL 8.480 0.61 P 
KBU 9.030 0.74 P 
B049 9.128 0.73 P 
89255 7.100 0.85 S 
1586 7.650 0.85 S 
1582 8.110 0.85 S 
KCT 8.523 0.87 S 
1023 8.660 0.74 S 
1584B 8.920 0.82 S 
1581 8.960 0.85 S 
89781 9.270 0.82 S 
KMPB 9.303 0.64 S 
BJES 9.690 0.59 S 
B046 12.628 0.85 S 
PETL 13.890 0.58 S 
B049 16.228 0.73 S 
BRIC 20.320 0.52 S 
# 2022 12 20 11 31 21.948 40.5638 -124.2036 17.778 2.125 0.130 0.130 0.521 133 
89462 3.422 0.80 P 
KCT 3.925 0.55 P 
1023 4.002 0.86 P 
1586 4.092 0.86 P 
1584B 4.202 0.87 P 
1582 4.502 0.81 P 
89255 4.582 0.86 P 
KMPB 4.845 0.64 P 
1581 5.012 0.82 P 
89781 5.582 0.85 P 
BJES 6.022 0.77 P 
RBOW 6.042 0.57 P 
B046 6.500 0.84 P 
KNEE 7.102 0.66 P 
PETL 7.172 0.55 P 
DMOR 7.412 0.54 P 
KCR 7.442 0.64 P 
KCO 7.485 0.84 P 
KPR 8.292 0.66 P 
KBU 9.232 0.57 P 
B049 9.380 0.77 P 
KHMB 9.895 0.82 P 
PRDS 10.016 0.57 P 
B935 10.140 0.81 P 
89688 10.522 0.79 P 
KMR 11.025 0.62 P 
KCSB 11.075 0.84 P 
KRP 11.625 0.73 P 
1591 11.662 0.82 P 
HAYF 13.845 0.54 P 
B934 13.990 0.71 P 
KHBB 14.045 0.61 P 
WEAV 16.682 0.56 P 
TRIN 20.493 0.53 P 
LBK 21.822 0.84 P 
SCOT 22.353 0.57 P 
89255 7.172 0.82 S 
1584B 7.542 0.83 S 
1586 7.702 0.77 S 
1023 7.782 0.77 S 
89462 7.842 0.83 S 
1582 8.542 0.82 S 
KCT 8.665 0.66 S 
KMPB 8.695 0.62 S 
1581 9.412 0.79 S 
89781 10.222 0.78 S 
RBOW 10.672 0.54 S 
BJES 10.822 0.75 S 
B046 11.500 0.80 S 
KNEE 12.022 0.50 S 
PETL 12.712 0.55 S 
KCR 13.402 0.61 S 
KCO 13.525 0.80 S 
KPR 14.482 0.54 S 
KBU 16.352 0.79 S 
B049 16.550 0.77 S 
PRDS 17.896 0.52 S 
KHMB 18.225 0.58 S 
89688 18.512 0.78 S 
B935 18.650 0.78 S 
KMR 19.905 0.60 S 
BRIC 20.252 0.59 S 
1591 21.322 0.74 S 
HAYF 23.305 0.62 S 
KHBB 23.465 0.59 S 
B934 26.030 0.54 S 
79046 27.772 0.74 S 
WEAV 30.202 0.64 S 
RVIT 31.742 0.70 S 
TRIN 37.695 0.62 S 
GUMB 43.182 0.51 S 
# 2022 12 20 11 31 56.574 40.5625 -124.2181 19.934 2.335 0.146 0.146 0.365 134 
89255 4.236 0.87 P 
1586 4.336 0.85 P 
89462 4.656 0.88 P 
1582 4.706 0.84 P 
1581 5.106 0.87 P 
KMPB 5.349 0.63 P 
89781 5.596 0.84 P 
RBOW 6.156 0.60 P 
B046 6.384 0.86 P 
BJES 6.716 0.65 P 
KNEE 6.916 0.64 P 
PETL 6.996 0.60 P 
KCO 7.339 0.88 P 
KCR 7.626 0.68 P 
KPR 8.226 0.69 P 
KBU 9.236 0.64 P 
B049 9.334 0.78 P 
PRDS 9.866 0.61 P 
KHMB 9.959 0.66 P 
B935 10.224 0.83 P 
89688 10.316 0.84 P 
KMR 10.919 0.66 P 
KCSB 11.139 0.85 P 
BRIC 11.296 0.56 P 
KRP 11.339 0.79 P 
1591 12.186 0.84 P 
HAYF 13.779 0.55 P 
KHBB 13.949 0.67 P 
WEAV 16.426 0.61 P 
KFP 19.076 0.60 P 
LBK 21.546 0.84 P 
SCOT 22.147 0.50 P 
1584B 7.766 0.81 S 
89255 8.066 0.84 S 
1023 8.236 0.80 S 
1586 8.236 0.77 S 
89462 8.686 0.85 S 
KCT 8.839 0.67 S 
1582 8.986 0.82 S 
KMPB 9.319 0.66 S 
1581 9.636 0.80 S 
89781 10.426 0.83 S 
RBOW 10.996 0.56 S 
B046 11.324 0.83 S 
BJES 11.506 0.51 S 
KNEE 12.396 0.51 S 
PETL 12.436 0.55 S 
KCO 13.079 0.83 S 
KCR 13.796 0.59 S 
KPR 14.256 0.62 S 
DMOR 14.876 0.80 S 
KBU 16.546 0.71 S 
B049 16.704 0.81 S 
PRDS 17.686 0.54 S 
KHMB 18.079 0.63 S 
89688 18.116 0.82 S 
B935 18.484 0.82 S 
KMR 19.239 0.56 S 
BRIC 19.956 0.58 S 
KRP 20.119 0.78 S 
KCSB 20.159 0.82 S 
1591 21.416 0.72 S 
HAYF 24.359 0.63 S 
KHBB 24.859 0.58 S 
B934 25.744 0.70 S 
WEAV 29.336 0.80 S 
# 2022 12 20 11 32 25.535 40.4685 -124.5428 16.465 1.457 0.190 0.190 0.508 135 
KCT 5.488 0.64 P 
PETL 6.335 0.61 P 
B046 6.363 0.78 P 
KCO 7.098 0.80 P 
1586 7.625 0.79 P 
KMPB 7.858 0.69 P 
1582 8.185 0.79 P 
RBOW 8.265 0.60 P 
1581 8.455 0.78 P 
KPR 9.595 0.65 P 
PRDS 10.645 0.66 P 
BJES 10.665 0.75 P 
89688 10.685 0.79 P 
KCR 11.495 0.68 P 
KBU 12.105 0.78 P 
B049 12.183 0.78 P 
BRIC 13.055 0.67 P 
B935 14.083 0.65 P 
KMR 14.148 0.81 P 
B934 16.323 0.75 P 
KHBB 18.248 0.61 P 
KCT 9.908 0.63 S 
1584B 10.215 0.82 S 
PETL 11.075 0.53 S 
B046 11.123 0.80 S 
1023 12.335 0.75 S 
KCO 12.658 0.80 S 
KMPB 13.638 0.65 S 
1586 13.865 0.83 S 
RBOW 14.305 0.57 S 
89255 14.925 0.70 S 
1582 15.075 0.81 S 
1581 15.155 0.82 S 
KPR 16.995 0.69 S 
89688 18.565 0.83 S 
PRDS 18.605 0.52 S 
KCR 20.145 0.63 S 
KBU 21.345 0.62 S 
B049 21.553 0.82 S 
BRIC 22.675 0.56 S 
KMR 23.928 0.82 S 
B935 25.273 0.79 S 
B934 30.393 0.58 S 
KHBB 30.838 0.71 S 
# 2022 12 20 11 32 56.129 40.6232 -124.0249 19.272 1.543 0.186 0.186 0.480 136 
KNEE 3.895 0.70 P 
1582 4.711 0.76 P 
1586 5.021 0.75 P 
89781 5.051 0.84 P 
1581 5.161 0.81 P 
89255 5.401 0.83 P 
KMPB 5.904 0.69 P 
KCR 6.381 0.69 P 
RBOW 7.061 0.55 P 
KHMB 7.784 0.64 P 
B935 8.369 0.83 P 
KPR 8.911 0.73 P 
KBU 9.061 0.63 P 
B049 9.099 0.80 P 
89688 10.241 0.53 P 
KMR 10.524 0.81 P 
KRP 10.704 0.62 P 
PRDS 10.761 0.61 P 
BRIC 11.761 0.61 P 
KHBB 12.184 0.56 P 
LSF 20.431 0.53 P 
89255 8.371 0.77 S 
KNEE 8.435 0.55 S 
1582 8.851 0.81 S 
89781 9.091 0.82 S 
1586 9.431 0.79 S 
1581 9.611 0.82 S 
KMPB 10.704 0.59 S 
1023 11.041 0.60 S 
KCR 11.361 0.60 S 
1584B 11.521 0.64 S 
RBOW 12.481 0.60 S 
KHMB 13.964 0.66 S 
B935 15.049 0.79 S 
KBU 15.381 0.67 S 
KTD 15.781 0.75 S 
B049 16.019 0.80 S 
KPR 16.201 0.63 S 
KMR 18.484 0.61 S 
PRDS 18.875 0.58 S 
89688 19.101 0.67 S 
KRP 19.184 0.61 S 
1591 20.931 0.73 S 
KHBB 21.954 0.74 S 
WEAV 26.081 0.55 S 
B934 27.369 0.64 S 
RVIT 29.496 0.55 S 
# 2022 12 20 11 33 7.490 40.5138 -124.4085 16.064 1.260 0.167 0.167 0.404 137 
KCT 4.103 0.78 P 
1586 5.650 0.76 P 
B046 5.798 0.81 P 
KMPB 6.223 0.66 P 
1582 6.310 0.74 P 
1581 6.630 0.68 P 
RBOW 6.940 0.60 P 
KCO 7.003 0.82 P 
KPR 8.960 0.63 P 
KCR 9.800 0.67 P 
PRDS 10.340 0.79 P 
KBU 10.760 0.65 P 
B049 10.928 0.78 P 
B935 13.168 0.62 P 
1584B 7.010 0.75 S 
KCT 7.453 0.57 S 
1023 8.780 0.78 S 
B046 10.118 0.77 S 
1586 10.340 0.82 S 
PETL 10.790 0.56 S 
KMPB 10.913 0.63 S 
89255 11.000 0.70 S 
1582 11.790 0.75 S 
KCO 12.113 0.79 S 
1581 12.160 0.74 S 
RBOW 12.240 0.55 S 
KPR 15.950 0.63 S 
KCR 17.360 0.59 S 
89688 18.640 0.69 S 
B049 19.308 0.78 S 
KBU 19.600 0.64 S 
BRIC 21.710 0.52 S 
B935 22.488 0.71 S 
1591 23.280 0.71 S 
B934 27.288 0.60 S 
# 2022 12 20 11 33 19.795 40.5199 -124.3939 17.564 1.057 0.203 0.203 0.368 138 
1586 5.445 0.75 P 
B046 5.703 0.82 P 
KMPB 6.028 0.63 P 
1582 6.195 0.72 P 
KCO 6.778 0.81 P 
KPR 8.855 0.61 P 
KCR 9.685 0.61 P 
KBU 10.575 0.60 P 
B049 10.703 0.76 P 
KCT 7.308 0.57 S 
1023 8.495 0.70 S 
B046 10.033 0.78 S 
1586 10.105 0.71 S 
KMPB 10.658 0.66 S 
1582 11.405 0.61 S 
1581 11.935 0.51 S 
KCO 12.108 0.78 S 
KPR 15.645 0.63 S 
KCR 17.315 0.64 S 
PRDS 17.969 0.55 S 
KBU 19.005 0.62 S 
DMOR 19.055 0.55 S 
B049 19.263 0.75 S 
BRIC 21.445 0.52 S 
B935 21.923 0.70 S 
# 2022 12 20 11 33 44.388 40.6049 -124.1294 17.729 1.232 0.212 0.212 0.862 139 
1586 4.402 0.82 P 
1582 4.502 0.74 P 
KCT 5.185 0.67 P 
89781 5.372 0.78 P 
1584B 5.682 0.81 P 
DMOR 6.292 0.52 P 
KCR 7.402 0.71 P 
B046 7.490 0.80 P 
RBOW 8.272 0.53 P 
KCO 8.545 0.82 P 
KPR 8.862 0.81 P 
KBU 9.112 0.71 P 
B049 9.170 0.79 P 
B935 9.320 0.80 P 
89688 10.562 0.76 P 
PRDS 10.616 0.60 P 
KMR 10.725 0.79 P 
BRIC 11.862 0.77 P 
HAYF 13.073 0.66 P 
KHBB 13.775 0.81 P 
89255 6.732 0.78 S 
1584B 8.012 0.65 S 
1582 8.272 0.79 S 
KCT 9.065 0.53 S 
89781 9.342 0.72 S 
KCR 11.162 0.62 S 
B046 11.590 0.63 S 
KMPB 11.745 0.65 S 
RBOW 13.092 0.62 S 
KCO 14.005 0.77 S 
KPR 15.182 0.79 S 
KBU 15.702 0.74 S 
PRDS 18.972 0.54 S 
BRIC 20.382 0.62 S 
89688 20.432 0.71 S 
1591 21.202 0.59 S 
HAYF 22.483 0.58 S 
KHBB 22.705 0.77 S 
# 2022 12 20 11 34 10.046 40.5195 -124.3350 16.179 1.548 0.132 0.132 0.429 140 
1584B 3.224 0.84 P 
KCT 3.887 0.66 P 
1023 4.834 0.81 P 
1586 4.834 0.85 P 
89255 4.974 0.88 P 
KMPB 5.357 0.70 P 
1582 5.584 0.79 P 
B046 5.652 0.85 P 
PETL 6.204 0.60 P 
RBOW 6.264 0.64 P 
KCO 6.837 0.82 P 
89781 7.064 0.85 P 
KNEE 8.318 0.66 P 
KPR 8.384 0.66 P 
KCR 8.864 0.65 P 
KBU 10.034 0.61 P 
PRDS 10.164 0.59 P 
B049 10.192 0.76 P 
89688 10.464 0.78 P 
KHMB 11.567 0.68 P 
B935 11.632 0.78 P 
KMR 11.707 0.72 P 
BRIC 11.924 0.55 P 
HAYF 15.327 0.62 P 
KHBB 15.567 0.83 P 
WEAV 18.084 0.54 P 
KBN 19.674 0.50 P 
1584B 6.084 0.81 S 
KCT 6.887 0.66 S 
1023 7.714 0.83 S 
1586 9.124 0.80 S 
89255 9.294 0.80 S 
KMPB 9.457 0.61 S 
89462 9.524 0.85 S 
B046 10.062 0.83 S 
1582 10.414 0.79 S 
PETL 10.924 0.55 S 
RBOW 11.134 0.50 S 
KCO 11.977 0.81 S 
BJES 13.874 0.72 S 
KPR 14.704 0.64 S 
KNEE 15.154 0.52 S 
KCR 15.914 0.62 S 
PRDS 17.644 0.55 S 
89688 17.944 0.78 S 
KBU 18.164 0.77 S 
B049 18.172 0.76 S 
BRIC 20.704 0.62 S 
KMR 20.777 0.60 S 
KHMB 20.887 0.78 S 
B935 21.152 0.80 S 
1591 22.164 0.73 S 
B934 26.572 0.66 S 
HAYF 28.287 0.65 S 
KHBB 29.007 0.83 S 
# 2022 12 20 11 34 24.460 40.5615 -124.2389 16.753 1.609 0.151 0.151 0.374 141 
1023 3.650 0.81 P 
89255 3.730 0.72 P 
1584B 3.790 0.78 P 
1586 4.010 0.72 P 
89462 4.260 0.81 P 
1582 4.590 0.76 P 
89781 5.810 0.81 P 
RBOW 6.110 0.73 P 
B046 6.358 0.77 P 
PETL 7.030 0.72 P 
KNEE 7.164 0.68 P 
KCO 7.453 0.78 P 
KCR 7.910 0.63 P 
KPR 8.490 0.63 P 
KBU 9.470 0.63 P 
B049 9.678 0.75 P 
KHMB 10.463 0.61 P 
B935 10.638 0.77 P 
89688 10.790 0.73 P 
KMR 10.813 0.73 P 
1584B 6.880 0.78 S 
1023 7.110 0.76 S 
89255 7.120 0.75 S 
1586 7.480 0.73 S 
89462 7.870 0.80 S 
1582 8.610 0.76 S 
1581 8.640 0.75 S 
RBOW 10.470 0.74 S 
89781 10.530 0.77 S 
B046 11.208 0.77 S 
PETL 12.380 0.71 S 
KNEE 12.824 0.50 S 
KCO 13.163 0.78 S 
KCR 14.030 0.62 S 
KPR 14.720 0.56 S 
DMOR 15.820 0.79 S 
B049 17.078 0.77 S 
KBU 17.550 0.60 S 
89688 18.790 0.75 S 
KHMB 19.033 0.73 S 
B935 19.478 0.77 S 
BRIC 20.290 0.51 S 
KMR 20.343 0.75 S 
1591 21.680 0.69 S 
# 2022 12 20 11 34 44.052 40.5462 -124.2423 22.450 0.969 0.224 0.224 0.813 142 
KCT 3.071 0.56 P 
89255 5.098 0.70 P 
KMPB 5.221 0.60 P 
89462 5.428 0.80 P 
B046 5.516 0.71 P 
1581 5.698 0.87 P 
89781 6.248 0.85 P 
RBOW 6.328 0.61 P 
PETL 6.338 0.54 P 
BJES 6.808 0.62 P 
KNEE 7.272 0.60 P 
KCO 7.341 0.81 P 
KCR 7.748 0.79 P 
KPR 8.228 0.53 P 
KBU 9.338 0.58 P 
1591 9.428 0.74 P 
B049 9.566 0.81 P 
B935 10.066 0.80 P 
PRDS 10.068 0.79 P 
KMR 10.711 0.82 P 
KHBB 14.271 0.52 P 
1023 6.228 0.52 S 
1586 7.758 0.78 S 
89255 7.818 0.76 S 
89462 9.188 0.69 S 
KMPB 9.551 0.61 S 
1581 10.588 0.80 S 
RBOW 11.008 0.55 S 
89781 11.328 0.82 S 
BJES 12.188 0.69 S 
PETL 12.198 0.58 S 
KNEE 13.152 0.57 S 
KCR 14.078 0.63 S 
KPR 14.598 0.76 S 
KBU 16.698 0.64 S 
B935 16.726 0.73 S 
KMR 16.881 0.65 S 
# 2022 12 20 11 35 7.820 40.5045 -124.3072 19.793 1.014 0.181 0.181 1.069 143 
KCT 2.813 0.83 P 
KMPB 4.303 0.58 P 
B046 4.508 0.86 P 
PETL 4.880 0.62 P 
1586 4.900 0.71 P 
KCO 5.733 0.86 P 
89781 6.810 0.84 P 
1582 6.820 0.75 P 
1581 7.100 0.78 P 
KPR 7.810 0.83 P 
KCR 8.480 0.58 P 
PRDS 8.950 0.62 P 
89688 9.250 0.80 P 
KBU 9.730 0.60 P 
B049 9.848 0.82 P 
KHMB 9.923 0.67 P 
KMR 12.393 0.79 P 
KRP 13.033 0.77 P 
KCT 6.243 0.57 S 
B046 8.828 0.83 S 
PETL 9.470 0.51 S 
1586 9.630 0.79 S 
KMPB 10.063 0.66 S 
89255 10.430 0.81 S 
1582 10.790 0.69 S 
KCO 10.903 0.82 S 
89781 11.330 0.60 S 
RBOW 11.400 0.51 S 
BJES 11.480 0.74 S 
1581 11.600 0.73 S 
KCR 13.760 0.56 S 
KPR 14.950 0.62 S 
PRDS 17.024 0.50 S 
B935 17.358 0.56 S 
89688 17.410 0.79 S 
B049 17.558 0.75 S 
KBU 17.590 0.64 S 
KMR 20.263 0.52 S 
BRIC 20.490 0.57 S 
HAYF 24.041 0.53 S 
# 2022 12 20 11 35 26.960 40.5786 -124.2600 22.053 1.752 0.199 0.199 0.879 144 
1586 4.210 0.85 P 
89255 4.380 0.86 P 
1584B 4.500 0.88 P 
1582 4.500 0.87 P 
1581 4.720 0.87 P 
KCT 5.003 0.61 P 
89781 5.280 0.86 P 
B046 6.808 0.86 P 
RBOW 6.950 0.59 P 
BJES 7.020 0.81 P 
KNEE 7.050 0.63 P 
PETL 7.440 0.60 P 
KCO 7.793 0.85 P 
KCR 8.460 0.63 P 
KPR 8.930 0.69 P 
89688 9.000 0.72 P 
KBU 10.250 0.72 P 
B049 10.348 0.78 P 
B935 10.738 0.82 P 
KRP 10.963 0.78 P 
BRIC 11.770 0.51 P 
B934 13.958 0.77 P 
HAYF 14.331 0.55 P 
KHBB 14.333 0.55 P 
KOM 15.853 0.84 P 
KIP 16.630 0.79 P 
LBK 21.750 0.65 P 
1586 8.030 0.83 S 
1023 8.250 0.76 S 
1584B 8.280 0.85 S 
1582 8.570 0.83 S 
89255 8.660 0.85 S 
1581 8.970 0.82 S 
KCT 9.123 0.79 S 
89781 9.700 0.84 S 
B046 12.138 0.82 S 
RBOW 12.420 0.57 S 
KNEE 12.884 0.58 S 
PETL 13.090 0.55 S 
KCO 14.143 0.81 S 
KCR 15.130 0.64 S 
KMR 16.053 0.71 S 
DMOR 16.070 0.79 S 
KPR 16.190 0.69 S 
KBU 16.920 0.59 S 
B935 19.258 0.84 S 
KHMB 19.333 0.51 S 
KRP 20.933 0.79 S 
B934 24.178 0.53 S 
KHBB 25.013 0.76 S 
HAYF 26.773 0.61 S 
# 2022 12 20 11 35 43.995 40.6185 -124.1743 19.517 0.986 0.361 0.361 0.453 145 
KMPB 6.058 0.79 P 
B046 6.983 0.71 P 
KCR 7.215 0.61 P 
RBOW 7.355 0.61 P 
KPR 9.515 0.77 P 
B049 9.923 0.80 P 
PRDS 11.405 0.56 P 
89462 8.645 0.57 S 
KCT 9.868 0.54 S 
KMPB 10.438 0.54 S 
RBOW 11.795 0.81 S 
B046 12.923 0.75 S 
KPR 15.845 0.61 S 
KBU 16.855 0.61 S 
B049 16.903 0.76 S 
PRDS 19.505 0.51 S 
KMR 19.618 0.56 S 
# 2022 12 20 11 36 1.238 40.5150 -124.3070 17.340 0.696 0.437 0.437 0.538 146 
KCT 3.565 0.64 P 
B046 5.140 0.70 P 
KPR 7.772 0.58 P 
PRDS 9.492 0.56 P 
KBU 9.692 0.68 P 
B046 9.380 0.69 S 
1582 10.412 0.56 S 
1581 11.112 0.56 S 
KPR 14.732 0.55 S 
B049 16.480 0.56 S 
PRDS 17.772 0.59 S 
KBU 17.772 0.57 S 
B935 20.250 0.55 S 
# 2022 12 20 11 36 25.510 40.5829 -124.1497 32.552 0.690 0.305 0.305 0.919 147 
1582 3.700 0.60 P 
1584B 4.740 0.69 P 
RBOW 7.380 0.51 P 
KNEE 7.614 0.72 P 
DMOR 8.120 0.54 P 
KCR 8.260 0.64 P 
PETL 8.490 0.57 P 
B935 10.548 0.66 P 
HAYF 12.223 0.54 P 
WEAV 16.980 0.50 P 
89462 9.940 0.68 S 
1586 10.160 0.68 S 
KCT 11.533 0.52 S 
BJES 11.930 0.52 S 
KNEE 12.814 0.68 S 
B046 12.868 0.54 S 
KCR 13.910 0.70 S 
PETL 14.040 0.61 S 
B049 15.578 0.55 S 
B935 15.848 0.67 S 
HAYF 21.111 0.54 S 
# 2022 12 20 11 36 36.988 40.5429 -124.2125 19.213 0.996 0.283 0.283 0.441 148 
89462 4.402 0.75 P 
RBOW 5.742 0.59 P 
B046 5.870 0.73 P 
KCT 6.105 0.66 P 
KCO 7.185 0.73 P 
KCR 7.502 0.71 P 
KPR 7.762 0.60 P 
KBU 9.062 0.59 P 
B049 9.190 0.74 P 
PRDS 9.522 0.74 P 
KMR 10.785 0.74 P 
1586 8.272 0.72 S 
89462 8.302 0.77 S 
1582 9.192 0.66 S 
1581 10.002 0.63 S 
RBOW 10.252 0.59 S 
B046 10.490 0.72 S 
KCR 13.622 0.75 S 
KPR 14.292 0.76 S 
B049 16.570 0.74 S 
KBU 16.692 0.75 S 
BRIC 19.722 0.67 S 
# 2022 12 20 11 36 58.273 40.5349 -124.2611 18.412 1.076 0.171 0.171 0.573 149 
KCT 3.490 0.78 P 
89462 4.597 0.81 P 
1582 5.177 0.84 P 
1581 5.577 0.84 P 
RBOW 6.027 0.53 P 
B046 6.215 0.82 P 
KCO 7.180 0.85 P 
KNEE 7.291 0.64 P 
KCR 7.907 0.63 P 
KPR 8.197 0.61 P 
KBU 9.337 0.64 P 
B049 9.545 0.83 P 
PRDS 9.577 0.62 P 
KMR 11.190 0.84 P 
BRIC 11.627 0.60 P 
KCT 7.080 0.57 S 
1584B 7.547 0.82 S 
1023 7.977 0.67 S 
89462 8.377 0.72 S 
1586 8.497 0.57 S 
B046 9.475 0.66 S 
1582 9.517 0.78 S 
1581 10.387 0.80 S 
RBOW 10.397 0.56 S 
KCO 11.570 0.69 S 
PETL 11.917 0.72 S 
KNEE 13.261 0.63 S 
KCR 13.947 0.57 S 
KPR 14.257 0.64 S 
DMOR 15.887 0.54 S 
KBU 17.077 0.65 S 
B049 17.195 0.83 S 
PRDS 17.377 0.56 S 
89688 17.837 0.65 S 
B935 19.165 0.77 S 
KMR 19.980 0.79 S 
BRIC 20.617 0.63 S 
KHBB 26.690 0.55 S 
# 2022 12 20 11 37 13.676 40.5139 -124.4422 15.511 1.920 0.147 0.147 0.419 150 
KCT 4.267 0.65 P 
B046 6.022 0.87 P 
1586 6.054 0.86 P 
PETL 6.404 0.60 P 
KMPB 6.647 0.62 P 
89462 6.674 0.87 P 
1582 6.764 0.86 P 
1581 7.104 0.86 P 
KCO 7.257 0.88 P 
RBOW 7.304 0.61 P 
89781 7.984 0.84 P 
KPR 9.334 0.64 P 
BJES 9.484 0.83 P 
KNEE 9.798 0.65 P 
KCR 10.254 0.66 P 
PRDS 10.448 0.62 P 
DMOR 10.674 0.53 P 
89688 10.684 0.82 P 
KBU 11.204 0.51 P 
B049 11.342 0.84 P 
KMR 12.897 0.80 P 
B935 13.032 0.82 P 
HAYF 16.657 0.58 P 
WEAV 19.544 0.56 P 
KBN 20.834 0.58 P 
PETY 22.485 0.62 P 
1584B 7.434 0.82 S 
KCT 7.657 0.66 S 
1023 9.284 0.73 S 
B046 10.302 0.80 S 
1586 10.934 0.82 S 
PETL 10.974 0.55 S 
KMPB 11.407 0.67 S 
89255 11.574 0.69 S 
89462 11.814 0.83 S 
1582 12.374 0.84 S 
KCO 12.487 0.82 S 
1581 12.784 0.83 S 
RBOW 12.814 0.53 S 
89781 14.014 0.82 S 
KPR 16.484 0.75 S 
KNEE 17.488 0.55 S 
KCR 18.274 0.68 S 
PRDS 18.568 0.58 S 
89688 19.064 0.82 S 
KBU 19.684 0.80 S 
B049 19.912 0.78 S 
BRIC 22.044 0.63 S 
KMR 22.937 0.77 S 
B935 23.192 0.63 S 
1591 23.854 0.67 S 
79046 28.414 0.69 S 
HAYF 30.805 0.62 S 
WEAV 33.734 0.62 S 
